name,unit,capacity[MW],type,start[y],retirement[y],latitude,longitude,county,state
Afton generating station,CC1,287,CC,2007,,32.114185,-106.8465,Dona Ana,New Mexico
Agua Fria power station,AF1,114,ST,1958,,33.5561,-112.2153,Maricopa,Arizona
Agua Fria power station,AF2,114,ST,1957,,33.5561,-112.2153,Maricopa,Arizona
Agua Fria power station,AF3,163,ST,1961,,33.5561,-112.2153,Maricopa,Arizona
Agua Fria power station,AF4,81,GT,1975,,33.5561,-112.2153,Maricopa,Arizona
Agua Fria power station,AF5,71,GT,1974,,33.5561,-112.2153,Maricopa,Arizona
Agua Fria power station,AF6,71,GT,1974,,33.5561,-112.2153,Maricopa,Arizona
Agua Fria power station,AF7,50,GT,2022,,33.5561,-112.2153,Maricopa,Arizona
Agua Fria power station,AF8,50,GT,2022,,33.5561,-112.2153,Maricopa,Arizona
Agua Mansa power plant,AMP1,61,GT,2003,,34.0414,-117.3603,San Bernardino,California
Alamitos energy center,3,310,ST,1961,,33.767229,-118.1002,Los Angeles,California
Alamitos energy center,4,310,ST,1962,,33.767229,-118.1002,Los Angeles,California
Alamitos energy center,5,495,ST,1964,,33.767229,-118.1002,Los Angeles,California
Alamitos energy center,CCT1,678,CC,2020,,33.767229,-118.1002,Los Angeles,California
Algonquin Power Sanger power station,CC1,62,CC,2012,,36.6842,-119.5522,Fresno,California
Almond power plant,1,50,GT,1996,,37.5744,-120.985,Stanislaus,California
Almond power plant,2,58,GT,2012,,37.5744,-120.985,Stanislaus,California
Almond power plant,3,58,GT,2012,,37.5744,-120.985,Stanislaus,California
Almond power plant,4,58,GT,2012,,37.5744,-120.985,Stanislaus,California
AltaGas Ripon Energy power station,GEN1,50,GT,1988,,37.732533,-121.116,San Joaquin,California
Apache Generating Station,ST2,204,ST,2017,,32.0603,-109.8931,Cochise,Arizona
Apex generating station,CC1,601,CC,2003,,36.415999,-114.9609,Clark,Nevada
Arapahoe Station,A567,194,CC,2002,,39.6692,-105.0018,Denver,Colorado
Arlington Valley energy facility,CC1,713,CC,2002,,33.3417,-112.8897,Maricopa,Arizona
Barre Peaker power station,1,50,GT,2007,,33.8073,-117.9832,Orange,California
Basin Creek Plant,1,54.9,IC,2006,,45.9293,-112.5194,Silver Bow,Montana
Beaver power station,CC1,586,CC,1977,,46.172401,-123.1739,Columbia,Oregon
Bennett Mountain power station,1,173,GT,2005,,43.147153,-115.6666,Elmore,Idaho
Black Mountain generating station,1,61,GT,2008,,35.0361,-114.1594,Mohave,Arizona
Black Mountain generating station,2,61,GT,2008,,35.0361,-114.1594,Mohave,Arizona
Blue Spruce energy center,CT01,199,GT,2003,,39.747875,-104.6814,Adams,Colorado
Blue Spruce energy center,CT02,199,GT,2003,,39.747875,-104.6814,Adams,Colorado
Bluffview power station,CC1,67,CC,2005,,36.716628,-108.2153,San Juan,New Mexico
Blythe Energy power station,CC1,591,CC,2003,,33.6157,-114.6865,Riverside,California
Brush generation facility,BCP,74,CC,1994,,40.2415,-103.631,Morgan,Colorado
Brush generation facility,BIV,138,CC,2002,,40.2415,-103.631,Morgan,Colorado
Brush generation facility,CPP,62,CC,1990,,40.2415,-103.631,Morgan,Colorado
CalPeak Power Border Peaker Plant,CPP4,61,GT,2001,,32.562448,-116.9439,San Diego,California
CalPeak Power Enterprise Peaker Plant,CPP7,59,GT,2001,,33.121943,-117.1174,San Diego,California
CalPeak Power Panoche Peaker Plant,CPP2,61,GT,2001,,36.652905,-120.5806,Fresno,California
CalPeak Power Vaca Dixon Peaker Plant,CPP1,61,GT,2002,,38.398867,-121.924,Solano,California
Canyon power plant,CPP1,50,GT,2011,,33.858056,-117.8617,Orange,California
Canyon power plant,CPP2,50,GT,2011,,33.858056,-117.8617,Orange,California
Canyon power plant,CPP3,50,GT,2011,,33.858056,-117.8617,Orange,California
Canyon power plant,CPP4,50,GT,2011,,33.858056,-117.8617,Orange,California
Carlsbad energy center,CEC 6,132,GT,2018,,33.140507,-117.3339,San Diego,California
Carlsbad energy center,CEC 7,132,GT,2018,,33.140507,-117.3339,San Diego,California
Carlsbad energy center,CEC 8,132,GT,2018,,33.140507,-117.3339,San Diego,California
Carlsbad energy center,CEC 9,132,GT,2018,,33.140507,-117.3339,San Diego,California
Carlsbad energy center,CEC10,132,GT,2018,,33.140507,-117.3339,San Diego,California
Carson cogeneration power station,CC1,56,CC,1990,,33.8759,-118.2491,Los Angeles,California
Carson Ice-Gen Project power station,1,54,GT,1995,,38.445681,-121.4624,Sacramento,California
Carson Ice-Gen Project power station,CC1,72,CC,1995,,38.445681,-121.4624,Sacramento,California
Carty generating station,CCG1,500,CC,2016,,45.698611,-119.8131,Morrow,Oregon
Center Hybrid power station,1,50,GT,2007,,33.9296,-118.1046,Los Angeles,California
Chehalis generating facility,CC1,698,CC,2003,,46.6225,-122.9131,Lewis,Washington
Cherokee Station,4,381,ST,2017,,39.807275,-104.9645,Adams,Colorado
Cherokee Station,CHR0,626,CC,2015,,39.807275,-104.9645,Adams,Colorado
Cheyenne Prairie generating station,PB1,100,CC,2014,,41.123611,-104.72,Laramie,Wyoming
Chuck Lenzie generating station,PB1,733,CC,2006,,36.383719,-114.9218,Clark,Nevada
Chuck Lenzie generating station,PB2,733,CC,2006,,36.383719,-114.9218,Clark,Nevada
Clark (NVE) power station,11,61,GT,2008,,36.0875,-115.0507,Clark,Nevada
Clark (NVE) power station,12,61,GT,2008,,36.0875,-115.0507,Clark,Nevada
Clark (NVE) power station,13,61,GT,2008,,36.0875,-115.0507,Clark,Nevada
Clark (NVE) power station,14,61,GT,2008,,36.0875,-115.0507,Clark,Nevada
Clark (NVE) power station,15,61,GT,2008,,36.0875,-115.0507,Clark,Nevada
Clark (NVE) power station,16,61,GT,2008,,36.0875,-115.0507,Clark,Nevada
Clark (NVE) power station,17,61,GT,2008,,36.0875,-115.0507,Clark,Nevada
Clark (NVE) power station,18,61,GT,2008,,36.0875,-115.0507,Clark,Nevada
Clark (NVE) power station,19,61,GT,2008,,36.0875,-115.0507,Clark,Nevada
Clark (NVE) power station,20,61,GT,2008,,36.0875,-115.0507,Clark,Nevada
Clark (NVE) power station,21,59,GT,2008,,36.0875,-115.0507,Clark,Nevada
Clark (NVE) power station,22,61,GT,2008,,36.0875,-115.0507,Clark,Nevada
Clark (NVE) power station,GT4,72,GT,1973,,36.0875,-115.0507,Clark,Nevada
Clark (NVE) power station,PB1,289,CC,1994,,36.0875,-115.0507,Clark,Nevada
Clark (NVE) power station,PB2,289,CC,1993,,36.0875,-115.0507,Clark,Nevada
Colusa generating station,CC1,712,CC,2010,,39.3661,-122.27,Colusa,California
Coolidge generation station,1,61,GT,2011,,32.917399,-111.5033,Pinal,Arizona
Coolidge generation station,2,61,GT,2011,,32.917399,-111.5033,Pinal,Arizona
Coolidge generation station,3,61,GT,2011,,32.917399,-111.5033,Pinal,Arizona
Coolidge generation station,4,61,GT,2011,,32.917399,-111.5033,Pinal,Arizona
Coolidge generation station,5,61,GT,2011,,32.917399,-111.5033,Pinal,Arizona
Coolidge generation station,6,61,GT,2011,,32.917399,-111.5033,Pinal,Arizona
Coolidge generation station,7,61,GT,2011,,32.917399,-111.5033,Pinal,Arizona
Coolidge generation station,8,61,GT,2011,,32.917399,-111.5033,Pinal,Arizona
Coolidge generation station,9,61,GT,2011,,32.917399,-111.5033,Pinal,Arizona
Coolidge generation station,10,61,GT,2011,,32.917399,-111.5033,Pinal,Arizona
Coolidge generation station,11,61,GT,2011,,32.917399,-111.5033,Pinal,Arizona
Coolidge generation station,12,61,GT,2011,,32.917399,-111.5033,Pinal,Arizona
Cosumnes power station,CCC1,557,CC,2006,,38.338475,-121.124,Sacramento,California
Coyote Springs II power station,U2CT,287,CC,2003,,45.848039,-119.674,Morrow,Oregon
Coyote Springs power station,CC1,296,CC,1995,,45.847998,-119.6739,Morrow,Oregon
Crockett cogeneration Project power station,GE1,247,CC,1995,,38.0569,-122.2161,Contra Costa,California
Culbertson generation station,1,108,GT,2010,,48.21,-104.3917,Roosevelt,Montana
Cunningham power station,1,75,ST,1957,,32.7131,-103.3533,Lea,New Mexico
Cunningham power station,2,190,ST,1965,,32.7131,-103.3533,Lea,New Mexico
Cunningham power station,3,127,GT,1998,,32.7131,-103.3533,Lea,New Mexico
Cunningham power station,4,127,GT,1998,,32.7131,-103.3533,Lea,New Mexico
Currant Creek power station,CC1,649,CC,2006,,39.82144,-111.8935,Juab,Utah
Dave Gates generating station,1,68,GT,2011,,46.104713,-112.8766,Deer Lodge,Montana
Dave Gates generating station,2,68,GT,2011,,46.104713,-112.8766,Deer Lodge,Montana
Dave Gates generating station,3,68,GT,2011,,46.104713,-112.8766,Deer Lodge,Montana
Delano energy center,GEN1,61,GT,2013,,35.790864,-119.2945,Tulare,California
Delta energy center,CC1,944,CC,2002,,38.0169,-121.8439,Contra Costa,California
Demoss Petrie power station,GT2,85,GT,2001,,32.252273,-110.9921,Pima,Arizona
Desert Basin power station,CTG4,50,GT,2022,,32.9042,-111.7889,Pinal,Arizona
Desert Basin power station,CTG5,50,GT,2022,,32.9042,-111.7889,Pinal,Arizona
Desert Basin power station,STG3,646,CC,2001,,32.9042,-111.7889,Pinal,Arizona
Desert Star energy center,CC1,537,CC,2000,,35.788889,-114.9942,Clark,Nevada
Donald Von Raesfeld power plant,DVR1,154,CC,2005,,37.3767,-121.9508,Santa Clara,California
Dynegy Moss Landing power plant,CC1,699,CC,2002,,36.804837,-121.7822,Monterey,California
Dynegy Moss Landing power plant,CC2,699,CC,2002,,36.804837,-121.7822,Monterey,California
Dynegy Oakland Power Plant,GEN1,74.5,GT,1978,,37.79675,-122.28185,Alameda,California
Dynegy Oakland Power Plant,GEN2,74.5,GT,1978,2021,37.79675,-122.28185,Alameda,California
Dynegy Oakland Power Plant,GEN3,74.5,GT,1978,,37.79675,-122.28185,Alameda,California
El Cajon energy center,GEN1,61,GT,2010,,32.796106,-116.9721,San Diego,California
El Centro power station,4,82,ST,1968,,32.802222,-115.54,Imperial,California
El Centro power station,STM2,124,CC,1993,,32.802222,-115.54,Imperial,California
El Centro power station,STM3,152,CC,2012,,32.802222,-115.54,Imperial,California
El Segundo cogeneration power station,CC1,180,CC,2013,,33.9058,-118.4031,Los Angeles,California
El Segundo energy center,1011,269,CC,2013,,33.910556,-118.425,Los Angeles,California
El Segundo energy center,2021,269,CC,2013,,33.910556,-118.425,Los Angeles,California
Elk Hills power station,G541,623,CC,2003,,35.280318,-119.4707,Kern,California
Ellwood power station,1,58,GT,1974,,34.431419,-119.9001,Santa Barbara,California
Encogeneration power station,CC1,176,CC,1993,,48.746,-122.486,Whatcom,Washington
Escondido energy center,CTG1,54,GT,2014,,33.1261,-117.1172,San Diego,California
Evander Andrews power Complex,1,179,GT,2008,,43.179176,-115.7343,Elmore,Idaho
Ferndale generating station,CC1,286,CC,1994,,48.828996,-122.6851,Whatcom,Washington
Fort Churchill power station,1,115,ST,1968,,39.1281,-119.1322,Lyon,Nevada
Fort Churchill power station,2,115,ST,1971,,39.1281,-119.1322,Lyon,Nevada
Fort Lupton power station,1,50,GT,1972,,40.0922,-104.796,Weld,Colorado
Fort Lupton power station,2,50,GT,1972,,40.0922,-104.796,Weld,Colorado
Fort St Vrain power station,5,140,GT,2009,,40.2461,-104.8742,Weld,Colorado
Fort St Vrain power station,6,140,GT,2009,,40.2461,-104.8742,Weld,Colorado
Fort St Vrain power station,FSV0,868,CC,2001,,40.2461,-104.8742,Weld,Colorado
Foster Wheeler Martinez power station,CC1,114,CC,1987,,38.0244,-122.0589,Contra Costa,California
Frank Knutson power station,BR1,77,GT,2002,,39.941129,-104.682,Adams,Colorado
Frank Knutson power station,BR2,77,GT,2002,,39.941129,-104.682,Adams,Colorado
Frederickson Power power station,FP1,318,CC,2002,,47.086111,-122.3657,Pierce,Washington
Frederickson power station,1,89,GT,1981,,47.079722,-122.365,Pierce,Washington
Frederickson power station,2,89,GT,1981,,47.079722,-122.365,Pierce,Washington
Fresno cogeneration Partners power station,CC1,62,CC,2004,,36.617022,-120.0998,Fresno,California
Front Range power plant,CC1,554,CC,2003,,38.6281,-104.7069,El Paso,Colorado
Gadsby power station,1,69,ST,1951,,40.7686,-111.9289,Salt Lake,Utah
Gadsby power station,2,69,ST,1952,,40.7686,-111.9289,Salt Lake,Utah
Gadsby power station,3,134,ST,1955,,40.7686,-111.9289,Salt Lake,Utah
Gadsby power station,4,71,GT,2002,,40.7686,-111.9289,Salt Lake,Utah
Gadsby power station,5,71,GT,2002,,40.7686,-111.9289,Salt Lake,Utah
Gadsby power station,6,71,GT,2002,,40.7686,-111.9289,Salt Lake,Utah
Gateway generating station,CC1,620,CC,2009,,38.0175,-121.7587,Contra Costa,California
Gila River power station,BL03,619,CC,2003,,32.975,-112.6944,Maricopa,Arizona
Gila River power station,BL04,619,CC,2003,,32.975,-112.6944,Maricopa,Arizona
Gila River power station,PB1,619,CC,2003,,32.975,-112.6944,Maricopa,Arizona
Gila River power station,PB2,619,CC,2003,,32.975,-112.6944,Maricopa,Arizona
Gilroy power plant,CC1,130,CC,1987,,37.0001,-121.5367,Santa Clara,California
Glenarm power station,1,87,CC,2016,,34.126,-118.1494,Los Angeles,California
Glenarm power station,GT3,61,GT,2004,,34.126,-118.1494,Los Angeles,California
Glenarm power station,GT4,61,GT,2004,,34.126,-118.1494,Los Angeles,California
Goal Line power station,CC1,51,CC,1994,,33.1185,-117.0995,San Diego,California
Goldendale generating station,CC1,303,CC,2004,,45.8114,-120.833,Klickitat,Washington
Grapeland Hybrid power station,1,50,GT,2007,,34.0903,-117.5343,San Bernardino,California
Grays Harbor energy facility,CC01,715,CC,2008,,46.9692,-123.48,Grays Harbor,Washington
Grayson power station,4,50,ST,1959,,34.1556,-118.2782,Los Angeles,California
Grayson power station,5,50,ST,1964,,34.1556,-118.2782,Los Angeles,California
Grayson power station,9,57,GT,2004,,34.1556,-118.2782,Los Angeles,California
Grayson power station,CC1,121,CC,1977,,34.1556,-118.2782,Los Angeles,California
Greenleaf 2 power plant,GEN1,50,GT,1989,,39.1365,-121.6397,Sutter,California
Griffith Energy power station,1111,655,CC,2002,,35.054029,-114.1333,Mohave,Arizona
H. Wilson Sundt Generating Station,4,173,ST,1967,,32.16,-110.9047,Pima,Arizona
H. Wilson Sundt Generating Station,IC,188,IC,2020,,32.16,-110.905,Pima,Arizona
H. Wilson Sundt Generating Station,ST3,114,ST,1962,,32.16,-110.9047,Pima,Arizona
Hanford Energy Park Emergency Peaker Project,1,95,GT,2001,,36.3315688718025,-119.646187814904,Kings,California
Harbor cogeneration power station,HCCC,107,CC,2001,,33.7771,-118.2303,Los Angeles,California
Harbor power station,CC1,246,CC,1995,,33.7706,-118.2656,Los Angeles,California
Harbor power station,GT10,61,GT,2002,,33.7706,-118.2656,Los Angeles,California
Harbor power station,GT11,61,GT,2002,,33.7706,-118.2656,Los Angeles,California
Harbor power station,GT12,61,GT,2002,,33.7706,-118.2656,Los Angeles,California
Harbor power station,GT13,61,GT,2002,,33.7706,-118.2656,Los Angeles,California
Harbor power station,GT14,61,GT,2002,,33.7706,-118.2656,Los Angeles,California
Harquahala generating project,BLK1,426,CC,2004,,33.47596,-113.1134,Maricopa,Arizona
Harquahala generating project,BLK2,426,CC,2004,,33.47596,-113.1134,Maricopa,Arizona
Harquahala generating project,BLK3,426,CC,2004,,33.47596,-113.1134,Maricopa,Arizona
Harry Allen power station,GT1,102,GT,1995,,36.430554,-114.9024,Clark,Nevada
Harry Allen power station,GT4,85,GT,2006,,36.430554,-114.9024,Clark,Nevada
Harry Allen power station,PB1,559,CC,2011,,36.430554,-114.9024,Clark,Nevada
Haynes power station,1,230,ST,1962,,33.764741,-118.0991,Los Angeles,California
Haynes power station,2,230,ST,1963,,33.764741,-118.0991,Los Angeles,California
Haynes power station,11,108,GT,2013,,33.764741,-118.0991,Los Angeles,California
Haynes power station,12,108,GT,2013,,33.764741,-118.0991,Los Angeles,California
Haynes power station,13,108,GT,2013,,33.764741,-118.0991,Los Angeles,California
Haynes power station,14,108,GT,2013,,33.764741,-118.0991,Los Angeles,California
Haynes power station,15,108,GT,2013,,33.764741,-118.0991,Los Angeles,California
Haynes power station,16,108,GT,2013,,33.764741,-118.0991,Los Angeles,California
Haynes power station,CC1,630,CC,2005,,33.764741,-118.0991,Los Angeles,California
Henrietta Peaker Project,1,95,GT,2002,,36.3491838188483,-119.784642615204,Kings,California
Hermiston generating plant,CC1,311,CC,1996,,45.8042,-119.37,Umatilla,Oregon
Hermiston generating plant,CC2,311,CC,1996,,45.8042,-119.37,Umatilla,Oregon
Hermiston power project,CC1,689,CC,2002,,45.794046,-119.3133,Umatilla,Oregon
Higgins generating station,PB1,688,CC,2004,,35.6139,-115.3561,Clark,Nevada
High Desert power plant,STG1,852,CC,2003,,34.5953,-117.3647,San Bernardino,California
Hobbs generating station,CC1,682,CC,2008,,32.728333,-103.3094,Lea,New Mexico
Humboldt Bay power station,IC,167,IC,2010,,40.7415,-124.2103,Humboldt,California
Huntington Beach generating station,2,218,ST,1958,,33.645618,-117.9794,Orange,California
Huntington Beach generating station,CCT1,699,CC,2020,,33.645618,-117.9794,Orange,California
Indigo energy facility,CTG1,50,GT,2001,,33.910873,-116.553,Riverside,California
Indigo energy facility,CTG2,50,GT,2001,,33.910873,-116.553,Riverside,California
Indigo energy facility,CTG3,50,GT,2001,,33.910873,-116.553,Riverside,California
Inland Empire energy center,1,410,CC,2009,2020,33.738839,-117.1704,Riverside,California
Inland Empire energy center,2,410,CC,2010,2020,33.738839,-117.1704,Riverside,California
Ivanpah 1 power station,ST1,126,ST,2013,,35.533056,-115.4525,San Bernardino,California
Ivanpah 2 power station,ST1,133,ST,2013,,35.556111,-115.4686,San Bernardino,California
Ivanpah 3 power station,ST1,133,ST,2013,,35.580833,-115.4825,San Bernardino,California
JM Shafer generating station,J272,397,CC,1994,,40.0986,-104.7736,Weld,Colorado
Kern River cogeneration power station,GTAG,75,GT,1985,,35.4515,-118.9849,Kern,California
Kern River cogeneration power station,GTBG,75,GT,1985,,35.4515,-118.9849,Kern,California
Kern River cogeneration power station,GTCG,75,GT,1985,,35.4515,-118.9849,Kern,California
Kern River cogeneration power station,GTDG,75,GT,1985,,35.4515,-118.9849,Kern,California
King City power plant,CC01,133,CC,1989,,36.225,-121.1278,Monterey,California
Klamath cogeneration plant,CC1,502,CC,2001,,42.173889,-121.8106,Klamath,Oregon
Kyrene power station,KY4,53,GT,1971,,33.3556,-111.9353,Maricopa,Arizona
Kyrene power station,KY5,60,GT,1973,,33.3556,-111.9353,Maricopa,Arizona
Kyrene power station,KY6,60,GT,1973,,33.3556,-111.9353,Maricopa,Arizona
Kyrene power station,KYS7,292,CC,2002,,33.3556,-111.9353,Maricopa,Arizona
La Paloma generating plant,GEN1,289,CC,2003,,35.2956,-119.5919,Kern,California
La Paloma generating plant,GEN2,289,CC,2003,,35.2956,-119.5919,Kern,California
La Paloma generating plant,GEN3,289,CC,2003,,35.2956,-119.5919,Kern,California
La Paloma generating plant,GEN4,289,CC,2003,,35.2956,-119.5919,Kern,California
Lake One power station,L1,61,GT,2002,,34.1772,-118.3147,Los Angeles,California
Lake Side power plant,CC1,657,CC,2007,,40.331667,-111.7542,Utah,Utah
Lake Side power plant,CC2,728,CC,2014,,40.331667,-111.7542,Utah,Utah
Langley Gulch power plant,LG1,319,CC,2012,,43.904444,-116.8197,Payette,Idaho
Larkspur energy facility,CTG1,50,GT,2001,,32.567041,-116.9442,San Diego,California
Larkspur energy facility,CTG2,50,GT,2001,,32.567041,-116.9442,San Diego,California
Las Vegas generating station,CCB1,61,CC,1994,,36.2319,-115.1222,Clark,Nevada
Las Vegas generating station,CCB2,149,CC,2003,,36.2319,-115.1222,Clark,Nevada
Las Vegas generating station,CCB3,149,CC,2003,,36.2319,-115.1222,Clark,Nevada
Limon generating station,L1,77,GT,2002,,39.2038,-103.7005,Lincoln,Colorado
Limon generating station,L2,77,GT,2002,,39.2038,-103.7005,Lincoln,Colorado
Lodi energy center,CC1,289,CC,2012,,38.088056,-121.3875,San Joaquin,California
Long Beach Generation power station,CT1,63,GT,1976,,33.7641,-118.2248,Los Angeles,California
Long Beach Generation power station,CT2,63,GT,1976,,33.7641,-118.2248,Los Angeles,California
Long Beach Generation power station,CT3,63,GT,1976,,33.7641,-118.2248,Los Angeles,California
Long Beach Generation power station,CT4,63,GT,1976,,33.7641,-118.2248,Los Angeles,California
Los Angeles Refinery Wilmington power station,G2,59,GT,1988,,33.7686,-118.2867,Los Angeles,California
Los Esteros Critical energy center,CC1,306,CC,2013,,37.425,-121.9319,Santa Clara,California
Los Medanos energy center,CC1,678,CC,2001,,38.030071,-121.873,Contra Costa,California
Luna energy facility,CC1,650,CC,2006,,32.299349,-107.7834,Luna,New Mexico
Maddox power station,1,114,ST,1967,,32.714224,-103.3015,Lea,New Mexico
Maddox power station,2,87,GT,1976,,32.714224,-103.3015,Lea,New Mexico
Magnolia power project,CC1,388,CC,2005,,34.1786,-118.3153,Los Angeles,California
Malaga power station,GT-1,61,GT,2005,,36.6697,-119.7404,Fresno,California
Malaga power station,GT-2,61,GT,2005,,36.6697,-119.7404,Fresno,California
Malburg power station,MGS,130,CC,2005,,33.9986,-118.2219,Los Angeles,California
Manchief Electric generating station,UN1,150,GT,2000,,40.217143,-103.685,Morgan,Colorado
Manchief Electric generating station,UN2,150,GT,2000,,40.217143,-103.685,Morgan,Colorado
Mariposa Energy Project,CTG1,50,GT,2012,,37.789167,-121.6019,Alameda,California
Mariposa Energy Project,CTG2,50,GT,2012,,37.789167,-121.6019,Alameda,California
Mariposa Energy Project,CTG3,50,GT,2012,,37.789167,-121.6019,Alameda,California
Mariposa Energy Project,CTG4,50,GT,2012,,37.789167,-121.6019,Alameda,California
Marsh Landing generating station,1,207,GT,2013,,38.016944,-121.765,Contra Costa,California
Marsh Landing generating station,2,207,GT,2013,,38.016944,-121.765,Contra Costa,California
Marsh Landing generating station,3,207,GT,2013,,38.016944,-121.765,Contra Costa,California
Marsh Landing generating station,4,207,GT,2013,,38.016944,-121.765,Contra Costa,California
Martin Drake Power Plant,7,132,ST,1974,2022,38.824444,-104.8333,El Paso,Colorado
Martinez Refining power station,CC1,100,CC,1996,,38.0169,-122.1117,Contra Costa,California
McClellan (CA) power station,1,77,GT,1986,,38.652731,-121.3933,Sacramento,California
McClure power station,1,71,GT,1980,,37.62936,-120.9314,Stanislaus,California
McClure power station,2,71,GT,1981,,37.62936,-120.9314,Stanislaus,California
McGrath Peaker power station,1,50,GT,2012,,34.205556,-119.2469,Ventura,California
Mesquite generating station block 1,BLK1,692,CC,2003,,33.345,-112.8642,Maricopa,Arizona
Mesquite generating station block 2,BLK2,692,CC,2003,,33.345047,-112.8642,Maricopa,Arizona
Metcalf energy center,CC1,635,CC,2005,,37.2207,-121.7457,Santa Clara,California
Midway Peaking power station,1,70,GT,2009,,36.654114,-120.5797,Fresno,California
Midway Peaking power station,2,70,GT,2009,,36.654114,-120.5797,Fresno,California
Midway Sunset cogeneration power station,A,78,GT,1989,,35.2269,-119.6294,Kern,California
Midway Sunset cogeneration power station,B,78,GT,1989,,35.2269,-119.6294,Kern,California
Midway Sunset cogeneration power station,C,78,GT,1989,,35.2269,-119.6294,Kern,California
Mint Farm generating station,CC1,319,CC,2008,,46.138824,-122.9855,Cowlitz,Washington
Mira Loma Peaker power station,1,50,GT,2007,,34.0053,-117.5604,San Bernardino,California
Miramar energy facility,1,53,GT,2005,,32.8769,-117.1664,San Diego,California
Miramar energy facility,2,53,GT,2009,,32.8769,-117.1664,San Diego,California
Mountainview generating station,3,518,CC,2005,,34.0818,-117.2418,San Bernardino,California
Mountainview generating station,4,518,CC,2006,,34.0818,-117.2418,San Bernardino,California
Naughton Power Plant,3,384,ST,2021,,41.7581,-110.5983,Lincoln,Wyoming
Nebo power station,CC1,140,CC,2004,,40.0614,-111.7294,Utah,Utah
Nevada cogeneration Associates 1 power station,CC1,95,CC,1992,,36.343229,-114.9207,Clark,Nevada
Nevada cogeneration Associates 2 power station,STG1,96,CC,1992,,36.2253,-114.8783,Clark,Nevada
Nevada Solar One power station,ONE,76,ST,2007,,35.799798,-114.9817,Clark,Nevada
Niland Gas Turbine Plant,1,61,GT,2008,,33.238842,-115.5045,Imperial,California
Niland Gas Turbine Plant,2,61,GT,2008,,33.238842,-115.5045,Imperial,California
Northeast (WA) power station,1,62,GT,1978,,47.73511,-117.3705,Spokane,Washington
Northern California Power Agency CT Project 2,NA1,50,GT,1996,,38.088138,-121.3869,San Joaquin,California
Ocotillo power station,GT1,53,GT,1972,,33.4225,-111.9122,Maricopa,Arizona
Ocotillo power station,GT2,53,GT,1973,,33.4225,-111.9122,Maricopa,Arizona
Ocotillo power station,GT3,162,GT,2019,,33.4225,-111.9122,Maricopa,Arizona
Ocotillo power station,GT4,162,GT,2019,,33.4225,-111.9122,Maricopa,Arizona
Ocotillo power station,GT5,162,GT,2019,,33.4225,-111.9122,Maricopa,Arizona
Ocotillo power station,GT6,162,GT,2019,,33.4225,-111.9122,Maricopa,Arizona
Ocotillo power station,GT7,162,GT,2019,,33.4225,-111.9122,Maricopa,Arizona
Orange Grove peaking facility,CTG1,59,GT,2010,,33.3594,-117.1114,San Diego,California
Orange Grove peaking facility,CTG2,59,GT,2010,,33.3594,-117.1114,San Diego,California
Ormond Beach power station,1,806,ST,1971,,34.1292,-119.1689,Ventura,California
Ormond Beach power station,2,806,ST,1973,,34.1292,-119.1689,Ventura,California
Otay Mesa Generating Project,CC1,689,CC,2009,,32.581481,-116.915,San Diego,California
Oxnard power station,GEN2,50,GT,1989,,34.196,-119.1667,Ventura,California
Palomar Energy power station,CC1,559,CC,2006,,33.1197,-117.1178,San Diego,California
Panoche energy center,1,108,GT,2009,,36.6514,-120.5833,Fresno,California
Panoche energy center,2,108,GT,2009,,36.6514,-120.5833,Fresno,California
Panoche energy center,3,108,GT,2009,,36.6514,-120.5833,Fresno,California
Panoche energy center,4,108,GT,2009,,36.6514,-120.5833,Fresno,California
Panoche Peaker power station,8,57,GT,1973,,36.6535,-120.5783,Fresno,California
Pastoria energy facility,PB01,521,CC,2005,,34.9556,-118.844,Kern,California
Pastoria energy facility,PB02,258,CC,2005,,34.9556,-118.844,Kern,California
Pio Pico energy center,CTG1,132,GT,2016,,32.573889,-116.9178,San Diego,California
Pio Pico energy center,CTG2,132,GT,2016,,32.573889,-116.9178,San Diego,California
Pio Pico energy center,CTG3,132,GT,2016,,32.573889,-116.9178,San Diego,California
Plains End II power station,IC,117.6,IC,2008,,39.8586,-105.2256,Jefferson,Colorado
Plains End power station,IC,114,IC,2002,,39.857499,-105.225967,Jefferson,Colorado
Port Westward power station,CCG1,483,CC,2007,,46.17894,-123.172,Columbia,Oregon
Port Westward Unit 2 power station,1,225.6,IC,2014,,46.178889,-123.171944,Columbia,Oregon
Pueblo Airport generating station,GT1,100,GT,2012,,38.320833,-104.5264,Pueblo,Colorado
Pueblo Airport generating station,GT2,100,GT,2012,,38.320833,-104.5264,Pueblo,Colorado
Pueblo Airport generating station,PB4,100,CC,2012,,38.320833,-104.5264,Pueblo,Colorado
Pueblo Airport generating station,PB5,100,CC,2012,,38.320833,-104.5264,Pueblo,Colorado
Rathdrum power station,1,83,GT,1994,,47.7858,-116.9203,Kootenai,Idaho
Rathdrum power station,2,83,GT,1994,,47.7858,-116.9203,Kootenai,Idaho
Rathdrum power station,CC1,302,CC,2001,,47.7858,-116.9203,Kootenai,Idaho
Rawhide Energy Station,A,89,GT,2002,,40.860905,-105.0212,Larimer,Colorado
Rawhide Energy Station,B,89,GT,2002,,40.860905,-105.0212,Larimer,Colorado
Rawhide Energy Station,C,89,GT,2002,,40.860905,-105.0212,Larimer,Colorado
Rawhide Energy Station,D,89,GT,2004,,40.860905,-105.0212,Larimer,Colorado
Rawhide Energy Station,F,150,GT,2008,,40.860905,-105.0212,Larimer,Colorado
Red Hawk power station,CC1,573,CC,2002,,33.334562,-112.8406,Maricopa,Arizona
Red Hawk power station,CC2,567,CC,2002,,33.334562,-112.8406,Maricopa,Arizona
Redding power station,101,109,CC,2011,,40.507292,-122.4233,Shasta,California
Redondo Beach generation station,5,163,ST,1954,2023,33.8504,-118.395,Los Angeles,California
Redondo Beach generation station,6,163,ST,1957,2023,33.8504,-118.395,Los Angeles,California
Redondo Beach generation station,8,495,ST,1967,2023,33.8504,-118.395,Los Angeles,California
Reeves power station,3,66,ST,1962,,35.171,-106.6019,Bernalillo,New Mexico
Richmond cogeneration power station,CC1,156,CC,2006,,37.9418,-122.3909,Contra Costa,California
Rifle generating station,CC1,84,CC,1987,2022,39.5173,-107.7299,Garfield,Colorado
Rio Bravo (NM) power station,GT1,150,GT,2000,,35.026,-106.644,Bernalillo,New Mexico
Rio Grande (New Mexico) power station,6,50,ST,1957,,31.8047,-106.5472,Dona Ana,New Mexico
Rio Grande (New Mexico) power station,7,50,ST,1958,,31.8047,-106.5472,Dona Ana,New Mexico
Rio Grande (New Mexico) power station,8,167,ST,1972,,31.8047,-106.5472,Dona Ana,New Mexico
Rio Grande (New Mexico) power station,9,132,GT,2013,,31.8047,-106.5472,Dona Ana,New Mexico
Ripon generation station,1,61,GT,2006,,37.7315,-121.116,San Joaquin,California
Ripon generation station,2,61,GT,2006,,37.7315,-121.116,San Joaquin,California
River Road Gen Plant,1,248,CC,1997,,45.6497,-122.7256,Clark,Washington
Riverside Energy Resource Center (CA),1,50,GT,2006,,33.9636,-117.4528,Riverside,California
Riverside Energy Resource Center (CA),2,50,GT,2006,,33.9636,-117.4528,Riverside,California
Rocky Mountain energy center,RKM0,685,CC,2004,,40.0908,-104.5953,Weld,Colorado
Roseville energy park,A101,165,CC,2007,,38.7928,-121.3811,Placer,California
Russell City energy center,CC1,655,CC,2013,,37.63466,-122.1338,Alameda,California
Saguaro (AZ) power station,GE1,78,GT,2002,,32.5517,-111.3,Pinal,Arizona
Saguaro (AZ) power station,GT1,53,GT,1972,,32.5517,-111.3,Pinal,Arizona
Saguaro (AZ) power station,GT2,53,GT,1973,,32.5517,-111.3,Pinal,Arizona
Saguaro power (NV) station,CC1,127,CC,1991,,36.0417,-115.0117,Clark,Nevada
Santan power station,ST1,104,CC,1974,,33.3325,-111.7503,Maricopa,Arizona
Santan power station,ST2,104,CC,1974,,33.3325,-111.7503,Maricopa,Arizona
Santan power station,ST3,104,CC,1974,,33.3325,-111.7503,Maricopa,Arizona
Santan power station,ST4,104,CC,1975,,33.3325,-111.7503,Maricopa,Arizona
Santan power station,STS5,622,CC,2005,,33.3325,-111.7503,Maricopa,Arizona
Santan power station,STS6,290,CC,2006,,33.3325,-111.7503,Maricopa,Arizona
SCA cogeneration 2 power station,CCC1,149,CC,1997,,38.530943,-121.4001,Sacramento,California
Scattergood power station,1,163,ST,1958,,33.918151,-118.4276,Los Angeles,California
Scattergood power station,2,163,ST,1959,,33.918151,-118.4276,Los Angeles,California
Scattergood power station,6,107,GT,2015,,33.918151,-118.4276,Los Angeles,California
Scattergood power station,7,107,GT,2015,,33.918151,-118.4276,Los Angeles,California
Scattergood power station,CC1,336,CC,2015,,33.918151,-118.4276,Los Angeles,California
SEGS IX power station,GEN1,92,ST,1990,,35.033,-117.338,San Bernardino,California
SEGS VIII power station,GEN1,92,ST,1989,2021,35.0308,-117.3563,San Bernardino,California
Sentinel energy center,CTG1,100,GT,2013,,33.934167,-116.5714,Riverside,California
Sentinel energy center,CTG2,100,GT,2013,,33.934167,-116.5714,Riverside,California
Sentinel energy center,CTG3,100,GT,2013,,33.934167,-116.5714,Riverside,California
Sentinel energy center,CTG4,100,GT,2013,,33.934167,-116.5714,Riverside,California
Sentinel energy center,CTG5,100,GT,2013,,33.934167,-116.5714,Riverside,California
Sentinel energy center,CTG6,100,GT,2013,,33.934167,-116.5714,Riverside,California
Sentinel energy center,CTG7,100,GT,2013,,33.934167,-116.5714,Riverside,California
Sentinel energy center,CTG8,100,GT,2013,,33.934167,-116.5714,Riverside,California
Silverhawk power station,PB1,665,CC,2004,,36.4078,-114.9606,Clark,Nevada
South Point energy center,CC1,708,CC,2001,,34.8678,-114.5317,Mohave,Arizona
SPA cogeneration 3 power station,CCC1,174,CC,1997,,38.511,-121.4735,Sacramento,California
Spindle Hill energy center,GEN1,210,GT,2007,,40.092192,-104.8878,Weld,Colorado
Spindle Hill energy center,GEN2,210,GT,2007,,40.092192,-104.8878,Weld,Colorado
Stanton Energy Reliability Center,GT1,71,GT,2020,,33.806801,-117.9858,Orange,California
Stanton Energy Reliability Center,GT2,71,GT,2020,,33.806801,-117.9858,Orange,California
Sumas power plant,CC1,126,CC,1993,,48.9905,-122.2733,Whatcom,Washington
Sundance power station,CT1,61,GT,2002,,32.9285,-111.5899,Pinal,Arizona
Sundance power station,CT10,61,GT,2002,,32.9285,-111.5899,Pinal,Arizona
Sundance power station,CT2,61,GT,2002,,32.9285,-111.5899,Pinal,Arizona
Sundance power station,CT3,61,GT,2002,,32.9285,-111.5899,Pinal,Arizona
Sundance power station,CT4,61,GT,2002,,32.9285,-111.5899,Pinal,Arizona
Sundance power station,CT5,61,GT,2002,,32.9285,-111.5899,Pinal,Arizona
Sundance power station,CT6,61,GT,2002,,32.9285,-111.5899,Pinal,Arizona
Sundance power station,CT7,61,GT,2002,,32.9285,-111.5899,Pinal,Arizona
Sundance power station,CT8,61,GT,2002,,32.9285,-111.5899,Pinal,Arizona
Sundance power station,CT9,61,GT,2002,,32.9285,-111.5899,Pinal,Arizona
Sunrise power station,CC1,685,CC,2003,,35.2097,-119.585,Kern,California
Sutter energy center,CC1,636,CC,2001,,39.053139,-121.6959,Sutter,California
Sycamore cogeneration power station,GTAG,75,GT,1987,,35.452577,-118.9853,Kern,California
Sycamore cogeneration power station,GTBG,75,GT,1987,,35.452577,-118.9853,Kern,California
Sycamore cogeneration power station,GTCG,75,GT,1987,,35.452577,-118.9853,Kern,California
Sycamore cogeneration power station,GTDG,75,GT,1987,,35.452577,-118.9853,Kern,California
THUMS power station,GEN1,57,GT,2003,,33.7684,-118.2141,Los Angeles,California
Tracy Combined Cycle power plant,CC12,336,CC,2012,,37.7107,-121.4906,San Joaquin,California
Tracy power station,3,120,ST,1974,,39.5625,-119.525,Storey,Nevada
Tracy power station,G240,120,CC,1996,,39.5625,-119.525,Storey,Nevada
Tracy power station,GT3,85,GT,1994,,39.5625,-119.525,Storey,Nevada
Tracy power station,GT4,85,GT,1994,,39.5625,-119.525,Storey,Nevada
Tracy power station,PB1,623,CC,2008,,39.5625,-119.525,Storey,Nevada
Valencia energy facility,CTG1,160,GT,2008,,34.611549,-106.7322,Valencia,New Mexico
Valencia power station,GT4,54,GT,2006,,31.363472,-110.9313,Santa Cruz,Arizona
Valero Refinery cogeneration Unit 1 power station,GT 1,50,GT,2002,,38.0736,-122.1411,Solano,California
Valley (CA) power station,5,61,GT,2001,,34.244991,-118.3913,Los Angeles,California
Valley (CA) power station,CC1,630,CC,2003,,34.244991,-118.3913,Los Angeles,California
Valmont Station,6,59,GT,1973,,40.0205,-105.2009,Boulder,Colorado
Valmont Station,UN7,71,GT,2000,,40.0205,-105.2009,Boulder,Colorado
Valmont Station,UN8,71,GT,2001,,40.0205,-105.2009,Boulder,Colorado
Walnut Creek energy park,GT1,100,GT,2013,,34.008709,-117.9449,Los Angeles,California
Walnut Creek energy park,GT2,100,GT,2013,,34.008709,-117.9449,Los Angeles,California
Walnut Creek energy park,GT3,100,GT,2013,,34.008709,-117.9449,Los Angeles,California
Walnut Creek energy park,GT4,100,GT,2013,,34.008709,-117.9449,Los Angeles,California
Walnut Creek energy park,GT5,100,GT,2013,,34.008709,-117.9449,Los Angeles,California
Walnut energy center,WEC,301,CC,2006,,37.4878,-120.8956,Stanislaus,California
Watson cogeneration power station,CC1,405,CC,1988,,33.816647,-118.2448,Los Angeles,California
West Phoenix power station,1B,132,CC,1976,,33.4417,-112.1583,Maricopa,Arizona
West Phoenix power station,2B,132,CC,1976,,33.4417,-112.1583,Maricopa,Arizona
West Phoenix power station,3B,132,CC,1976,,33.4417,-112.1583,Maricopa,Arizona
West Phoenix power station,CC1,136,CC,2001,,33.4417,-112.1583,Maricopa,Arizona
West Phoenix power station,CC2,570,CC,2003,,33.4417,-112.1583,Maricopa,Arizona
West Phoenix power station,GT1,53,GT,1972,,33.4417,-112.1583,Maricopa,Arizona
West Phoenix power station,GT2,53,GT,1973,,33.4417,-112.1583,Maricopa,Arizona
Western 102 power station,1,117.6,IC,2005,,39.5603,-119.5108,Storey,Nevada
Whitehorn power station,2,85,GT,1981,,48.885636,-122.7516,Whatcom,Washington
Whitehorn power station,3,85,GT,1981,,48.885636,-122.7516,Whatcom,Washington
Woodland power station,CC1,98,CC,2003,,37.652602,-121.0204,Stanislaus,California
Woodland power station,IC,50.4,IC,2011,,37.652602,-121.020397,Stanislaus,California
Woodland power station,NA1,50,GT,1993,,37.652602,-121.0204,Stanislaus,California
Yellowstone Energy LP power station,GEN1,68,ST,1995,,45.8117,-108.4278,Yellowstone,Montana
Yuba City cogeneration Partners power station,GEN1,50,GT,1990,,39.13667,-121.6398,Sutter,California
Yucca power station,GT3,72,GT,1973,,32.7214,-114.7106,Yuma,Arizona
Yucca power station,GT4,72.4,GT,1974,,32.7214,-114.7106,Yuma,Arizona
Yucca power station,GT5,61,GT,2008,,32.7214,-114.7106,Yuma,Arizona
Yucca power station,GT6,61,GT,2008,,32.7214,-114.7106,Yuma,Arizona
Yucca power station,ST1,87,ST,1959,,32.7214,-114.7106,Yuma,Arizona
Yuma cogeneration Associates power station,YUCG,63,CC,1994,,32.728822,-114.6541,Yuma,Arizona
