Substation ID,Substation Name,Alias,Status,Owner,Map Owner,Map Part,Engineering ID,12kV T 32kV,110kV To 161kV,Highest_kV,Postal City,County,Zip Code,State,Comments,33kV To 92kV,220kV To 287kV,345kV To 500kV
"SS0003","Jenney"," ","Operational","Other","Other","M"," ","YES","YES","110kV to 161kV","Alameda","Alameda","94501","CA"," ","","",""
"SS0004","Corona"," ","Operational","PG&E","PG&E","M"," ","","YES","110kV to 161kV","Petaluma","Sonoma","94954","CA"," ","YES","",""
"SS0005","South Bay 1"," ","Operational","PG&E","PG&E","M"," ","","","33kV to 92kV","Byron","Alameda","94514","CA"," ","YES","",""
"SS0007","Altamont"," ","Operational","PG&E","PG&E","M"," ","","","33kV to 92kV","Livermore","Alameda","94551","CA"," ","YES","",""
"SS0008","Castro Valley"," ","Operational","PG&E","PG&E","M"," ","","","220kV to 287kV","Castro Valley","Alameda","94546","CA"," ","","YES",""
"SS0009","Claremont K","STA. K","Operational","PG&E","PG&E","M"," ","","YES","110kV to 161kV","Oakland","Alameda","94618","CA"," ","","",""
"SS0010","Cryogenics"," ","Operational","Other","Other","M"," ","","YES","110kV to 161kV","Union City","Alameda","94587","CA"," ","","",""
"SS0011","Kekawaka"," ","Operational","PG&E","PG&E","U"," ","","","33kV to 92kV","Zenia","Trinity","95595","CA"," ","YES","",""
"SS0012","Dumbarton"," ","Operational","PG&E","PG&E","M"," ","","YES","110kV to 161kV","Fremont","Alameda","94555","CA"," ","","",""
"SS0013","Eastshore"," ","Operational","PG&E","PG&E","M"," ","","YES","220kV to 287kV","Hayward","Alameda","94545","CA"," ","","YES",""
"SS0014","Edes"," ","Operational","PG&E","PG&E","M"," ","","YES","110kV to 161kV","Oakland","Alameda","94603","CA"," ","","",""
"SS0015","Fremont"," ","Operational","PG&E","PG&E","M"," ","","YES","110kV to 161kV","Fremont","Alameda","94538","CA"," ","","",""
"SS0016","Nummi","GENERAL MOTORS","Operational","Other","Other","M"," ","","YES","110kV to 161kV","Fremont","Alameda","94538","CA"," ","","",""
"SS0017","Grant"," ","Operational","PG&E","PG&E","M"," ","","YES","110kV to 161kV","San Lorenzo","Alameda","94580","CA"," ","","",""
"SS0018","Grizzly","U.C. BERKELEY","Operational","Other","Other","M"," ","","","33kV to 92kV","Berkeley","Alameda","94720","CA"," ","YES","",""
"SS0019","Iuka"," ","Operational","PG&E","PG&E","M"," ","","","33kV to 92kV","Pleasanton","Alameda","94566","CA"," ","YES","",""
"SS0020","Jarvis"," ","Operational","PG&E","PG&E","M"," ","","YES","110kV to 161kV","Union City","Alameda","94587","CA"," ","","",""
"SS0021","Kaiser"," ","Operational","Other","Other","M"," ","","","33kV to 92kV","Dublin","Alameda","94568","CA"," ","YES","",""
"SS0022","Las Positas"," ","Operational","PG&E","PG&E","M"," ","","","220kV to 287kV","Livermore","Alameda","94551","CA"," ","YES","YES",""
"SS0023","Livermore"," ","Operational","PG&E","PG&E","M"," ","","","33kV to 92kV","Livermore","Alameda","94551","CA"," ","YES","",""
"SS0024","Mt. Eden"," ","Operational","PG&E","PG&E","M"," ","","","220kV to 287kV","Hayward","Alameda","94545","CA"," ","YES","YES",""
"SS0025","Newark"," ","Operational","PG&E","PG&E","M"," ","","YES","220kV to 287kV","Fremont","Alameda","94538","CA"," ","YES","YES",""
"SS0026","Parks"," ","Operational","PG&E","PG&E","M"," ","","","33kV to 92kV","Dublin","Alameda","94568","CA"," ","YES","",""
"SS0027","Radum"," ","Operational","PG&E","PG&E","M"," ","","","33kV to 92kV","Pleasanton","Alameda","94566","CA"," ","YES","",""
"SS0028","Ralph"," ","Operational","PG&E","PG&E","M"," ","","","220kV to 287kV","Byron","Alameda","94514","CA"," ","","YES",""
"SS0029","Ravenswood"," ","Operational","PG&E","PG&E","M"," ","","YES","220kV to 287kV","Menlo Park","San Mateo","94025","CA"," ","","YES",""
"SS0030","San Leandro U"," ","Operational","PG&E","PG&E","M"," ","","YES","110kV to 161kV","San Leandro","Alameda","94578","CA"," ","","",""
"SS0033","Oakland J"," ","Operational","PG&E","PG&E","M"," ","","YES","110kV to 161kV","Oakland","Alameda","94621","CA"," ","","",""
"SS0036","Sunol"," ","Operational","PG&E","PG&E","M"," ","","YES","110kV to 161kV","Sunol","Alameda","94586","CA"," ","","",""
"SS0037","Tesla"," ","Operational","PG&E","PG&E","M"," ","","YES","345kV to 500kV","Livermore","Alameda","94550","CA"," ","","YES","YES"
"SS0039","Vallecitos"," ","Operational","PG&E","PG&E","M"," ","","","33kV to 92kV","Sunol","Alameda","94586","CA"," ","YES","",""
"SS0040","Vasco"," ","Operational","PG&E","PG&E","M"," ","","","33kV to 92kV","Livermore","Alameda","94551","CA"," ","YES","",""
"SS0041","Vineyard"," ","Operational","PG&E","PG&E","M"," ","","","33kV to 92kV","Pleasanton","Alameda","94566","CA"," ","YES","",""
"SS0043","Amfor"," ","Operational","PG&E","PG&E","M"," ","","","33kV to 92kV","Sutter Creek","Amador","95685","CA"," ","YES","",""
"SS0044","Clay"," ","Operational","PG&E","PG&E","M"," ","","","33kV to 92kV","Ione","Amador","95640","CA"," ","YES","",""
"SS0045","Ione"," ","Operational","Other","Other","M"," ","","","33kV to 92kV","Ione","Amador","95640","CA"," ","YES","",""
"SS0046","Ione Energy"," ","Operational","PG&E","PG&E","M"," ","","","33kV to 92kV","Ione","Amador","95640","CA"," ","YES","",""
"SS0047","Martell"," ","Operational","PG&E","PG&E","M"," ","","","33kV to 92kV","Jackson","Amador","95642","CA"," ","YES","",""
"SS0048","Nepco"," ","Operational","Other","Other","M"," ","","","33kV to 92kV","Sutter Creek","Amador","95685","CA"," ","YES","",""
"SS0049","Oleta"," ","Operational","PG&E","PG&E","M"," ","","","33kV to 92kV","Plymouth","Amador","95669","CA"," ","YES","",""
"SS0050","Salt Springs"," ","Operational","PG&E","PG&E","M"," ","","YES","110kV to 161kV","Pioneer","Amador","95666","CA"," ","","",""
"SS0051","Pine Grove"," ","Operational","PG&E","PG&E","M"," ","","","33kV to 92kV","Pine Grove","Amador","95665","CA"," ","YES","",""
"SS0052","Lammers","SCHULTE SW","Operational","PG&E","PG&E","M"," ","","YES","110kV to 161kV","Tracy","San Joaquin","95377","CA"," ","","",""
"SS0055","A.P.T. Oro"," ","Operational","PG&E","PG&E","U"," ","","","33kV to 92kV","Oroville","Butte","95965","CA"," ","YES","",""
"SS0056","Gridley","CITY OF GRIDLEY","Operational","Other","Other","U"," ","","","33kV to 92kV","Gridley","Butte","95948","CA"," ","YES","",""
"SS0057","Louisiana Pacific (Oroville)"," ","Operational","Other","Other","U"," ","","","33kV to 92kV","Oroville","Butte","95965","CA"," ","YES","",""
"SS0058","City Of Biggs","BIGGS","Operational","Other","Other","U"," ","","","33kV to 92kV","Biggs","Butte","95917","CA"," ","YES","",""
"SS0059","Cabrillo"," ","Operational","PG&E","PG&E","L"," ","","YES","110kV to 161kV","Lompoc","Santa Barbara","93436","CA"," ","","",""
"SS0063","Anita"," ","Operational","Other","Other","U"," ","","","33kV to 92kV","Chico","Butte","95973","CA"," ","YES","",""
"SS0064","Bangor"," ","Operational","PG&E","PG&E","U"," ","","","33kV to 92kV","Bangor","Butte","95914","CA"," ","YES","",""
"SS0065","Big Bend"," ","Operational","PG&E","PG&E","U"," ","","YES","220kV to 287kV","Oroville","Butte","95965","CA"," ","","YES",""
"SS0066","Butte"," ","Operational","PG&E","PG&E","U"," ","","YES","110kV to 161kV","Chico","Butte","95928","CA"," ","YES","",""
"SS0068","Chico A"," ","Operational","PG&E","PG&E","U"," ","","YES","110kV to 161kV","Chico","Butte","95928","CA"," ","","",""
"SS0069","Chico B"," ","Operational","PG&E","PG&E","U"," ","","YES","110kV to 161kV","Chico","Butte","95928","CA"," ","","",""
"SS0071","Ramon"," ","Operational","IID","IID","L"," ","","","220kV to 287kV","Thousand Palms","Riverside","92276","CA"," ","","YES",""
"SS0075","Esquon"," ","Operational","PG&E","PG&E","U"," ","","YES","110kV to 161kV","Durham","Butte","95938","CA"," ","","",""
"SS0077","Hamilton A"," ","Operational","PG&E","PG&E","U"," ","","","33kV to 92kV","Hamilton City","Glenn","95951","CA"," ","YES","",""
"SS0078","Honcut"," ","Operational","PG&E","PG&E","U"," ","","YES","110kV to 161kV","Oroville","Butte","95965","CA"," ","","",""
"SS0079","Kanaka"," ","Operational","Other","Other","U"," ","","YES","110kV to 161kV","Oroville","Butte","95966","CA"," ","","",""
"SS0081","Nord"," ","Operational","PG&E","PG&E","U"," ","","YES","110kV to 161kV","Chico","Butte","95973","CA"," ","","",""
"SS0082","Oro Fino"," ","Operational","PG&E","PG&E","U"," ","","","33kV to 92kV","Magalia","Butte","95954","CA"," ","YES","",""
"SS0083","Oroville"," ","Operational","PG&E","PG&E","U"," ","","","33kV to 92kV","Oroville","Butte","95965","CA"," ","YES","",""
"SS0084","Palermo"," ","Operational","PG&E","PG&E","U"," ","","YES","220kV to 287kV","Oroville","Butte","95966","CA"," ","","YES",""
"SS0085","Paradise"," ","Operational","PG&E","PG&E","U"," ","","","33kV to 92kV","Paradise","Butte","95969","CA"," ","YES","",""
"SS0086","Peachton"," ","Operational","PG&E","PG&E","U"," ","","","33kV to 92kV","Gridley","Butte","95948","CA"," ","YES","",""
"SS0088","Sycamore Creek"," ","Operational","PG&E","PG&E","U"," ","","YES","110kV to 161kV","Chico","Butte","95973","CA"," ","","",""
"SS0089","Table Mt."," ","Operational","PG&E","PG&E","U"," ","","YES","345kV to 500kV","Oroville","Butte","95965","CA"," ","YES","YES","YES"
"SS0091","Tres Vias"," ","Operational","PG&E","PG&E","U"," ","","YES","110kV to 161kV","Oroville","Butte","95965","CA"," ","","",""
"SS0092","Wyandotte"," ","Operational","PG&E","PG&E","U"," ","","YES","110kV to 161kV","Oroville","Butte","95966","CA"," ","","",""
"SS0094","Cataract (Calaveras Cement Co.)","CALAVERAS CEMENT","Operational","Other","Other","M"," ","","","33kV to 92kV","San Andreas","Calaveras","95249","CA"," ","YES","",""
"SS0095","Cataract"," ","Operational","Other","Other","M"," ","","YES","110kV to 161kV","Columbia","Tuolumne","95310","CA"," ","","",""
"SS0096","Corral"," ","Operational","PG&E","PG&E","M"," ","","","33kV to 92kV","Linden","Calaveras","95236","CA"," ","YES","",""
"SS0097","Frogtown"," ","Operational","PG&E","PG&E","M"," ","","YES","110kV to 161kV","Angels Camp","Calaveras","95222","CA"," ","","",""
"SS0098","Melones"," ","Operational","WAPA","WAPA","M","NML","","","220kV to 287kV","Angels Camp","Calaveras","95222","CA"," ","","YES",""
"SS0101","Murphy"," ","Operational","PG&E","PG&E","M"," ","","YES","110kV to 161kV","Murphys","Calaveras","95247","CA"," ","","",""
"SS0102","North Branch"," ","Operational","PG&E","PG&E","M"," ","","","33kV to 92kV","Valley Springs","Calaveras","95252","CA"," ","YES","",""
"SS0103","Valley Springs"," ","Operational","PG&E","PG&E","M"," ","","","220kV to 287kV","Valley Springs","Calaveras","95252","CA"," ","YES","YES",""
"SS0104","Arbuckle"," ","Operational","PG&E","PG&E","M"," ","","","33kV to 92kV","Arbuckle","Colusa","95912","CA"," ","YES","",""
"SS0105","Colusa"," ","Operational","PG&E","PG&E","U"," ","","","33kV to 92kV","Colusa","Colusa","95932","CA"," ","YES","",""
"SS0106","Cortina"," ","Operational","PG&E","PG&E","U"," ","","YES","110kV to 161kV","Williams","Colusa","95987","CA"," ","YES","",""
"SS0107","Drake"," ","Operational","PG&E","PG&E","M"," ","","","33kV to 92kV","Arbuckle","Colusa","95912","CA"," ","YES","",""
"SS0108","Harrington"," ","Operational","PG&E","PG&E","M"," ","","","33kV to 92kV","Arbuckle","Colusa","95912","CA"," ","YES","",""
"SS0109","Maxwell"," ","Operational","PG&E","PG&E","U"," ","","","33kV to 92kV","Maxwell","Colusa","95955","CA"," ","YES","",""
"SS0110","Rice"," ","Operational","PG&E","PG&E","U"," ","","","33kV to 92kV","Princeton","Colusa","95970","CA"," ","YES","",""
"SS0111","Williams"," ","Operational","PG&E","PG&E","U"," ","","","33kV to 92kV","Williams","Colusa","95987","CA"," ","YES","",""
"SS0112","Etiwanda"," ","Operational","SCE","SCE","L"," ","","","220kV to 287kV","Rancho Cucamonga","San Bernardino","91739","CA","Same site as g0201","YES","YES",""
"SS0113","Stadium"," ","Operational","SCE","SCE","L"," ","","","220kV to 287kV","Long Beach","Los Angeles","90803","CA"," ","YES","YES",""
"SS0116","Alhambra"," ","Operational","PG&E","PG&E","M"," ","","YES","110kV to 161kV","Martinez","Contra Costa","94553","CA"," ","","",""
"SS0117","Byron Bethany"," ","Operational","PG&E","PG&E","M"," ","","","33kV to 92kV","Byron","Contra Costa","94514","CA"," ","YES","",""
"SS0118","Du Pont"," ","Operational","Other","Other","M"," ","","","33kV to 92kV","Oakley","Contra Costa","94561","CA"," ","YES","",""
"SS0120","Los Vaqueros","BIXLER, EBMUD PUMPING PLANT","Operational","Other","Other","M","LVQ","","","33kV to 92kV","Discovery Bay","Contra Costa","94505","CA"," ","YES","",""
"SS0121","GWF 3 (Antioch)"," ","Operational","Other","Other","M"," ","","","220kV to 287kV","Antioch","Contra Costa","94509","CA"," ","","YES",""
"SS0122","GWF 4 (Antioch)"," ","Operational","PG&E","PG&E","M"," ","","","33kV to 92kV","Antioch","Contra Costa","94509","CA"," ","YES","",""
"SS0123","Linde"," ","Operational","PG&E","PG&E","M"," ","","YES","110kV to 161kV","Pittsburg","Contra Costa","94565","CA"," ","","",""
"SS0125","Shell Oil 1"," ","Operational","Other","Other","M"," ","","YES","110kV to 161kV","Martinez","Contra Costa","94553","CA"," ","","",""
"SS0127","Union Chemical (Union Oil)"," ","Operational","Other","Other","M"," ","","","33kV to 92kV","Rodeo","Contra Costa","94572","CA"," ","YES","",""
"SS0128","Walnut Creek Pp","YGANCIO","Operational","Other","Other","M"," ","","","33kV to 92kV","Walnut Creek","Contra Costa","94597","CA"," ","YES","",""
"SS0129","Tres Vaqueros Wind Farm (Jv Ent)"," ","Operational","Other","Other","M"," ","","","33kV to 92kV","Byron","Contra Costa","94514","CA"," ","YES","",""
"SS0131","Balfour"," ","Operational","PG&E","PG&E","M"," ","","","33kV to 92kV","Brentwood","Contra Costa","94513","CA"," ","YES","",""
"SS0132","Bollman"," ","Operational","Other","Other","M"," ","","YES","110kV to 161kV","Concord","Contra Costa","94520","CA"," ","","",""
"SS0133","Brentwood"," ","Operational","PG&E","PG&E","M"," ","","","220kV to 287kV","Brentwood","Contra Costa","94513","CA"," ","YES","YES",""
"SS0134","Briones"," ","Operational","Other","Other","M"," ","","","33kV to 92kV","Clayton","Contra Costa","94517","CA"," ","YES","",""
"SS0135","Christie"," ","Operational","PG&E","PG&E","M"," ","","YES","110kV to 161kV","Martinez","Contra Costa","94553","CA"," ","YES","",""
"SS0136","Clayton"," ","Operational","PG&E","PG&E","M"," ","","YES","110kV to 161kV","Concord","Contra Costa","94521","CA"," ","","",""
"SS0137","Columbia Steel","USP","Operational","Other","Other","M"," ","","YES","110kV to 161kV","Pittsburg","Contra Costa","94565","CA"," ","","",""
"SS0138","Antioch"," ","Operational","PG&E","PG&E","M"," ","","","33kV to 92kV","Antioch","Contra Costa","94509","CA"," ","YES","",""
"SS0139","Contra Costa"," ","Operational","PG&E","PG&E","M"," ","","YES","220kV to 287kV","Antioch","Contra Costa","94509","CA"," ","YES","YES",""
"SS0140","Dow Chemical Co."," ","Operational","Other","Other","M"," ","","","33kV to 92kV","Pittsburg","Contra Costa","94565","CA"," ","YES","",""
"SS0142","East Portal"," ","Operational","PG&E","PG&E","M"," ","","YES","110kV to 161kV","Orinda","Contra Costa","94563","CA"," ","","",""
"SS0143","El Cerrito Sta. G"," ","Operational","PG&E","PG&E","M"," ","","YES","110kV to 161kV","El Cerrito","Contra Costa","94530","CA"," ","YES","",""
"SS0144","Fibreboard"," ","Operational","PG&E","PG&E","M"," ","","YES","110kV to 161kV","Antioch","Contra Costa","94509","CA"," ","","",""
"SS0145","Franklin"," ","Operational","PG&E","PG&E","M"," ","","","33kV to 92kV","Hercules","Contra Costa","94547","CA"," ","YES","",""
"SS0146","Herdlyn"," ","Operational","PG&E","PG&E","M"," ","","","33kV to 92kV","Byron","Contra Costa","94514","CA"," ","YES","",""
"SS0147","Imhoff"," ","Operational","PG&E","PG&E","M"," ","","YES","110kV to 161kV","Martinez","Contra Costa","94553","CA"," ","","",""
"SS0148","Kirker"," ","Operational","PG&E","PG&E","M"," ","","YES","110kV to 161kV","Pittsburg","Contra Costa","94565","CA"," ","YES","",""
"SS0149","Lakewood"," ","Operational","PG&E","PG&E","M"," ","","YES","110kV to 161kV","Walnut Creek","Contra Costa","94597","CA"," ","YES","",""
"SS0150","Marsh"," ","Operational","PG&E","PG&E","M"," ","","","33kV to 92kV","Brentwood","Contra Costa","94513","CA"," ","YES","",""
"SS0151","Meadow Lane"," ","Operational","PG&E","PG&E","M"," ","","YES","110kV to 161kV","Concord","Contra Costa","94520","CA"," ","","",""
"SS0152","Moraga"," ","Operational","PG&E","PG&E","M"," ","","YES","220kV to 287kV","Orinda","Contra Costa","94563","CA"," ","","YES",""
"SS0153","Pittsburg"," ","Operational","PG&E","PG&E","M"," ","","YES","220kV to 287kV","Pittsburg","Contra Costa","94565","CA"," ","","YES",""
"SS0154","Point Pinole"," ","Operational","PG&E","PG&E","M"," ","","YES","110kV to 161kV","San Pablo","Contra Costa","94806","CA"," ","","",""
"SS0155","Port Costa Brick"," ","Operational","Other","Other","M"," ","","","33kV to 92kV","Port Costa","Contra Costa","94569","CA"," ","YES","",""
"SS0156","Posco"," ","Operational","Other","Other","M"," ","","","33kV to 92kV","Pittsburg","Contra Costa","94565","CA"," ","YES","",""
"SS0158","Rossmoor"," ","Operational","PG&E","PG&E","M"," ","","","220kV to 287kV","Lafayette","Contra Costa","94549","CA"," ","","YES",""
"SS0159","San Ramon Research Cntr."," ","Operational","PG&E","PG&E","M"," ","","","220kV to 287kV","Danville","Contra Costa","94526","CA"," ","","YES",""
"SS0160","San Pablo"," ","Operational","PG&E","PG&E","M"," ","","YES","110kV to 161kV","San Pablo","Contra Costa","94806","CA"," ","YES","",""
"SS0161","San Ramon"," ","Operational","PG&E","PG&E","M"," ","","","220kV to 287kV","San Ramon","Contra Costa","94583","CA"," ","YES","YES",""
"SS0162","Sobrante"," ","Operational","PG&E","PG&E","M"," ","","YES","220kV to 287kV","Orinda","Contra Costa","94563","CA"," ","","YES",""
"SS0163","Narrows"," ","Operational","PG&E","PG&E","U"," ","","","33kV to 92kV","Smartville","Nevada","95977","CA"," ","YES","",""
"SS0164","Tidewater"," ","Operational","PG&E","PG&E","M"," ","","YES","220kV to 287kV","Martinez","Contra Costa","94553","CA"," ","","YES",""
"SS0165","Unocal"," ","Operational","PG&E","PG&E","M"," ","","","220kV to 287kV","Crockett","Contra Costa","94525","CA"," ","YES","YES",""
"SS0166","Urich"," ","Operational","PG&E","PG&E","M"," ","","","33kV to 92kV","Martinez","Contra Costa","94553","CA"," ","YES","",""
"SS0167","Valley View"," ","Operational","PG&E","PG&E","M"," ","","YES","110kV to 161kV","El Sobrante","Contra Costa","94803","CA"," ","","",""
"SS0168","Willow Pass"," ","Operational","PG&E","PG&E","M"," ","","YES","110kV to 161kV","Pittsburg","Contra Costa","94565","CA"," ","YES","",""
"SS0169","Belmont"," ","Operational","PCORP","PCORP","U"," ","","","33kV to 92kV","Crescent City","Del Norte","95531","CA"," ","YES","",""
"SS0170","Del Norte"," ","Operational","PCORP","PCORP","U"," ","","YES","110kV to 161kV","Crescent City","Del Norte","95531","CA"," ","YES","",""
"SS0171","Gasquet"," ","Operational","PCORP","PCORP","U"," ","","YES","110kV to 161kV","Gasquet","Del Norte","95543","CA"," ","","",""
"SS0172","Lake Earl"," ","Operational","PCORP","PCORP","U"," ","","","33kV to 92kV","Crescent City","Del Norte","95531","CA"," ","YES","",""
"SS0173","Miller Redwood"," ","Operational","PCORP","PCORP","U"," ","","","33kV to 92kV","Klamath","Del Norte","95548","CA"," ","YES","",""
"SS0174","Northcrest"," ","Operational","PCORP","PCORP","U"," ","","","33kV to 92kV","Crescent City","Del Norte","95531","CA"," ","YES","",""
"SS0175","Patrick'S Creek"," ","Operational","PCORP","PCORP","U"," ","","YES","110kV to 161kV","Gasquet","Del Norte","95543","CA"," ","","",""
"SS0176","Redwood"," ","Operational","PCORP","PCORP","U"," ","","","33kV to 92kV","Crescent City","Del Norte","95531","CA"," ","YES","",""
"SS0177","Simonson"," ","Closed","PCORP","PCORP","U"," ","","","33kV to 92kV","Smith River","Del Norte","95567","CA"," ","YES","",""
"SS0178","Smith River"," ","Operational","PCORP","PCORP","U"," ","","","33kV to 92kV","Smith River","Del Norte","95567","CA"," ","YES","",""
"SS0179","Steelhead"," ","Operational","PCORP","PCORP","U"," ","","","33kV to 92kV","Somes Bar","Siskiyou","95568","CA"," ","YES","",""
"SS0180","Yurok"," ","Operational","PCORP","PCORP","U"," ","","","33kV to 92kV","Klamath","Del Norte","95548","CA"," ","YES","",""
"SS0181","Meyers"," ","Operational","Other","Other","M"," ","","YES","110kV to 161kV","South Lake Tahoe","El Dorado","96150","CA"," ","YES","",""
"SS0182","Stateline"," ","Operational","Other","Other","M"," ","","","33kV to 92kV","South Lake Tahoe","El Dorado","96150","CA"," ","YES","",""
"SS0183","Apple Hill"," ","Operational","PG&E","PG&E","M"," ","","YES","110kV to 161kV","Camino","El Dorado","95709","CA"," ","","",""
"SS0184","San Bernardino"," ","Operational","SCE","SCE","L"," ","","YES","220kV to 287kV","San Bernardino","San Bernardino","92408","CA","Same site as g0523","YES","YES",""
"SS0185","Diamond Springs"," ","Operational","PG&E","PG&E","M"," ","","YES","110kV to 161kV","Placerville","El Dorado","95667","CA"," ","","",""
"SS0186","El Dorado"," ","Closed","PG&E","PG&E","M"," ","","YES","220kV to 287kV","Pollock Pines","El Dorado","95726","CA","Closed with el dorado hydro. h0167","","YES",""
"SS0187","Flint"," ","Operational","PG&E","PG&E","M"," ","","YES","110kV to 161kV","Auburn","Placer","95603","CA"," ","","",""
"SS0188","Limestone"," ","Operational","PG&E","PG&E","M"," ","","","33kV to 92kV","Shingle Springs","El Dorado","95682","CA"," ","YES","",""
"SS0189","Mt. Quarries"," ","Operational","PG&E","PG&E","M"," ","","","33kV to 92kV","Cool","El Dorado","95614","CA"," ","YES","",""
"SS0190","Newcastle"," ","Operational","PG&E","PG&E","M"," ","","YES","110kV to 161kV","Newcastle","Placer","95658","CA"," ","","",""
"SS0191","Placerville"," ","Operational","PG&E","PG&E","M"," ","","YES","110kV to 161kV","Placerville","El Dorado","95667","CA"," ","","",""
"SS0192","Shingle Springs"," ","Operational","PG&E","PG&E","M"," ","","YES","110kV to 161kV","Shingle Springs","El Dorado","95682","CA"," ","YES","",""
"SS0193","Clarksville"," ","Operational","PG&E","PG&E","M"," ","","YES","110kV to 161kV","El Dorado Hills","El Dorado","95762","CA"," ","YES","",""
"SS0194","Blythe Walc"," ","Operational","Other","Other","L"," ","","YES","110kV to 161kV","Blythe","Riverside","92225","CA","Same site as g0843","YES","",""
"SS0196","Jones Fork"," ","Operational","SMUD","SMUD","M"," ","","YES","110kV to 161kV","Eldorado Ntl Forest","El Dorado","00051","CA"," ","","",""
"SS0198","Camino"," ","Operational","PG&E","PG&E","M"," ","","YES","110kV to 161kV","Pollock Pines","El Dorado","95726","CA"," ","","",""
"SS0199","Union Valley"," ","Operational","SMUD","SMUD","M"," ","","","220kV to 287kV","Eldorado Ntl Forest","El Dorado","00051","CA"," ","YES","YES",""
"SS0201","Guardian"," ","Operational","Other","Other","L"," ","","YES","110kV to 161kV","Kingsburg","Fresno","93631","CA"," ","","",""
"SS0202","Las Palmas"," ","Operational","Other","Other","M"," ","","YES","110kV to 161kV","Fresno","Fresno","93727","CA"," ","","",""
"SS0203","Mussel Slough"," ","Operational","Other","Other","L"," ","","","33kV to 92kV","Lemoore","Kings","93245","CA"," ","YES","",""
"SS0204","Oil City"," ","Operational","Other","Other","L"," ","","","33kV to 92kV","Coalinga","Fresno","93210","CA"," ","YES","",""
"SS0205","Oxford"," ","Operational","PG&E","PG&E","M"," ","","","345kV to 500kV","Mendota","Fresno","93640","CA"," ","","","YES"
"SS0206","Penn Zier"," ","Operational","Other","Other","L"," ","","","33kV to 92kV","Coalinga","Fresno","93210","CA"," ","YES","",""
"SS0207","Ranchers Cotton"," ","Operational","PG&E","PG&E","M"," ","","YES","110kV to 161kV","Fresno","Fresno","93725","CA"," ","","",""
"SS0208","River Rock"," ","Operational","PG&E","PG&E","M"," ","","","33kV to 92kV","Fresno","Fresno","93730","CA"," ","YES","",""
"SS0210","Tornado"," ","Operational","Other","Other","L"," ","","","33kV to 92kV","Coalinga","Fresno","93210","CA"," ","YES","",""
"SS0212","Westlands"," ","Operational","PG&E","PG&E","L"," ","","","33kV to 92kV","Tranquillity","Fresno","93668","CA"," ","YES","",""
"SS0213","Kamm"," ","Operational","Other","Other","L"," ","","YES","110kV to 161kV","Mendota","Fresno","93640","CA"," ","","",""
"SS0216","Agrico"," ","Operational","Other","Other","L"," ","","","33kV to 92kV","Kerman","Fresno","93630","CA"," ","YES","",""
"SS0217","Barton"," ","Operational","PG&E","PG&E","M"," ","","YES","110kV to 161kV","Fresno","Fresno","93727","CA"," ","","",""
"SS0222","Biola"," ","Operational","PG&E","PG&E","M"," ","","","33kV to 92kV","Kerman","Fresno","93630","CA"," ","YES","",""
"SS0223","Bullard"," ","Operational","PG&E","PG&E","M"," ","","YES","110kV to 161kV","Fresno","Fresno","93710","CA"," ","","",""
"SS0224","Calflax"," ","Operational","Other","Other","L"," ","","","33kV to 92kV","Huron","Fresno","93234","CA"," ","YES","",""
"SS0226","Camden"," ","Operational","PG&E","PG&E","L"," ","","","33kV to 92kV","Riverdale","Fresno","93656","CA"," ","YES","",""
"SS0227","Cantua"," ","Operational","PG&E","PG&E","L"," ","","YES","110kV to 161kV","Coalinga","Fresno","93210","CA"," ","","",""
"SS0228","Capco Madera"," ","Operational","PG&E","PG&E","M"," ","","","33kV to 92kV","Firebaugh","Fresno","93622","CA"," ","YES","",""
"SS0229","Caruthers"," ","Operational","PG&E","PG&E","L"," ","","","33kV to 92kV","Caruthers","Fresno","93609","CA"," ","YES","",""
"SS0230","Cheney"," ","Operational","PG&E","PG&E","L"," ","","YES","110kV to 161kV","Mendota","Fresno","93640","CA"," ","","",""
"SS0231","Clovis"," ","Operational","PG&E","PG&E","M"," ","","YES","110kV to 161kV","Clovis","Fresno","93611","CA"," ","","",""
"SS0234","Coppermine"," ","Operational","PG&E","PG&E","M"," ","","YES","110kV to 161kV","Clovis","Fresno","93619","CA"," ","YES","",""
"SS0236","Derrick"," ","Operational","Other","Other","L"," ","","","33kV to 92kV","Coalinga","Fresno","93210","CA"," ","YES","",""
"SS0237","Dinuba Energy"," ","Operational","Other","Other","L"," ","","","33kV to 92kV","Reedley","Tulare","93654","CA"," ","YES","",""
"SS0238","Dunlap"," ","Operational","PG&E","PG&E","M"," ","","","33kV to 92kV","Miramonte","Fresno","93641","CA"," ","YES","",""
"SS0239","Fig Garden"," ","Operational","PG&E","PG&E","M"," ","","YES","220kV to 287kV","Fresno","Fresno","93711","CA"," ","","YES",""
"SS0240","Firebaugh"," ","Operational","PG&E","PG&E","M"," ","","","33kV to 92kV","Firebaugh","Fresno","93622","CA"," ","YES","",""
"SS0242","Gates"," ","Operational","PG&E","PG&E","L","GTS","","YES","345kV to 500kV","Huron","Fresno","93234","CA"," ","YES","YES","YES"
"SS0244","Giffen"," ","Operational","PG&E","PG&E","L"," ","","","33kV to 92kV","Cantua Creek","Fresno","93608","CA"," ","YES","",""
"SS0246","Hammonds"," ","Operational","PG&E","PG&E","M"," ","","YES","110kV to 161kV","Firebaugh","Fresno","93622","CA"," ","","",""
"SS0247","Helm"," ","Operational","PG&E","PG&E","L"," ","","","220kV to 287kV","San Joaquin","Fresno","93660","CA"," ","YES","YES",""
"SS0248","Herndon"," ","Operational","PG&E","PG&E","M"," ","","YES","220kV to 287kV","Fresno","Fresno","93722","CA"," ","","YES",""
"SS0249","Huron"," ","Operational","PG&E","PG&E","L"," ","","","33kV to 92kV","Huron","Fresno","93234","CA"," ","YES","",""
"SS0252","Kerman"," ","Operational","PG&E","PG&E","M"," ","","","33kV to 92kV","Kerman","Fresno","93630","CA"," ","YES","",""
"SS0253","Kearney (New)"," ","Operational","PG&E","PG&E","M"," ","","","220kV to 287kV","Fresno","Fresno","93706","CA"," ","YES","YES",""
"SS0254","Kearney (Old)"," ","Operational","PG&E","PG&E","M"," ","","","33kV to 92kV","Fresno","Fresno","93706","CA"," ","YES","",""
"SS0255","Kings River"," ","Operational","PG&E","PG&E","M"," ","","YES","110kV to 161kV","Kings Canyon National Pk","Fresno","93633","CA"," ","","",""
"SS0256","Kingsburg"," ","Operational","PG&E","PG&E","L"," ","","YES","110kV to 161kV","Kingsburg","Fresno","93631","CA"," ","YES","",""
"SS0259","Malaga"," ","Operational","PG&E","PG&E","M"," ","","YES","110kV to 161kV","Fresno","Fresno","93725","CA"," ","","",""
"SS0260","Manchester"," ","Operational","PG&E","PG&E","M"," ","","YES","110kV to 161kV","Fresno","Fresno","93726","CA"," ","","",""
"SS0261","Mc Call"," ","Operational","PG&E","PG&E","L"," ","","YES","220kV to 287kV","Fowler","Fresno","93625","CA"," ","","YES",""
"SS0262","Mc Mullin"," ","Operational","PG&E","PG&E","L"," ","","","220kV to 287kV","Fresno","Fresno","93706","CA"," ","","YES",""
"SS0263","Mendota"," ","Operational","PG&E","PG&E","M"," ","","YES","110kV to 161kV","Mendota","Fresno","93640","CA"," ","YES","",""
"SS0264","Mendota-Biomass"," ","Operational","Other","Other","M"," ","","","33kV to 92kV","Mendota","Fresno","93640","CA"," ","YES","",""
"SS0265","Oro Loma"," ","Operational","PG&E","PG&E","M"," ","","YES","110kV to 161kV","Firebaugh","Fresno","93622","CA"," ","YES","",""
"SS0266","Bowles"," ","Operational","PG&E","PG&E","L"," ","","","33kV to 92kV","Fresno","Fresno","93725","CA"," ","YES","",""
"SS0267","Panoche"," ","Operational","PG&E","PG&E","L"," ","","YES","220kV to 287kV","Firebaugh","Fresno","93622","CA"," ","YES","YES",""
"SS0268","Parlier"," ","Operational","PG&E","PG&E","L"," ","","","33kV to 92kV","Parlier","Fresno","93648","CA"," ","YES","",""
"SS0269","Piedra"," ","Operational","Other","Other","M"," ","","YES","110kV to 161kV","Sanger","Fresno","93657","CA"," ","","",""
"SS0271","Rainbow"," ","Operational","PG&E","PG&E","M"," ","","YES","110kV to 161kV","Sanger","Fresno","93657","CA"," ","","",""
"SS0272","Reedley"," ","Operational","PG&E","PG&E","L"," ","","YES","110kV to 161kV","Reedley","Fresno","93654","CA"," ","YES","",""
"SS0273","San Joaquin"," ","Operational","PG&E","PG&E","L"," ","","","33kV to 92kV","San Joaquin","Fresno","93660","CA"," ","YES","",""
"SS0274","Sand Creek"," ","Operational","PG&E","PG&E","M"," ","","","33kV to 92kV","Orosi","Tulare","93647","CA"," ","YES","",""
"SS0275","Sanger"," ","Operational","PG&E","PG&E","M"," ","","YES","110kV to 161kV","Sanger","Fresno","93657","CA"," ","YES","",""
"SS0276","Schindler"," ","Operational","PG&E","PG&E","L"," ","","YES","110kV to 161kV","Huron","Fresno","93234","CA"," ","YES","",""
"SS0277","Stroud"," ","Operational","PG&E","PG&E","L"," ","","","33kV to 92kV","Huron","Fresno","93234","CA"," ","YES","",""
"SS0278","Tivy Valley"," ","Operational","PG&E","PG&E","M"," ","","","33kV to 92kV","Sanger","Fresno","93657","CA"," ","YES","",""
"SS0279","Air Products"," ","Operational","Other","Other","M"," ","","YES","110kV to 161kV","Fresno","Fresno","93725","CA"," ","","",""
"SS0280","Wahtoke"," ","Operational","PG&E","PG&E","L"," ","","YES","110kV to 161kV","Reedley","Fresno","93654","CA"," ","","",""
"SS0281","Wesix"," ","Operational","WAPA","WAPA","L"," ","","","33kV to 92kV","Tranquillity","Fresno","93668","CA"," ","YES","",""
"SS0282","West Fresno"," ","Operational","PG&E","PG&E","M"," ","","YES","110kV to 161kV","Fresno","Fresno","93706","CA"," ","","",""
"SS0283","Westlands 16 Ra"," ","Operational","Other","Other","L"," ","","YES","110kV to 161kV","Coalinga","Fresno","93210","CA"," ","YES","",""
"SS0284","Westlands 18 Ra"," ","Operational","Other","Other","L"," ","","","33kV to 92kV","Coalinga","Fresno","93210","CA"," ","YES","",""
"SS0287","Woodward"," ","Operational","PG&E","PG&E","M"," ","","YES","110kV to 161kV","Clovis","Fresno","93619","CA"," ","","",""
"SS0294","Camp 10"," ","Operational","SCE","SCE","M"," ","","","220kV to 287kV","Shaver Lake","Fresno","93664","CA"," ","YES","YES",""
"SS0297","Line Creek"," ","Operational","SCE","SCE","M"," ","","","33kV to 92kV","Shaver Lake","Fresno","93664","CA"," ","YES","",""
"SS0298","Portal","LUNAR","Operational","SCE","SCE","M"," ","","","33kV to 92kV","Shaver Lake","Fresno","93664","CA"," ","YES","",""
"SS0300","Pitman"," ","Operational","SCE","SCE","M"," ","","","33kV to 92kV","Shaver Lake","Fresno","93664","CA"," ","YES","",""
"SS0303","De Francesco"," ","Operational","PG&E","PG&E","M"," ","","YES","110kV to 161kV","Firebaugh","Fresno","93622","CA"," ","","",""
"SS0304","Gates Wellhead"," ","Operational","PG&E","PG&E","L"," ","","","33kV to 92kV","Huron","Fresno","93234","CA"," ","YES","",""
"SS0305","Jacinto"," ","Operational","PG&E","PG&E","U"," ","","","33kV to 92kV","Glenn","Glenn","95943","CA"," ","YES","",""
"SS0306","Capay"," ","Operational","PG&E","PG&E","U"," ","","","33kV to 92kV","Orland","Glenn","95963","CA"," ","YES","",""
"SS0307","Elk Creek"," ","Operational","PG&E","PG&E","U"," ","","","33kV to 92kV","Elk Creek","Glenn","95939","CA"," ","YES","",""
"SS0308","Glenn"," ","Operational","PG&E","PG&E","U"," ","","","220kV to 287kV","Orland","Glenn","95963","CA"," ","YES","YES",""
"SS0309","Headgate"," ","Operational","PG&E","PG&E","U"," ","","","33kV to 92kV","Orland","Glenn","95963","CA"," ","YES","",""
"SS0310","Logan Creek"," ","Operational","PG&E","PG&E","U"," ","","","220kV to 287kV","Willows","Glenn","95988","CA"," ","","YES",""
"SS0311","Orland B"," ","Operational","PG&E","PG&E","U"," ","","","33kV to 92kV","Orland","Glenn","95963","CA"," ","YES","",""
"SS0312","Provident"," ","Operational","PG&E","PG&E","U"," ","","","33kV to 92kV","Glenn","Glenn","95943","CA"," ","YES","",""
"SS0313","Willows A"," ","Operational","PG&E","PG&E","U"," ","","","33kV to 92kV","Willows","Glenn","95988","CA"," ","YES","",""
"SS0314","Stony Gorge"," ","Operational","PG&E","PG&E","U"," ","","","33kV to 92kV","Elk Creek","Glenn","95939","CA"," ","YES","",""
"SS0315","Ultra Power (Blue Lake)"," ","Operational","PG&E","PG&E","U"," ","","","33kV to 92kV","Arcata","Humboldt","95521","CA"," ","YES","",""
"SS0317","Arcata"," ","Operational","PG&E","PG&E","U"," ","","","110kV to 161kV","Arcata","Humboldt","95521","CA"," ","","",""
"SS0318","Big Lagoon"," ","Operational","PG&E","PG&E","U"," ","","","33kV to 92kV","Trinidad","Humboldt","95570","CA"," ","YES","",""
"SS0319","Blue Chip Milling"," ","Operational","Other","Other","U"," ","","","33kV to 92kV","Mckinleyville","Humboldt","95519","CA"," ","YES","",""
"SS0320","Blue Lake"," ","Operational","PG&E","PG&E","U"," ","","","110kV to 161kV","Arcata","Humboldt","95521","CA"," ","YES","",""
"SS0321","Bridgeville"," ","Operational","PG&E","PG&E","U"," ","","YES","110kV to 161kV","Bridgeville","Humboldt","95526","CA"," ","YES","",""
"SS0322","Carlotta"," ","Operational","PG&E","PG&E","U"," ","","","33kV to 92kV","Kneeland","Humboldt","95549","CA"," ","YES","",""
"SS0324","Eel River"," ","Operational","PG&E","PG&E","U"," ","","","33kV to 92kV","Ferndale","Humboldt","95536","CA"," ","YES","",""
"SS0325","Fairhaven"," ","Operational","PG&E","PG&E","U"," ","","","33kV to 92kV","Samoa","Humboldt","95564","CA"," ","YES","",""
"SS0326","Louisiana Pacific (Samoa)","FAIRHAVEN POWER","Operational","Other","Other","U"," ","","","33kV to 92kV","Samoa","Humboldt","95564","CA"," ","YES","",""
"SS0327","Fort Seward"," ","Operational","PG&E","PG&E","U"," ","","","33kV to 92kV","Blocksburg","Humboldt","95514","CA"," ","YES","",""
"SS0328","Fruitland"," ","Operational","PG&E","PG&E","U"," ","","","33kV to 92kV","Myers Flat","Humboldt","95554","CA"," ","YES","",""
"SS0329","Garberville"," ","Operational","PG&E","PG&E","U"," ","","","33kV to 92kV","Garberville","Humboldt","95542","CA"," ","YES","",""
"SS0330","Harris"," ","Operational","PG&E","PG&E","U"," ","","","33kV to 92kV","Eureka","Humboldt","95503","CA"," ","YES","",""
"SS0331","Hoopa"," ","Operational","PG&E","PG&E","U"," ","","","33kV to 92kV","Hoopa","Humboldt","95546","CA"," ","YES","",""
"SS0332","Humboldt"," ","Operational","PG&E","PG&E","U"," ","","YES","110kV to 161kV","Eureka","Humboldt","95503","CA"," ","YES","",""
"SS0333","Humboldt Bay"," ","Operational","PG&E","PG&E","U"," ","","","110kV to 161kV","Eureka","Humboldt","95503","CA"," ","YES","",""
"SS0334","Janes Creek"," ","Operational","PG&E","PG&E","U"," ","","","33kV to 92kV","Arcata","Humboldt","95521","CA"," ","YES","",""
"SS0335","Sierra Pacific Lumber"," ","Operational","Other","Other","U"," ","","","33kV to 92kV","Arcata","Humboldt","95521","CA"," ","YES","",""
"SS0336","Maple Creek"," ","Operational","PG&E","PG&E","U"," ","","YES","110kV to 161kV","Korbel","Humboldt","95550","CA"," ","YES","",""
"SS0337","Newburg"," ","Operational","PG&E","PG&E","U"," ","","","33kV to 92kV","Fortuna","Humboldt","95540","CA"," ","YES","",""
"SS0338","Windmaster"," ","Operational","Other","Other","M"," ","","","220kV to 287kV","Byron","Contra Costa","94514","CA"," ","","YES",""
"SS0339","Pacific Lumber"," ","Operational","Other","Other","U"," ","","","33kV to 92kV","Scotia","Humboldt","95565","CA"," ","YES","",""
"SS0340","Ridge Cabin"," ","Closed","PG&E","PG&E","U"," ","","","33kV to 92kV","Korbel","Humboldt","95550","CA","Closed per new pg&e map dated 04/99","YES","",""
"SS0341","Rio Dell"," ","Operational","PG&E","PG&E","U"," ","","","33kV to 92kV","Rio Dell","Humboldt","95562","CA"," ","YES","",""
"SS0342","Russ Ranch"," ","Operational","PG&E","PG&E","U"," ","","","110kV to 161kV","Korbel","Humboldt","95550","CA"," ","YES","",""
"SS0343","Mrip","SIMPSON PAPER (SAN JOAQUIN)","Operational","Other","Other","M"," ","","YES","110kV to 161kV","Ripon","San Joaquin","95366","CA"," ","","",""
"SS0344","Trinidad"," ","Operational","PG&E","PG&E","U"," ","","","33kV to 92kV","Trinidad","Humboldt","95570","CA"," ","YES","",""
"SS0345","Willow Creek"," ","Operational","PG&E","PG&E","U"," ","","","33kV to 92kV","Willow Creek","Humboldt","95573","CA"," ","YES","",""
"SS0346","Alamorio"," ","Operational","IID","IID","L"," ","","","33kV to 92kV","Brawley","Imperial","92227","CA"," ","YES","",""
"SS0347","Anza"," ","Operational","IID","IID","L"," ","","","33kV to 92kV","Thermal","Imperial","92274","CA"," ","YES","",""
"SS0348","Bard"," ","Operational","IID","IID","L"," ","","","33kV to 92kV","Winterhaven","Imperial","92283","CA"," ","YES","",""
"SS0349","Barret"," ","Operational","IID","IID","L"," ","","","33kV to 92kV","Winterhaven","Imperial","92283","CA"," ","YES","",""
"SS0350","Bombay"," ","Operational","IID","IID","L"," ","","","33kV to 92kV","Niland","Imperial","92257","CA"," ","YES","",""
"SS0353","Calexico"," ","Operational","IID","IID","L"," ","","","33kV to 92kV","Calexico","Imperial","92231","CA"," ","YES","",""
"SS0354","Calipatria"," ","Operational","IID","IID","L"," ","","","33kV to 92kV","Calipatria","Imperial","92233","CA"," ","YES","",""
"SS0355","Central"," ","Operational","IID","IID","L"," ","","","33kV to 92kV","El Centro","Imperial","92243","CA"," ","YES","",""
"SS0356","Dahlia"," ","Operational","IID","IID","L"," ","","","33kV to 92kV","El Centro","Imperial","92243","CA"," ","YES","",""
"SS0360","Desert Shores"," ","Operational","IID","IID","L"," ","","","33kV to 92kV","Thermal","Imperial","92274","CA"," ","YES","",""
"SS0361","Dixieland"," ","Operational","IID","IID","L"," ","","","33kV to 92kV","Thermal","Imperial","92274","CA"," ","YES","",""
"SS0373","El Centro"," ","Operational","IID","IID","L"," ","","YES","220kV to 287kV","El Centro","Imperial","92243","CA"," ","YES","YES",""
"SS0376","Euclid"," ","Operational","IID","IID","L"," ","","","33kV to 92kV","Imperial","Imperial","92251","CA"," ","YES","",""
"SS0381","Goldfields"," ","Operational","IID","IID","L"," ","","","33kV to 92kV","Winterhaven","Imperial","92283","CA"," ","YES","",""
"SS0382","Goldmine"," ","Operational","IID","IID","L"," ","","YES","110kV to 161kV","Winterhaven","Imperial","92283","CA"," ","YES","",""
"SS0384","Heber"," ","Operational","IID","IID","L"," ","","","33kV to 92kV","El Centro","Imperial","92243","CA"," ","YES","",""
"SS0385","Highline"," ","Operational","IID","IID","L"," ","","","220kV to 287kV","Holtville","Imperial","92250","CA"," ","YES","YES",""
"SS0386","Holly Sugar"," ","Operational","IID","IID","L"," ","","","33kV to 92kV","Brawley","Imperial","92227","CA"," ","YES","",""
"SS0387","Holtville"," ","Operational","IID","IID","L"," ","","","33kV to 92kV","Holtville","Imperial","92250","CA"," ","YES","",""
"SS0388","Imperial Valley"," ","Operational","IID","IID","L"," ","","","33kV to 92kV","Imperial","Imperial","92251","CA"," ","YES","",""
"SS0389","Imperial Valley"," ","Operational","SDG&E","SDG&E","L"," ","","YES","345kV to 500kV","Thermal","Imperial","92274","CA"," ","","YES","YES"
"SS0390","El Segundo"," ","Operational","SCE","SCE","L"," ","","","220kV to 287kV","El Segundo","Los Angeles","90245","CA"," ","YES","YES",""
"SS0391","Mesquite"," ","Operational","IID","IID","L"," ","","","33kV to 92kV","Imperial","Imperial","92251","CA"," ","YES","",""
"SS0392","Midway"," ","Operational","IID","IID","L"," ","","","220kV to 287kV","Calipatria","Imperial","92233","CA"," ","YES","YES",""
"SS0393","No Mans Land"," ","Operational","IID","IID","L"," ","","","33kV to 92kV","Winterhaven","Imperial","92283","CA"," ","YES","",""
"SS0394","Drop 2"," ","Operational","IID","IID","L"," ","","","33kV to 92kV","Winterhaven","Imperial","92283","CA"," ","YES","",""
"SS0395","Drop 1"," ","Operational","IID","IID","L"," ","","","33kV to 92kV","Winterhaven","Imperial","92283","CA"," ","YES","",""
"SS0396","Araz"," ","Operational","IID","IID","L"," ","","YES","110kV to 161kV","Winterhaven","Imperial","92283","CA"," ","","",""
"SS0397","Navy Base"," ","Operational","IID","IID","L"," ","","","33kV to 92kV","El Centro","Imperial","92243","CA"," ","YES","",""
"SS0398","Niland"," ","Operational","IID","IID","L"," ","","YES","110kV to 161kV","Calipatria","Imperial","92233","CA"," ","YES","",""
"SS0400","Oakley"," ","Operational","IID","IID","L"," ","","","33kV to 92kV","Brawley","Imperial","92227","CA"," ","YES","",""
"SS0403","Perry"," ","Operational","IID","IID","L"," ","","","33kV to 92kV","Calexico","Imperial","92231","CA"," ","YES","",""
"SS0404","Knob","Knob USBR","Operational","WAPA","WAPA","L"," ","","YES","110kV to 161kV","Winterhaven","Imperial","92283","CA"," ","","",""
"SS0406","Plaster City"," ","Operational","IID","IID","L"," ","","","33kV to 92kV","Thermal","Imperial","92274","CA"," ","YES","",""
"SS0407","Pruett"," ","Operational","IID","IID","L"," ","","","33kV to 92kV","Calexico","Imperial","92231","CA"," ","YES","",""
"SS0408","Brawley"," ","Operational","IID","IID","L"," ","","","33kV to 92kV","Brawley","Imperial","92227","CA"," ","YES","",""
"SS0410","Salton City"," ","Operational","IID","IID","L"," ","","","33kV to 92kV","Thermal","Imperial","92274","CA"," ","YES","",""
"SS0412","Seeley"," ","Operational","IID","IID","L"," ","","","33kV to 92kV","El Centro","Imperial","92243","CA"," ","YES","",""
"SS0413","Silsbee"," ","Operational","IID","IID","L"," ","","","33kV to 92kV","El Centro","Imperial","92243","CA"," ","YES","",""
"SS0414","Superstition"," ","Operational","IID","IID","L"," ","","","33kV to 92kV","Imperial","Imperial","92251","CA"," ","YES","",""
"SS0415","Valley"," ","Operational","IID","IID","L"," ","","","33kV to 92kV","El Centro","Imperial","92243","CA"," ","YES","",""
"SS0416","Verde"," ","Operational","IID","IID","L"," ","","","33kV to 92kV","Holtville","Imperial","92250","CA"," ","YES","",""
"SS0420","Westmorland"," ","Operational","IID","IID","L"," ","","","33kV to 92kV","Westmorland","Imperial","92281","CA"," ","YES","",""
"SS0421","Winterhaven"," ","Operational","IID","IID","L"," ","","","33kV to 92kV","Winterhaven","Imperial","92283","CA"," ","YES","",""
"SS0440","Deep Springs"," ","Closed","SCE","SCE","M"," ","","","33kV to 92kV","Big Pine","Inyo","93513","CA","Closed per new sc&e map 01-99","YES","",""
"SS0441","Haiwee"," ","Operational","SCE","SCE","L"," ","","YES","110kV to 161kV","Ridgecrest","Inyo","93555","CA"," ","YES","",""
"SS0442","Lone Pine"," ","Operational","SCE","SCE","M"," ","","YES","110kV to 161kV","Lone Pine","Inyo","93545","CA"," ","","",""
"SS0443","Morgan"," ","Operational","SCE","SCE","M"," ","","","33kV to 92kV","Bishop","Inyo","93514","CA"," ","YES","",""
"SS0444","Mt. Tom"," ","Operational","SCE","SCE","M"," ","","","33kV to 92kV","Bishop","Inyo","93514","CA"," ","YES","",""
"SS0451","Roberts"," ","Closed","SCE","SCE","M"," ","","","33kV to 92kV","Bishop","Inyo","93514","CA","Closed per new sc&e map 01-99","YES","",""
"SS0455","Berrenda A"," ","Operational","PG&E","PG&E","L"," ","","","33kV to 92kV","Lost Hills","Kern","93249","CA"," ","YES","",""
"SS0456","Berrenda C"," ","Operational","PG&E","PG&E","L"," ","","","33kV to 92kV","Lost Hills","Kern","93249","CA"," ","YES","",""
"SS0457","Castaic"," ","Operational","Other","Other","L"," ","","","33kV to 92kV","Frazier Park","Kern","93225","CA"," ","YES","",""
"SS0458","Cawelo B"," ","Operational","PG&E","PG&E","L"," ","","","33kV to 92kV","Bakersfield","Kern","93308","CA"," ","YES","",""
"SS0459","Cawelo C"," ","Operational","PG&E","PG&E","L"," ","","YES","110kV to 161kV","Bakersfield","Kern","93308","CA"," ","","",""
"SS0460","Emidio Mobil"," ","Operational","Other","Other","L"," ","","","33kV to 92kV","Bakersfield","Kern","93313","CA"," ","YES","",""
"SS0461","Kernwater"," ","Operational","PG&E","PG&E","L"," ","","YES","110kV to 161kV","Bakersfield","Kern","93308","CA"," ","","",""
"SS0462","Lebec"," ","Operational","SCE","SCE","L"," ","","","220kV to 287kV","Rosamond","Kern","93560","CA"," ","YES","YES",""
"SS0463","Lost Hills"," ","Operational","PG&E","PG&E","L"," ","","","33kV to 92kV","Lost Hills","Kern","93249","CA"," ","YES","",""
"SS0464","Petrol"," ","Operational","PG&E","PG&E","L"," ","","YES","110kV to 161kV","Bakersfield","Kern","93308","CA"," ","YES","",""
"SS0465","Valpredo"," ","Operational","PG&E","PG&E","L"," ","","","33kV to 92kV","Bakersfield","Kern","93313","CA"," ","YES","",""
"SS0466","Pacific Pipeline","WARREN","Operational","Other","Other","L"," ","","","33kV to 92kV","Lebec","Kern","93243","CA"," ","YES","",""
"SS0470","Antelope"," ","Operational","PG&E","PG&E","L"," ","","","33kV to 92kV","Lost Hills","Kern","93249","CA"," ","YES","",""
"SS0471","Arco"," ","Operational","PG&E","PG&E","L"," ","","","220kV to 287kV","Lost Hills","Kern","93249","CA"," ","YES","YES",""
"SS0472","Arvin"," ","Operational","PG&E","PG&E","L"," ","","","33kV to 92kV","Arvin","Kern","93203","CA"," ","YES","",""
"SS0473","Arvin-Edison"," ","Operational","Other","Other","L"," ","","YES","110kV to 161kV","Bakersfield","Kern","93307","CA"," ","","",""
"SS0474","Bakersfield"," ","Operational","PG&E","PG&E","L"," ","","","220kV to 287kV","Bakersfield","Kern","93301","CA"," ","YES","YES",""
"SS0475","Blackwell"," ","Operational","PG&E","PG&E","L"," ","","","33kV to 92kV","Lost Hills","Kern","93249","CA"," ","YES","",""
"SS0476","Cadet"," ","Operational","PG&E","PG&E","L"," ","","","33kV to 92kV","Taft","Kern","93268","CA"," ","YES","",""
"SS0477","Carnation Dairy"," ","Operational","PG&E","PG&E","L"," ","","","33kV to 92kV","Bakersfield","Kern","93313","CA"," ","YES","",""
"SS0478","Carneras"," ","Operational","PG&E","PG&E","L"," ","","","33kV to 92kV","Lost Hills","Kern","93249","CA"," ","YES","",""
"SS0479","Celeron"," ","Operational","Other","Other","L"," ","","","33kV to 92kV","Mc Kittrick","Kern","93251","CA"," ","YES","",""
"SS0480","Chalk","CHALK CLIFF","Operational","PG&E","PG&E","L"," ","","","33kV to 92kV","Maricopa","Kern","93252","CA"," ","YES","",""
"SS0481","Charca"," ","Operational","PG&E","PG&E","L"," ","","YES","110kV to 161kV","Wasco","Kern","93280","CA"," ","","",""
"SS0482","Columbus"," ","Operational","PG&E","PG&E","L"," ","","YES","110kV to 161kV","Bakersfield","Kern","93306","CA"," ","YES","",""
"SS0483","Copus"," ","Operational","PG&E","PG&E","L"," ","","","33kV to 92kV","Bakersfield","Kern","93311","CA"," ","YES","",""
"SS0484","Cymric"," ","Operational","Other","Other","L"," ","","YES","110kV to 161kV","Mc Kittrick","Kern","93251","CA"," ","","",""
"SS0485","Devils Den"," ","Operational","PG&E","PG&E","L"," ","","","33kV to 92kV","Lost Hills","Kern","93249","CA"," ","YES","",""
"SS0486","Dexel"," ","Operational","Other","Other","L"," ","","YES","110kV to 161kV","Bakersfield","Kern","93308","CA"," ","","",""
"SS0487","Discovery"," ","Operational","Other","Other","L"," ","","YES","110kV to 161kV","Bakersfield","Kern","93308","CA"," ","","",""
"SS0488","Double C"," ","Operational","Other","Other","L"," ","","YES","110kV to 161kV","Bakersfield","Kern","93308","CA"," ","","",""
"SS0489","Eisen","EISEN BOLTHOUSE FARMS","Operational","PG&E","PG&E","L"," ","","","33kV to 92kV","Bakersfield","Kern","93307","CA"," ","YES","",""
"SS0490","Elk Hills"," ","Operational","PG&E","PG&E","L"," ","","","33kV to 92kV","Taft","Kern","93268","CA"," ","YES","",""
"SS0491","Famoso"," ","Operational","PG&E","PG&E","L"," ","","YES","110kV to 161kV","Mc Farland","Kern","93250","CA"," ","YES","",""
"SS0492","Fellows"," ","Operational","PG&E","PG&E","L"," ","","YES","110kV to 161kV","Fellows","Kern","93224","CA"," ","","",""
"SS0493","Frito Lay"," ","Operational","Other","Other","L"," ","","YES","110kV to 161kV","Bakersfield","Kern","93314","CA"," ","","",""
"SS0494","Fruitvale"," ","Operational","PG&E","PG&E","L"," ","","YES","110kV to 161kV","Bakersfield","Kern","93308","CA"," ","","",""
"SS0495","Ganso"," ","Operational","PG&E","PG&E","L"," ","","YES","110kV to 161kV","Wasco","Kern","93280","CA"," ","YES","",""
"SS0496","Gardner"," ","Operational","Other","Other","L"," ","","","33kV to 92kV","Taft","Kern","93268","CA"," ","YES","",""
"SS0497","Goose Lake"," ","Operational","PG&E","PG&E","L"," ","","YES","110kV to 161kV","Lost Hills","Kern","93249","CA"," ","","",""
"SS0498","Grapevine"," ","Operational","Other","Other","L"," ","","","33kV to 92kV","Lebec","Kern","93243","CA"," ","YES","",""
"SS0499","Kelley"," ","Operational","Other","Other","L"," ","","","33kV to 92kV","Frazier Park","Kern","93225","CA"," ","YES","",""
"SS0502","Kern Front"," ","Operational","PG&E","PG&E","L"," ","","YES","110kV to 161kV","Bakersfield","Kern","93308","CA"," ","","",""
"SS0503","Kernridge"," ","Operational","PG&E","PG&E","L"," ","","YES","110kV to 161kV","Mc Kittrick","Kern","93251","CA"," ","YES","",""
"SS0504","Lakeview"," ","Operational","PG&E","PG&E","L"," ","","","33kV to 92kV","Bakersfield","Kern","93313","CA"," ","YES","",""
"SS0505","Lamont"," ","Operational","PG&E","PG&E","L"," ","","YES","110kV to 161kV","Bakersfield","Kern","93307","CA"," ","","",""
"SS0506","Lerdo"," ","Operational","PG&E","PG&E","L"," ","","YES","110kV to 161kV","Bakersfield","Kern","93308","CA"," ","YES","",""
"SS0507","Texaco Usa Inc.","TEXACO (LOST HILLS)","Operational","Other","Other","L"," ","","","33kV to 92kV","Lost Hills","Kern","93249","CA"," ","YES","",""
"SS0508","Magunden"," ","Operational","PG&E","PG&E","L"," ","","YES","220kV to 287kV","Bakersfield","Kern","93306","CA"," ","YES","YES",""
"SS0509","Maricopa"," ","Operational","PG&E","PG&E","L"," ","","","33kV to 92kV","Taft","Kern","93268","CA"," ","YES","",""
"SS0510","Mc Farland"," ","Operational","PG&E","PG&E","L"," ","","","33kV to 92kV","Mc Farland","Kern","93250","CA"," ","YES","",""
"SS0511","Sysquoc"," ","Operational","PG&E","PG&E","L"," ","","","33kV to 92kV","Mc Kittrick","Kern","93251","CA"," ","YES","",""
"SS0512","Midsun"," ","Operational","Other","Other","L"," ","","YES","110kV to 161kV","Fellows","Kern","93224","CA"," ","","",""
"SS0513","Midway"," ","Operational","PG&E","PG&E","L"," ","","YES","345kV to 500kV","Buttonwillow","Kern","93206","CA"," ","","YES","YES"
"SS0514","Mobil"," ","Operational","Other","Other","L"," ","","","33kV to 92kV","Fellows","Kern","93224","CA"," ","YES","",""
"SS0515","Moco"," ","Operational","Other","Other","L"," ","","","33kV to 92kV","Maricopa","Kern","93252","CA"," ","YES","",""
"SS0516","Mt. Poso"," ","Operational","Other","Other","L"," ","","YES","110kV to 161kV","Bakersfield","Kern","93308","CA"," ","","",""
"SS0518","Norco"," ","Operational","PG&E","PG&E","L"," ","","YES","110kV to 161kV","Tupman","Kern","93276","CA"," ","","",""
"SS0520","Old River"," ","Operational","PG&E","PG&E","L"," ","","","33kV to 92kV","Bakersfield","Kern","93313","CA"," ","YES","",""
"SS0521","Panama"," ","Operational","PG&E","PG&E","L"," ","","","33kV to 92kV","Bakersfield","Kern","93307","CA"," ","YES","",""
"SS0522","Petro Lewis"," ","Operational","Other","Other","L"," ","","","33kV to 92kV","Lost Hills","Kern","93249","CA"," ","YES","",""
"SS0524","Ultra Power (Ogle)"," ","Operational","Other","Other","L"," ","","YES","110kV to 161kV","Bakersfield","Kern","93308","CA"," ","","",""
"SS0525","Rio Bravo"," ","Operational","PG&E","PG&E","L"," ","","YES","110kV to 161kV","Bakersfield","Kern","93314","CA"," ","","",""
"SS0526","Rio Bravo Hydro"," ","Operational","PG&E","PG&E","L"," ","","","33kV to 92kV","Bakersfield","Kern","93306","CA"," ","YES","",""
"SS0527","Rose"," ","Operational","Other","Other","L"," ","","","33kV to 92kV","Arvin","Kern","93203","CA"," ","YES","",""
"SS0528","Rosedale"," ","Operational","PG&E","PG&E","L"," ","","YES","110kV to 161kV","Bakersfield","Kern","93308","CA"," ","","",""
"SS0529","San Bernard"," ","Operational","PG&E","PG&E","L"," ","","","33kV to 92kV","Arvin","Kern","93203","CA"," ","YES","",""
"SS0530","Santa Fe Energy","KING ELLIS","Operational","Other","Other","L"," ","","YES","110kV to 161kV","Fellows","Kern","93224","CA"," ","","",""
"SS0531","Semitropic"," ","Operational","PG&E","PG&E","L"," ","","YES","110kV to 161kV","Wasco","Kern","93280","CA"," ","","",""
"SS0532","Shafter"," ","Operational","PG&E","PG&E","L"," ","","YES","110kV to 161kV","Shafter","Kern","93263","CA"," ","","",""
"SS0533","Badger Creek Cogen"," ","Operational","PG&E","PG&E","L"," ","","YES","110kV to 161kV","Bakersfield","Kern","93308","CA"," ","","",""
"SS0534","Smyrna"," ","Operational","PG&E","PG&E","L"," ","","YES","110kV to 161kV","Wasco","Kern","93280","CA"," ","","",""
"SS0535","Stallion"," ","Operational","Other","Other","L"," ","","","33kV to 92kV","Tehachapi","Kern","93561","CA"," ","YES","",""
"SS0536","Stockdale"," ","Operational","PG&E","PG&E","L"," ","","YES","220kV to 287kV","Bakersfield","Kern","93313","CA"," ","","YES",""
"SS0537","Berry Petroleum","SUNSET","Operational","PG&E","PG&E","L"," ","","","33kV to 92kV","Maricopa","Kern","93252","CA"," ","YES","",""
"SS0539","Taft"," ","Operational","Other","Other","L"," ","","YES","110kV to 161kV","Taft","Kern","93268","CA"," ","YES","",""
"SS0540","Tannehill Electric Co."," ","Operational","Other","Other","L"," ","","","33kV to 92kV","Maricopa","Kern","93252","CA"," ","YES","",""
"SS0541","Tecuya"," ","Operational","PG&E","PG&E","L"," ","","","33kV to 92kV","Bakersfield","Kern","93313","CA"," ","YES","",""
"SS0542","Tejon"," ","Operational","PG&E","PG&E","L"," ","","","33kV to 92kV","Bakersfield","Kern","93307","CA"," ","YES","",""
"SS0543","Temblor"," ","Operational","PG&E","PG&E","L"," ","","YES","110kV to 161kV","Mc Kittrick","Kern","93251","CA"," ","YES","",""
"SS0544","Midset"," ","Operational","Other","Other","L"," ","","YES","110kV to 161kV","Fellows","Kern","93224","CA"," ","","",""
"SS0545","Tupman"," ","Operational","PG&E","PG&E","L"," ","","YES","110kV to 161kV","Bakersfield","Kern","93314","CA"," ","","",""
"SS0546","Twisselman"," ","Operational","PG&E","PG&E","L"," ","","","33kV to 92kV","Lost Hills","Kern","93249","CA"," ","YES","",""
"SS0547","Rio Bravo Poso"," ","Operational","PG&E","PG&E","L"," ","","YES","110kV to 161kV","Bakersfield","Kern","93308","CA"," ","","",""
"SS0549","Vedder"," ","Operational","Other","Other","L"," ","","YES","110kV to 161kV","Bakersfield","Kern","93308","CA"," ","YES","",""
"SS0550","Wasco"," ","Operational","PG&E","PG&E","L"," ","","YES","110kV to 161kV","Wasco","Kern","93280","CA"," ","","",""
"SS0551","Weedpatch"," ","Operational","PG&E","PG&E","L"," ","","","33kV to 92kV","Bakersfield","Kern","93307","CA"," ","YES","",""
"SS0552","Wellfield"," ","Operational","PG&E","PG&E","L"," ","","","33kV to 92kV","Arvin","Kern","93203","CA"," ","YES","",""
"SS0553","West Park"," ","Operational","PG&E","PG&E","L"," ","","YES","110kV to 161kV","Bakersfield","Kern","93301","CA"," ","","",""
"SS0554","Wheeler Ridge"," ","Operational","PG&E","PG&E","L"," ","","YES","220kV to 287kV","Bakersfield","Kern","93307","CA"," ","YES","YES",""
"SS0555","Witco"," ","Operational","PG&E","PG&E","L"," ","","YES","110kV to 161kV","Bakersfield","Kern","93308","CA"," ","","",""
"SS0556","Getty Oil"," ","Operational","Other","Other","L"," ","","YES","110kV to 161kV","Mc Kittrick","Kern","93251","CA"," ","","",""
"SS0557","Kern Oil"," ","Operational","PG&E","PG&E","L"," ","","YES","110kV to 161kV","Bakersfield","Kern","93308","CA"," ","","",""
"SS0558","Alamo"," ","Operational","SCE","SCE","L"," ","","","33kV to 92kV","Lancaster","Los Angeles","93536","CA"," ","YES","",""
"SS0560","Borel"," ","Operational","SCE","SCE","L"," ","","","33kV to 92kV","Bodfish","Kern","93205","CA"," ","YES","",""
"SS0561","Breeze"," ","Operational","SCE","SCE","L"," ","","","33kV to 92kV","Tehachapi","Kern","93561","CA"," ","YES","",""
"SS0562","Browning"," ","Operational","SCE","SCE","L"," ","","","33kV to 92kV","Mc Farland","Kern","93250","CA"," ","YES","",""
"SS0563","Cal Cement"," ","Operational","SCE","SCE","L"," ","","","33kV to 92kV","Mojave","Kern","93501","CA"," ","YES","",""
"SS0565","Corum"," ","Operational","SCE","SCE","L"," ","","","33kV to 92kV","Edwards","Kern","93523","CA"," ","YES","",""
"SS0566","Cummings"," ","Operational","SCE","SCE","L"," ","","","33kV to 92kV","Tehachapi","Kern","93561","CA"," ","YES","",""
"SS0567","Delano"," ","Operational","SCE","SCE","L"," ","","","33kV to 92kV","Delano","Kern","93215","CA"," ","YES","",""
"SS0569","Edmonston"," ","Operational","Other","Other","L"," ","","","220kV to 287kV","Rosamond","Kern","93560","CA"," ","YES","YES",""
"SS0570","Edwards"," ","Operational","SCE","SCE","L"," ","","YES","110kV to 161kV","Edwards","Kern","93523","CA"," ","YES","",""
"SS0572","Frazier Park"," ","Operational","SCE","SCE","L"," ","","","33kV to 92kV","Frazier Park","Kern","93225","CA"," ","YES","",""
"SS0573","Glennville"," ","Operational","SCE","SCE","L"," ","","","33kV to 92kV","Glennville","Kern","93226","CA"," ","YES","",""
"SS0574","Goldtown"," ","Operational","SCE","SCE","L"," ","","","33kV to 92kV","Mojave","Kern","93501","CA"," ","YES","",""
"SS0575","Great Lakes"," ","Operational","SCE","SCE","L"," ","","","33kV to 92kV","Rosamond","Kern","93560","CA"," ","YES","",""
"SS0576","Greenhorn"," ","Operational","SCE","SCE","L"," ","","","33kV to 92kV","Wofford Heights","Kern","93285","CA"," ","YES","",""
"SS0577","Havilah"," ","Operational","SCE","SCE","L"," ","","","33kV to 92kV","Caliente","Kern","93518","CA"," ","YES","",""
"SS0578","Holgate"," ","Operational","SCE","SCE","L"," ","","YES","110kV to 161kV","Edwards","Kern","93523","CA"," ","YES","",""
"SS0579","Inyokern"," ","Operational","SCE","SCE","L"," ","","YES","110kV to 161kV","Inyokern","Kern","93527","CA"," ","YES","",""
"SS0580","Isabella"," ","Operational","SCE","SCE","L"," ","","","33kV to 92kV","Lake Isabella","Kern","93240","CA","Check bing on imagery","YES","",""
"SS0583","Kernville"," ","Operational","SCE","SCE","L"," ","","","33kV to 92kV","Kernville","Kern","93238","CA"," ","YES","",""
"SS0584","Lakegen"," ","Operational","SCE","SCE","L"," ","","","33kV to 92kV","Lake Isabella","Kern","93240","CA"," ","YES","",""
"SS0585","Loraine"," ","Operational","SCE","SCE","L"," ","","","33kV to 92kV","Caliente","Kern","93518","CA"," ","YES","",""
"SS0587","Monolith"," ","Operational","SCE","SCE","L"," ","","","33kV to 92kV","Tehachapi","Kern","93561","CA"," ","YES","",""
"SS0591","Shiloh I"," ","Operational","Other","Other","M"," ","","","220kV to 287kV","Rio Vista","Solano","94571","CA"," ","","YES",""
"SS0592","Pandol"," ","Operational","SCE","SCE","L"," ","","","33kV to 92kV","Delano","Kern","93215","CA","Strange looking but check bing map on bird's eye","YES","",""
"SS0593","Pastoria"," ","Operational","SCE","SCE","L"," ","","","220kV to 287kV","Rosamond","Kern","93560","CA"," ","YES","YES",""
"SS0594","Quinn","ULTRAGEN","Operational","SCE","SCE","L"," ","","","33kV to 92kV","Delano","Kern","93215","CA"," ","YES","",""
"SS0595","Randsburg"," ","Operational","SCE","SCE","L"," ","","YES","220kV to 287kV","Johannesburg","Kern","93528","CA"," ","YES","YES",""
"SS0596","Rocket Test"," ","Operational","SCE","SCE","L"," ","","YES","110kV to 161kV","Edwards","Kern","93524","CA"," ","YES","",""
"SS0597","Rosamond"," ","Operational","SCE","SCE","L"," ","","","33kV to 92kV","Rosamond","Kern","93560","CA"," ","YES","",""
"SS0598","Southbase"," ","Operational","SCE","SCE","L"," ","","YES","110kV to 161kV","Edwards","Kern","93524","CA"," ","","",""
"SS0602","Walker Basin"," ","Operational","SCE","SCE","L"," ","","","33kV to 92kV","Caliente","Kern","93518","CA"," ","YES","",""
"SS0603","Weldon"," ","Operational","SCE","SCE","L"," ","","","33kV to 92kV","Weldon","Kern","93283","CA"," ","YES","",""
"SS0604","Westpac"," ","Operational","SCE","SCE","L"," ","","","33kV to 92kV","Lebec","Kern","93243","CA"," ","YES","",""
"SS0606","Sycamore"," ","Operational","SCE","SCE","L"," ","","","33kV to 92kV","Bakersfield","Kern","93308","CA"," ","YES","",""
"SS0607","Boswell"," ","Operational","PG&E","PG&E","L"," ","","","33kV to 92kV","Corcoran","Kings","93212","CA"," ","YES","",""
"SS0610","Angiola"," ","Operational","PG&E","PG&E","L"," ","","","33kV to 92kV","Kettleman City","Kings","93239","CA"," ","YES","",""
"SS0611","Armstrong"," ","Operational","Other","Other","L"," ","","","33kV to 92kV","Hanford","Kings","93230","CA"," ","YES","",""
"SS0612","Avenal"," ","Operational","Other","Other","L"," ","","","33kV to 92kV","Avenal","Kings","93204","CA"," ","YES","",""
"SS0614","Corcoran"," ","Operational","PG&E","PG&E","L"," ","","YES","110kV to 161kV","Corcoran","Kings","93212","CA"," ","","",""
"SS0615","Guernsey"," ","Operational","PG&E","PG&E","L"," ","","","33kV to 92kV","Hanford","Kings","93230","CA"," ","YES","",""
"SS0616","Hanford"," ","Operational","Other","Other","L"," ","","","33kV to 92kV","Hanford","Kings","93230","CA"," ","YES","",""
"SS0617","Hardwick"," ","Operational","PG&E","PG&E","L"," ","","","33kV to 92kV","Hanford","Kings","93230","CA"," ","YES","",""
"SS0618","Henrietta"," ","Operational","PG&E","PG&E","L"," ","","","220kV to 287kV","Lemoore","Kings","93245","CA"," ","YES","YES",""
"SS0619","Jacobs Corner"," ","Operational","PG&E","PG&E","L"," ","","","33kV to 92kV","Lemoore","Kings","93245","CA"," ","YES","",""
"SS0620","Kettleman Hills"," ","Operational","PG&E","PG&E","L"," ","","","33kV to 92kV","Avenal","Kings","93204","CA"," ","YES","",""
"SS0621","Lemoore"," ","Operational","PG&E","PG&E","L"," ","","","33kV to 92kV","Lemoore","Kings","93245","CA"," ","YES","",""
"SS0622","Reserve Oil"," ","Operational","PG&E","PG&E","L"," ","","","33kV to 92kV","Hanford","Kings","93230","CA"," ","YES","",""
"SS0623","Tulare Lake"," ","Operational","PG&E","PG&E","L"," ","","","33kV to 92kV","Kettleman City","Kings","93239","CA"," ","YES","",""
"SS0638","Clear Lake"," ","Operational","PG&E","PG&E","M"," ","","","33kV to 92kV","Lakeport","Lake","95453","CA"," ","YES","",""
"SS0639","Eagle Rock"," ","Operational","PG&E","PG&E","M"," ","","YES","110kV to 161kV","Geyserville","Sonoma","95441","CA"," ","YES","",""
"SS0640","Hartley"," ","Operational","PG&E","PG&E","M"," ","","","33kV to 92kV","Lakeport","Lake","95453","CA"," ","YES","",""
"SS0641","Konocti"," ","Operational","PG&E","PG&E","M"," ","","","33kV to 92kV","Kelseyville","Lake","95451","CA"," ","YES","",""
"SS0642","Lower Lake"," ","Operational","PG&E","PG&E","M"," ","","YES","110kV to 161kV","Lower Lake","Lake","95457","CA"," ","","",""
"SS0643","Lucerne"," ","Operational","PG&E","PG&E","U"," ","","YES","110kV to 161kV","Nice","Lake","95464","CA"," ","","",""
"SS0644","Middletown"," ","Operational","PG&E","PG&E","M"," ","","","33kV to 92kV","Middletown","Lake","95461","CA"," ","YES","",""
"SS0645","Redbud"," ","Operational","PG&E","PG&E","M"," ","","YES","110kV to 161kV","Clearlake Oaks","Lake","95423","CA"," ","","",""
"SS0646","Upper Lake"," ","Operational","PG&E","PG&E","U"," ","","YES","110kV to 161kV","Lakeport","Lake","95453","CA"," ","YES","",""
"SS0647","Halls Flat"," ","Operational","PG&E","PG&E","U"," ","","","33kV to 92kV","Mcarthur","Lassen","96056","CA"," ","YES","",""
"SS0648","Janesville"," ","Operational","Other","Other","U"," ","","","33kV to 92kV","Janesville","Lassen","96114","CA"," ","YES","",""
"SS0649","Standish"," ","Operational","Other","Other","U"," ","","","33kV to 92kV","Susanville","Lassen","96130","CA"," ","YES","",""
"SS0650","Susan"," ","Operational","Other","Other","U"," ","","","33kV to 92kV","Susanville","Lassen","96130","CA"," ","YES","",""
"SS0652","Leavitt"," ","Operational","Other","Other","U"," ","","","33kV to 92kV","Susanville","Lassen","96130","CA"," ","YES","",""
"SS0653","Milford"," ","Operational","Other","Other","U"," ","","","33kV to 92kV","Milford","Lassen","96121","CA"," ","YES","",""
"SS0654","Madeline"," ","Operational","Other","Other","U"," ","","","345kV to 500kV","Termo","Lassen","96132","CA"," ","YES","","YES"
"SS0655","Bogard"," ","Operational","PG&E","PG&E","U"," ","","","33kV to 92kV","Mcarthur","Lassen","96056","CA"," ","YES","",""
"SS0656","Hamilton Branch"," ","Operational","PG&E","PG&E","U"," ","","","33kV to 92kV","Westwood","Plumas","96137","CA"," ","YES","",""
"SS0658","Westwood"," ","Operational","Other","Other","U"," ","","","33kV to 92kV","Susanville","Lassen","96130","CA","Co owner lmud","YES","",""
"SS0659","Airway"," ","Operational","Other","Other","L"," ","","","220kV to 287kV","Glendale","Los Angeles","91201","CA"," ","YES","YES",""
"SS0660","Gramercy"," ","Operational","LADWP","LADWP","L"," ","","YES","110kV to 161kV","Los Angeles","Los Angeles","90047","CA"," ","","",""
"SS0661","Halldale"," ","Operational","LADWP","LADWP","L"," ","","YES","110kV to 161kV","Torrance","Los Angeles","90501","CA"," ","YES","",""
"SS0662","Hyperion"," ","Operational","LADWP","LADWP","L"," ","","YES","220kV to 287kV","Los Angeles","Los Angeles","90045","CA"," ","YES","YES",""
"SS0663","San Fernando"," ","Operational","SCE","SCE","L"," ","","","33kV to 92kV","Mission Hills","Los Angeles","91345","CA"," ","YES","",""
"SS0665","Imperial"," IMPERIAL TERMINAL TOWER","Operational","LADWP","LADWP","L"," ","","YES","110kV to 161kV","Los Angeles","Los Angeles","90047","CA"," ","","",""
"SS0666","Kenter Canyon"," ","Operational","LADWP","LADWP","L"," ","","YES","220kV to 287kV","Los Angeles","Los Angeles","90049","CA"," ","","YES",""
"SS0667","Movie","LA BREA","Operational","SCE","SCE","L"," ","","","33kV to 92kV","Culver City","Los Angeles","90230","CA"," ","YES","",""
"SS0668","Nichols Canyon"," ","Operational","LADWP","LADWP","L"," ","","YES","220kV to 287kV","Los Angeles","Los Angeles","90046","CA"," ","","YES",""
"SS0669","Olive"," ","Operational","LADWP","LADWP","L"," ","","","33kV to 92kV","Sylmar","Los Angeles","91342","CA","Switching station per ladmp binder tab # 15 drawing # tm 15-2-1 dated 01-10-83","YES","",""
"SS0670","Rinaldi"," ","Operational","LADWP","LADWP","L"," ","","","345kV to 500kV","Granada Hills","Los Angeles","91344","CA"," ","YES","YES","YES"
"SS0671","River"," ","Operational","LADWP","LADWP","L"," ","","","220kV to 287kV","Los Angeles","Los Angeles","90021","CA"," ","YES","YES",""
"SS0673","Sta. A (St. John)"," ","Operational","LADWP","LADWP","L"," ","","","220kV to 287kV","Los Angeles","Los Angeles","90012","CA"," ","YES","YES",""
"SS0674","Sta. B (Century)"," ","Operational","LADWP","LADWP","L"," ","","YES","220kV to 287kV","Los Angeles","Los Angeles","90002","CA"," ","","YES",""
"SS0675","Sta. C (Wilmington)"," ","Operational","LADWP","LADWP","L"," ","","YES","110kV to 161kV","Wilmington","Los Angeles","90744","CA"," ","YES","",""
"SS0676","Sta. D (Fairfax)"," ","Operational","LADWP","LADWP","L"," ","","YES","220kV to 287kV","Los Angeles","Los Angeles","90034","CA"," ","","YES",""
"SS0677","Sta. E (Toluca)"," ","Operational","LADWP","LADWP","L"," ","","","220kV to 287kV","North Hollywood","Los Angeles","91601","CA"," ","YES","YES",""
"SS0678","Sta. F (Velasco)"," ","Operational","LADWP","LADWP","L"," ","","","220kV to 287kV","Los Angeles","Los Angeles","90023","CA"," ","YES","YES",""
"SS0679","Sta. G (Atwater)"," ","Operational","LADWP","LADWP","L"," ","","","220kV to 287kV","Los Angeles","Los Angeles","90039","CA"," ","YES","YES",""
"SS0680","Sta. H (Hollywood)"," ","Operational","LADWP","LADWP","L"," ","","YES","220kV to 287kV","Los Angeles","Los Angeles","90046","CA"," ","","YES",""
"SS0681","Sta. J (Northridge)"," ","Operational","LADWP","LADWP","L"," ","","","220kV to 287kV","Northridge","Los Angeles","91324","CA"," ","","YES",""
"SS0682","Sta. K (Olympic)"," ","Operational","LADWP","LADWP","L"," ","","YES","220kV to 287kV","Los Angeles","Los Angeles","90025","CA"," ","YES","YES",""
"SS0683","Sta. L (Scattergood)"," ","Operational","LADWP","LADWP","L"," ","","","220kV to 287kV","Playa Del Rey","Los Angeles","90293","CA"," ","YES","YES",""
"SS0684","Sta. M (Valley)"," ","Operational","LADWP","LADWP","L"," ","","","345kV to 500kV","Sun Valley","Los Angeles","91352","CA"," ","YES","YES","YES"
"SS0686","Sta. P (Market)"," ","Operational","LADWP","LADWP","L"," ","","","220kV to 287kV","Los Angeles","Los Angeles","90013","CA"," ","","YES",""
"SS0687","Sta. Q (Harbor)"," ","Operational","LADWP","LADWP","L"," ","","YES","110kV to 161kV","Wilmington","Los Angeles","90744","CA"," ","YES","",""
"SS0688","Sta. S (Van Nuys)"," ","Operational","LADWP","LADWP","L"," ","","","220kV to 287kV","Van Nuys","Los Angeles","91401","CA"," ","","YES",""
"SS0689","Sta. T (Canoga)"," ","Operational","LADWP","LADWP","L"," ","","","220kV to 287kV","Canoga Park","Los Angeles","91303","CA"," ","","YES",""
"SS0690","Sta. U (Tarzana)"," ","Operational","LADWP","LADWP","L"," ","","","220kV to 287kV","Tarzana","Los Angeles","91356","CA"," ","","YES",""
"SS0691","Sylmar"," ","Operational","LADWP","LADWP","L"," ","","","345kV to 500kV","Granada Hills","Los Angeles","91344","CA","According to the sce data on 11/17/2008, this station is now owned by ladwp","YES","YES","YES"
"SS0693","Lincoln"," ","Operational","Other","Other","L"," ","","","33kV to 92kV","Burbank","Los Angeles","91504","CA"," ","YES","",""
"SS0695","Mcneil"," ","Operational","Other","Other","L"," ","","","33kV to 92kV","Burbank","Los Angeles","91502","CA"," ","YES","",""
"SS0696","Aerojet"," ","Operational","SCE","SCE","L"," ","","","33kV to 92kV","Azusa","Los Angeles","91702","CA"," ","YES","",""
"SS0698","Airchem"," ","Operational","SCE","SCE","L"," ","","","220kV to 287kV","Manhattan Beach","Los Angeles","90266","CA"," ","YES","YES",""
"SS0699","Bassett","AIRPAC","Operational","SCE","SCE","L"," ","","","33kV to 92kV","La Puente","Los Angeles","91744","CA"," ","YES","",""
"SS0701","Alhambra"," ","Operational","SCE","SCE","L"," ","","","33kV to 92kV","Alhambra","Los Angeles","91801","CA"," ","YES","",""
"SS0702","Alon"," ","Operational","SCE","SCE","L"," ","","","33kV to 92kV","Carson","Los Angeles","90745","CA"," ","YES","",""
"SS0703","Amador"," ","Operational","SCE","SCE","L"," ","","","33kV to 92kV","El Monte","Los Angeles","91731","CA"," ","YES","",""
"SS0704","Amco"," ","Operational","SCE","SCE","L"," ","","","33kV to 92kV","Torrance","Los Angeles","90504","CA"," ","YES","",""
"SS0705","Anaverde"," ","Operational","SCE","SCE","L"," ","","","33kV to 92kV","Palmdale","Los Angeles","93551","CA"," ","YES","",""
"SS0706","Anita"," ","Operational","SCE","SCE","L"," ","","","33kV to 92kV","Arcadia","Los Angeles","91007","CA"," ","YES","",""
"SS0707","Antelope"," ","Operational","SCE","SCE","L"," ","","","345kV to 500kV","Lancaster","Los Angeles","93536","CA"," ","YES","YES","YES"
"SS0708","Appgen"," ","Operational","SCE","SCE","L"," ","","","33kV to 92kV","Newhall","Los Angeles","91321","CA"," ","YES","",""
"SS0708","Live Oak Cogen"," ","Operational","PG&E","PG&E","L"," ","","YES","110kV to 161kV","Bakersfield","Kern","93308","CA"," ","","",""
"SS0709","Arcadia"," ","Operational","SCE","SCE","L"," ","","","33kV to 92kV","Arcadia","Los Angeles","91006","CA"," ","YES","",""
"SS0710","Arcogen"," ","Operational","SCE","SCE","L"," ","","","220kV to 287kV","Carson","Los Angeles","90745","CA"," ","YES","YES",""
"SS0711","Arroyo"," ","Operational","SCE","SCE","L"," ","","","33kV to 92kV","La Canada Flintridge","Los Angeles","91011","CA"," ","YES","",""
"SS0712","Astro"," ","Operational","SCE","SCE","L"," ","","","33kV to 92kV","Long Beach","Los Angeles","90807","CA"," ","YES","",""
"SS0713","Belmont","ATRICH","Operational","SCE","SCE","L"," ","","","33kV to 92kV","Long Beach","Los Angeles","90804","CA"," ","YES","",""
"SS0714","Azusa"," ","Operational","SCE","SCE","L"," ","","","33kV to 92kV","Azusa","Los Angeles","91702","CA"," ","YES","",""
"SS0715","Bailey"," ","Operational","SCE","SCE","L"," ","","","220kV to 287kV","Lancaster","Los Angeles","93536","CA"," ","YES","YES",""
"SS0717","Bandini"," ","Operational","SCE","SCE","L"," ","","","33kV to 92kV","Bell","Los Angeles","90201","CA"," ","YES","",""
"SS0718","Industry"," ","Operational","SCE","SCE","L"," ","","","33kV to 92kV","La Puente","Los Angeles","91746","CA"," ","YES","",""
"SS0719","Beejay"," ","Operational","SCE","SCE","L"," ","","","33kV to 92kV","Los Angeles","Los Angeles","90058","CA"," ","YES","",""
"SS0720","Beverly"," ","Operational","SCE","SCE","L"," ","","","33kV to 92kV","Beverly Hills","Los Angeles","90210","CA"," ","YES","",""
"SS0721","Boost"," ","Operational","SCE","SCE","L"," ","","","33kV to 92kV","Long Beach","Los Angeles","90808","CA"," ","YES","",""
"SS0722","Bovine"," ","Operational","SCE","SCE","L"," ","","","33kV to 92kV","Cerritos","Los Angeles","90703","CA"," ","YES","",""
"SS0723","Bowl"," ","Operational","SCE","SCE","L"," ","","","33kV to 92kV","Long Beach","Los Angeles","90806","CA"," ","YES","",""
"SS0724","Bradbury"," ","Operational","SCE","SCE","L"," ","","","33kV to 92kV","Monrovia","Los Angeles","91016","CA"," ","YES","",""
"SS0725","Downey","BRASS","Operational","SCE","SCE","L"," ","","","33kV to 92kV","Downey","Los Angeles","90241","CA"," ","YES","",""
"SS0726","Brew"," ","Operational","SCE","SCE","L"," ","","","33kV to 92kV","Baldwin Park","Los Angeles","91706","CA"," ","YES","",""
"SS0727","Bridge"," ","Operational","SCE","SCE","L"," ","","","33kV to 92kV","Torrance","Los Angeles","90504","CA"," ","YES","",""
"SS0728","Artesia","BRIGEN","Operational","SCE","SCE","L"," ","","","33kV to 92kV","Artesia","Los Angeles","90701","CA"," ","YES","",""
"SS0729","Brighton"," ","Operational","SCE","SCE","L"," ","","","33kV to 92kV","Gardena","Los Angeles","90249","CA"," ","YES","",""
"SS0730","Broadway"," ","Operational","SCE","SCE","L"," ","","","33kV to 92kV","Long Beach","Los Angeles","90803","CA"," ","YES","",""
"SS0731","Bullis"," ","Operational","SCE","SCE","L"," ","","","33kV to 92kV","Compton","Los Angeles","90221","CA"," ","YES","",""
"SS0732","Calden"," ","Operational","SCE","SCE","L"," ","","","33kV to 92kV","Los Angeles","Los Angeles","90002","CA"," ","YES","",""
"SS0733","Cameron"," ","Operational","SCE","SCE","L"," ","","","220kV to 287kV","Long Beach","Los Angeles","90810","CA"," ","YES","YES",""
"SS0734","Carbogen"," ","Operational","SCE","SCE","L"," ","","","33kV to 92kV","Long Beach","Los Angeles","90813","CA"," ","YES","",""
"SS0735","Carmenita"," ","Operational","SCE","SCE","L"," ","","","33kV to 92kV","Santa Fe Springs","Los Angeles","90670","CA"," ","YES","",""
"SS0736","Carson"," ","Operational","SCE","SCE","L"," ","","","33kV to 92kV","Compton","Los Angeles","90220","CA"," ","YES","",""
"SS0737","Center"," ","Operational","SCE","SCE","L"," ","","","220kV to 287kV","Norwalk","Los Angeles","90650","CA"," ","YES","YES",""
"SS0738","Certified"," ","Operational","SCE","SCE","L"," ","","","33kV to 92kV","Long Beach","Los Angeles","90807","CA"," ","YES","",""
"SS0739","Dock","CHAMPLIN","Operational","SCE","SCE","L"," ","","","33kV to 92kV","Long Beach","Los Angeles","90802","CA"," ","YES","",""
"SS0740","Cherry"," ","Operational","SCE","SCE","L"," ","","","33kV to 92kV","Long Beach","Los Angeles","90813","CA"," ","YES","",""
"SS0741","Chevgen"," ","Operational","SCE","SCE","L"," ","","","33kV to 92kV","El Segundo","Los Angeles","90245","CA"," ","YES","",""
"SS0742","Citrus"," ","Operational","SCE","SCE","L"," ","","","33kV to 92kV","Glendora","Los Angeles","91740","CA"," ","YES","",""
"SS0743","Clark"," ","Operational","SCE","SCE","L"," ","","","33kV to 92kV","Long Beach","Los Angeles","90815","CA"," ","YES","",""
"SS0746","College"," ","Operational","SCE","SCE","L"," ","","","33kV to 92kV","Long Beach","Los Angeles","90840","CA"," ","YES","",""
"SS0747","Colorado"," ","Operational","SCE","SCE","L"," ","","","33kV to 92kV","Santa Monica","Los Angeles","90404","CA"," ","YES","",""
"SS0748","Commodore"," ","Operational","SCE","SCE","L"," ","","","33kV to 92kV","Long Beach","Los Angeles","90802","CA"," ","YES","",""
"SS0749","Ybarra","CONTAINER","Operational","Other","Other","L"," ","","","33kV to 92kV","Los Angeles","Los Angeles","90058","CA"," ","YES","",""
"SS0751","Corners"," ","Operational","SCE","SCE","L"," ","","","33kV to 92kV","Long Beach","Los Angeles","90805","CA"," ","YES","",""
"SS0752","Cornuta"," ","Operational","SCE","SCE","L"," ","","","33kV to 92kV","Bellflower","Los Angeles","90706","CA"," ","YES","",""
"SS0753","Cortez"," ","Operational","SCE","SCE","L"," ","","","33kV to 92kV","Covina","Los Angeles","91723","CA"," ","YES","",""
"SS0754","Cosmic"," ","Operational","SCE","SCE","L"," ","","","33kV to 92kV","Hawthorne","Los Angeles","90250","CA"," ","YES","",""
"SS0755","Crater"," ","Operational","SCE","SCE","L"," ","","","33kV to 92kV","Agoura Hills","Los Angeles","91301","CA"," ","YES","",""
"SS0756","Crest"," ","Operational","SCE","SCE","L"," ","","","33kV to 92kV","Rancho Palos Verdes","Los Angeles","90275","CA"," ","YES","",""
"SS0757","Cryco"," ","Operational","SCE","SCE","L"," ","","","33kV to 92kV","La Puente","Los Angeles","91746","CA"," ","YES","",""
"SS0758","Cudahy"," ","Operational","SCE","SCE","L"," ","","","33kV to 92kV","Bell","Los Angeles","90201","CA"," ","YES","",""
"SS0759","Culver"," ","Operational","SCE","SCE","L"," ","","","33kV to 92kV","Culver City","Los Angeles","90232","CA"," ","YES","",""
"SS0760","Dalton"," ","Operational","SCE","SCE","L"," ","","","33kV to 92kV","Baldwin Park","Los Angeles","91706","CA"," ","YES","",""
"SS0761","Del Amo"," ","Operational","SCE","SCE","L"," ","","","220kV to 287kV","Cerritos","Los Angeles","90703","CA"," ","YES","YES",""
"SS0762","Del Sur"," ","Operational","SCE","SCE","L"," ","","","33kV to 92kV","Lancaster","Los Angeles","93536","CA"," ","YES","",""
"SS0763","Diamond Bar"," ","Operational","SCE","SCE","L"," ","","","33kV to 92kV","Diamond Bar","Los Angeles","91765","CA"," ","YES","",""
"SS0764","Dike"," ","Operational","SCE","SCE","L"," ","","","33kV to 92kV","Long Beach","Los Angeles","90802","CA"," ","YES","",""
"SS0765","Ditmar"," ","Operational","SCE","SCE","L"," ","","","33kV to 92kV","Redondo Beach","Los Angeles","90278","CA"," ","YES","",""
"SS0766","Domhill"," ","Operational","SCE","SCE","L"," ","","","33kV to 92kV","Compton","Los Angeles","90220","CA"," ","YES","",""
"SS0767","Douglas"," ","Operational","SCE","SCE","L"," ","","","33kV to 92kV","El Segundo","Los Angeles","90245","CA"," ","YES","",""
"SS0768","Dougoil"," ","Operational","SCE","SCE","L"," ","","","33kV to 92kV","Paramount","Los Angeles","90723","CA"," ","YES","",""
"SS0769","Eagle Rock"," ","Operational","SCE","SCE","L"," ","","","220kV to 287kV","Glendale","Los Angeles","91206","CA"," ","","YES",""
"SS0770","Eaton"," ","Operational","SCE","SCE","L"," ","","","33kV to 92kV","Pasadena","Los Angeles","91107","CA"," ","YES","",""
"SS0771","El Nido"," ","Operational","SCE","SCE","L"," ","","","220kV to 287kV","Lawndale","Los Angeles","90260","CA"," ","YES","YES",""
"SS0772","Elizabeth Lake"," ","Operational","SCE","SCE","L"," ","","","33kV to 92kV","Castaic","Los Angeles","91384","CA"," ","YES","",""
"SS0773","Eric"," ","Operational","SCE","SCE","L"," ","","","33kV to 92kV","Cerritos","Los Angeles","90703","CA"," ","YES","",""
"SS0775","Federalgen"," ","Operational","SCE","SCE","L"," ","","","220kV to 287kV","Los Angeles","Los Angeles","90040","CA"," ","YES","YES",""
"SS0776","Felton"," ","Operational","SCE","SCE","L"," ","","","33kV to 92kV","Hawthorne","Los Angeles","90250","CA"," ","YES","",""
"SS0777","Fernwood"," ","Operational","SCE","SCE","L"," ","","","33kV to 92kV","Lynwood","Los Angeles","90262","CA"," ","YES","",""
"SS0779","Polypro","FLETCHER OIL","Operational","SCE","SCE","L"," ","","","33kV to 92kV","Carson","Los Angeles","90745","CA"," ","YES","",""
"SS0780","Mwd Foothill"," ","Operational","SCE","SCE","L"," ","","","33kV to 92kV","Castaic","Los Angeles","91384","CA"," ","YES","",""
"SS0781","Fruitland"," ","Operational","SCE","SCE","L"," ","","","33kV to 92kV","Los Angeles","Los Angeles","90058","CA"," ","YES","",""
"SS0782","Fuel"," ","Operational","SCE","SCE","L"," ","","","220kV to 287kV","Long Beach","Los Angeles","90802","CA"," ","YES","YES",""
"SS0783","Galaxy"," ","Operational","SCE","SCE","L"," ","","","33kV to 92kV","Manhattan Beach","Los Angeles","90266","CA"," ","YES","",""
"SS0784","Gallatin"," ","Operational","SCE","SCE","L"," ","","","33kV to 92kV","Downey","Los Angeles","90240","CA"," ","YES","",""
"SS0785","Pomona","GANESHA","Operational","SCE","SCE","L"," ","","","33kV to 92kV","Pomona","Los Angeles","91766","CA"," ","YES","",""
"SS0786","Ganesha","GARDEN STATE","Operational","SCE","SCE","L"," ","","","33kV to 92kV","Pomona","Los Angeles","91766","CA"," ","YES","",""
"SS0787","Garfield"," ","Operational","SCE","SCE","L"," ","","","33kV to 92kV","South Pasadena","Los Angeles","91030","CA"," ","YES","",""
"SS0788","Gatx"," ","Operational","SCE","SCE","L"," ","","","33kV to 92kV","Long Beach","Los Angeles","90810","CA"," ","YES","",""
"SS0789","Goodrich"," ","Operational","SCE","SCE","L"," ","","","220kV to 287kV","Pasadena","Los Angeles","91107","CA"," ","YES","YES",""
"SS0790","Gorman"," ","Operational","SCE","SCE","L"," ","","","33kV to 92kV","Lebec","Los Angeles","93243","CA"," ","YES","",""
"SS0791","Gould"," ","Operational","SCE","SCE","L"," ","","","220kV to 287kV","La Canada Flintridge","Los Angeles","91011","CA"," ","YES","YES",""
"SS0792","Ductile","GRANING","Operational","SCE","SCE","L"," ","","","33kV to 92kV","El Monte","Los Angeles","91731","CA"," ","YES","",""
"SS0793","Greening"," ","Operational","SCE","SCE","L"," ","","","33kV to 92kV","Cerritos","Los Angeles","90703","CA"," ","YES","",""
"SS0795","Harborgen"," ","Operational","SCE","SCE","L"," ","","","220kV to 287kV","Long Beach","Los Angeles","90813","CA"," ","YES","YES",""
"SS0796","Haskell"," ","Operational","SCE","SCE","L"," ","","","33kV to 92kV","Santa Clarita","Los Angeles","91350","CA"," ","YES","",""
"SS0797","Hathaway"," ","Operational","SCE","SCE","L"," ","","","33kV to 92kV","Long Beach","Los Angeles","90815","CA"," ","YES","",""
"SS0798","Helijet"," ","Operational","SCE","SCE","L"," ","","","33kV to 92kV","Palmdale","Los Angeles","93550","CA"," ","YES","",""
"SS0799","Hillgen"," ","Operational","SCE","SCE","L"," ","","","33kV to 92kV","Hacienda Heights","Los Angeles","91745","CA"," ","YES","",""
"SS0800","Hinson"," ","Operational","SCE","SCE","L"," ","","","220kV to 287kV","Long Beach","Los Angeles","90810","CA"," ","YES","YES",""
"SS0801","Howard"," ","Operational","SCE","SCE","L"," ","","","33kV to 92kV","Los Angeles","Los Angeles","90047","CA"," ","YES","",""
"SS0802","Hughesair"," ","Operational","SCE","SCE","L"," ","","","33kV to 92kV","El Segundo","Los Angeles","90245","CA"," ","YES","",""
"SS0803","Hughtron"," ","Operational","SCE","SCE","L"," ","","","33kV to 92kV","Torrance","Los Angeles","90505","CA"," ","YES","",""
"SS0804","Imperial"," ","Operational","SCE","SCE","L"," ","","","33kV to 92kV","Downey","Los Angeles","90242","CA"," ","YES","",""
"SS0805","N.N"," ","Operational","SCE","SCE","L"," ","","","33kV to 92kV","La Puente","Los Angeles","91744","CA"," ","YES","",""
"SS0806","Inglewood"," ","Operational","SCE","SCE","L"," ","","","33kV to 92kV","Inglewood","Los Angeles","90302","CA"," ","YES","",""
"SS0807","Injection"," ","Operational","SCE","SCE","L"," ","","","33kV to 92kV","Signal Hill","Los Angeles","90755","CA"," ","YES","",""
"SS0808","Jersey"," ","Operational","SCE","SCE","L"," ","","","33kV to 92kV","Compton","Los Angeles","90220","CA"," ","YES","",""
"SS0809","Jet"," ","Operational","SCE","SCE","L"," ","","","33kV to 92kV","Altadena","Los Angeles","91001","CA"," ","YES","",""
"SS0811","Jose"," ","Operational","SCE","SCE","L"," ","","","33kV to 92kV","La Puente","Los Angeles","91746","CA"," ","YES","",""
"SS0812","Kinetic"," ","Operational","SCE","SCE","L"," ","","","220kV to 287kV","Los Angeles","Los Angeles","90023","CA"," ","YES","YES",""
"SS0813","La Canada"," ","Operational","SCE","SCE","L"," ","","","33kV to 92kV","La Canada Flintridge","Los Angeles","91011","CA"," ","YES","",""
"SS0814","La Cienega"," ","Operational","SCE","SCE","L"," ","","","220kV to 287kV","Los Angeles","Los Angeles","90056","CA"," ","YES","YES",""
"SS0815","La Fresa"," ","Operational","SCE","SCE","L"," ","","","220kV to 287kV","Torrance","Los Angeles","90504","CA"," ","YES","YES",""
"SS0816","La Mirada"," ","Operational","SCE","SCE","L"," ","","","33kV to 92kV","La Mirada","Los Angeles","90638","CA"," ","YES","",""
"SS0817","Laguna Bell"," ","Operational","SCE","SCE","L"," ","","","220kV to 287kV","Los Angeles","Los Angeles","90040","CA"," ","YES","YES",""
"SS0818","Lakewood"," ","Operational","SCE","SCE","L"," ","","","33kV to 92kV","Long Beach","Los Angeles","90808","CA"," ","YES","",""
"SS0819","Lancaster"," ","Operational","SCE","SCE","L"," ","","","33kV to 92kV","Lancaster","Los Angeles","93534","CA"," ","YES","",""
"SS0820","Lanpri"," ","Operational","Other","Other","L"," ","","","33kV to 92kV","Lancaster","Los Angeles","93536","CA"," ","YES","",""
"SS0821","Lark Ellen"," ","Operational","SCE","SCE","L"," ","","","33kV to 92kV","Covina","Los Angeles","91722","CA"," ","YES","",""
"SS0822","Latigo"," ","Operational","SCE","SCE","L"," ","","","33kV to 92kV","Malibu","Los Angeles","90265","CA"," ","YES","",""
"SS0823","Layfair"," ","Operational","SCE","SCE","L"," ","","","33kV to 92kV","Pomona","Los Angeles","91768","CA"," ","YES","",""
"SS0824","Lennox"," ","Operational","SCE","SCE","L"," ","","","33kV to 92kV","Inglewood","Los Angeles","90304","CA"," ","YES","",""
"SS0825","Owill","","Operational","Other","Other","L"," ","","","33kV to 92kV","Los Angeles","Los Angeles","90058","CA"," ","YES","",""
"SS0826","Lighthipe"," ","Operational","SCE","SCE","L"," ","","","220kV to 287kV","Long Beach","Los Angeles","90805","CA"," ","YES","YES",""
"SS0827","Liquid"," ","Operational","SCE","SCE","L"," ","","","33kV to 92kV","Baldwin Park","Los Angeles","91706","CA"," ","YES","",""
"SS0828","Little Rock"," ","Operational","SCE","SCE","L"," ","","","33kV to 92kV","Palmdale","Los Angeles","93591","CA"," ","YES","",""
"SS0829","Live Oak"," ","Operational","SCE","SCE","L"," ","","","33kV to 92kV","Claremont","Los Angeles","91711","CA"," ","YES","",""
"SS0831","Los Cerritos"," ","Operational","SCE","SCE","L"," ","","","33kV to 92kV","Long Beach","Los Angeles","90806","CA"," ","YES","",""
"SS0832","Losulfur"," ","Operational","SCE","SCE","L"," ","","","33kV to 92kV","Los Angeles","Los Angeles","90045","CA"," ","YES","",""
"SS0833","Lucas"," ","Operational","SCE","SCE","L"," ","","","33kV to 92kV","Lakewood","Los Angeles","90713","CA"," ","YES","",""
"SS0834","Macneil"," ","Operational","SCE","SCE","L"," ","","","33kV to 92kV","Burbank","Los Angeles","91505","CA","Not listed on new sce map. dated jan 1999 deawing # 99_transall. dwg","YES","",""
"SS0835","Main Oil"," ","Operational","SCE","SCE","L"," ","","","33kV to 92kV","Long Beach","Los Angeles","90802","CA"," ","YES","",""
"SS0836","Malibu"," ","Operational","SCE","SCE","L"," ","","","33kV to 92kV","Agoura Hills","Los Angeles","91301","CA"," ","YES","",""
"SS0837","Marine"," ","Operational","SCE","SCE","L"," ","","","33kV to 92kV","Santa Monica","Los Angeles","90405","CA"," ","YES","",""
"SS0838","Marymount"," ","Operational","SCE","SCE","L"," ","","","33kV to 92kV","Rancho Palos Verdes","Los Angeles","90275","CA"," ","YES","",""
"SS0839","Rivera","MERCURY","Operational","SCE","SCE","L"," ","","","33kV to 92kV","Pico Rivera","Los Angeles","90660","CA"," ","YES","",""
"SS0840","Merced","MERGEN","Operational","SCE","SCE","L"," ","","","33kV to 92kV","West Covina","Los Angeles","91791","CA"," ","YES","",""
"SS0841","Mesa"," ","Operational","SCE","SCE","L"," ","","","220kV to 287kV","Monterey Park","Los Angeles","91755","CA"," ","YES","YES",""
"SS0842","Mobgen"," ","Operational","SCE","SCE","L"," ","","","33kV to 92kV","Torrance","Los Angeles","90503","CA"," ","YES","",""
"SS0843","Mobiloil"," ","Operational","SCE","SCE","L"," ","","","33kV to 92kV","Torrance","Los Angeles","90503","CA"," ","YES","",""
"SS0844","Murphy"," ","Operational","SCE","SCE","L"," ","","","33kV to 92kV","Whittier","Los Angeles","90602","CA"," ","YES","",""
"SS0846","Narrows"," ","Operational","SCE","SCE","L"," ","","","33kV to 92kV","Pico Rivera","Los Angeles","90660","CA"," ","YES","",""
"SS0847","Navy Mole"," ","Operational","SCE","SCE","L"," ","","","33kV to 92kV","Long Beach","Los Angeles","90802","CA"," ","YES","",""
"SS0848","Navy-1"," ","Operational","SCE","SCE","L"," ","","","33kV to 92kV","Long Beach","Los Angeles","90802","CA"," ","YES","",""
"SS0849","Neenach"," ","Operational","SCE","SCE","L"," ","","","33kV to 92kV","Lancaster","Los Angeles","93536","CA"," ","YES","",""
"SS0850","Neptune"," ","Operational","SCE","SCE","L"," ","","","33kV to 92kV","Carson","Los Angeles","90745","CA"," ","YES","",""
"SS0851","Newmark"," ","Operational","SCE","SCE","L"," ","","","33kV to 92kV","Monterey Park","Los Angeles","91754","CA"," ","YES","",""
"SS0852","Newhall"," ","Operational","SCE","SCE","L"," ","","","33kV to 92kV","Valencia","Los Angeles","91355","CA"," ","YES","",""
"SS0853","Nogales"," ","Operational","SCE","SCE","L"," ","","","33kV to 92kV","Walnut","Los Angeles","91789","CA"," ","YES","",""
"SS0854","Nola"," ","Operational","SCE","SCE","L"," ","","","33kV to 92kV","Gardena","Los Angeles","90248","CA"," ","YES","",""
"SS0855","North Oaks"," ","Operational","SCE","SCE","L"," ","","","33kV to 92kV","Canyon Country","Los Angeles","91387","CA"," ","YES","",""
"SS0856","Oasis"," ","Operational","SCE","SCE","L"," ","","","33kV to 92kV","Palmdale","Los Angeles","93550","CA"," ","YES","",""
"SS0857","Olinda"," ","Operational","SCE","SCE","L"," ","","","220kV to 287kV","Rowland Heights","Los Angeles","91748","CA"," ","YES","YES",""
"SS0858","Oso"," ","Operational","SCE","SCE","L"," ","","","33kV to 92kV","Lancaster","Los Angeles","93536","CA"," ","YES","",""
"SS0859","Owill"," ","Operational","SCE","SCE","L"," ","","","33kV to 92kV","Los Angeles","Los Angeles","90012","CA","Unsured the actual location","YES","",""
"SS0860","Package"," ","Operational","SCE","SCE","L"," ","","","33kV to 92kV","La Puente","Los Angeles","91746","CA"," ","YES","",""
"SS0861","Pacline"," ","Operational","SCE","SCE","L"," ","","","33kV to 92kV","Long Beach","Los Angeles","90810","CA"," ","YES","",""
"SS0862","Palmdale"," ","Operational","SCE","SCE","L"," ","","","33kV to 92kV","Palmdale","Los Angeles","93550","CA"," ","YES","",""
"SS0863","Palogen"," ","Operational","SCE","SCE","L"," ","","","33kV to 92kV","Palos Verdes Peninsula","Los Angeles","90274","CA"," ","YES","",""
"SS0863","Castaic"," ","Operational","LADWP","LADWP","L"," ","","","220kV to 287kV","Castaic","Los Angeles","91384","CA"," ","","YES",""
"SS0864","Pardee"," ","Operational","SCE","SCE","L"," ","","","345kV to 500kV","Valencia","Los Angeles","91355","CA"," ","YES","YES","YES"
"SS0865","Passons"," ","Operational","SCE","SCE","L"," ","","","33kV to 92kV","Santa Fe Springs","Los Angeles","90670","CA"," ","YES","",""
"SS0866","Pearblossom"," ","Operational","SCE","SCE","L"," ","","","220kV to 287kV","Littlerock","Los Angeles","93543","CA"," ","","YES",""
"SS0867","Pico"," ","Operational","SCE","SCE","L"," ","","","33kV to 92kV","Long Beach","Los Angeles","90802","CA"," ","YES","",""
"SS0868","Pioneer"," ","Operational","SCE","SCE","L"," ","","","33kV to 92kV","Norwalk","Los Angeles","90650","CA"," ","YES","",""
"SS0869","Pitchgen"," ","Operational","SCE","SCE","L"," ","","","33kV to 92kV","Castaic","Los Angeles","91384","CA"," ","YES","",""
"SS0870","Piute"," ","Operational","SCE","SCE","L"," ","","","33kV to 92kV","Lancaster","Los Angeles","93535","CA"," ","YES","",""
"SS0871","Polaris"," ","Operational","SCE","SCE","L"," ","","","33kV to 92kV","El Segundo","Los Angeles","90245","CA"," ","YES","",""
"SS0872","Tidelands","POLB","Operational","SCE","SCE","L"," ","","","33kV to 92kV","Long Beach","Los Angeles","90802","CA"," ","YES","",""
"SS0873","Powerine"," ","Operational","SCE","SCE","L"," ","","","33kV to 92kV","Santa Fe Springs","Los Angeles","90670","CA"," ","YES","",""
"SS0874","Procal"," ","Operational","SCE","SCE","L"," ","","","33kV to 92kV","Santa Fe Springs","Los Angeles","90670","CA"," ","YES","",""
"SS0875","Proctor"," ","Operational","SCE","SCE","L"," ","","","33kV to 92kV","Hacienda Heights","Los Angeles","91745","CA"," ","YES","",""
"SS0876","Puente"," ","Operational","SCE","SCE","L"," ","","","33kV to 92kV","Rowland Heights","Los Angeles","91748","CA"," ","YES","",""
"SS0877","Leonis","PULPGEN ","Operational","Other","Other","L"," ","","","33kV to 92kV","Los Angeles","Los Angeles","90058","CA"," ","YES","",""
"SS0878","Quartz Hill"," ","Operational","SCE","SCE","L"," ","","","33kV to 92kV","Lancaster","Los Angeles","93536","CA"," ","YES","",""
"SS0879","Railroad"," ","Operational","SCE","SCE","L"," ","","","33kV to 92kV","Rowland Heights","Los Angeles","91748","CA"," ","YES","",""
"SS0880","Ramona"," ","Operational","SCE","SCE","L"," ","","","33kV to 92kV","Alhambra","Los Angeles","91803","CA"," ","YES","",""
"SS0881","Randolph"," ","Operational","SCE","SCE","L"," ","","","33kV to 92kV","Huntington Park","Los Angeles","90255","CA"," ","YES","",""
"SS0882","Ravendale"," ","Operational","SCE","SCE","L"," ","","","33kV to 92kV","San Gabriel","Los Angeles","91775","CA"," ","YES","",""
"SS0883","Redman"," ","Operational","SCE","SCE","L"," ","","","33kV to 92kV","Lancaster","Los Angeles","93535","CA"," ","YES","",""
"SS0884","Refinery"," ","Operational","SCE","SCE","L"," ","","","33kV to 92kV","Carson","Los Angeles","90745","CA"," ","YES","",""
"SS0885","Refuse"," ","Operational","SCE","SCE","L"," ","","","33kV to 92kV","Los Angeles","Los Angeles","90040","CA"," ","YES","",""
"SS0886","Reno"," ","Operational","SCE","SCE","L"," ","","","33kV to 92kV","Whittier","Los Angeles","90601","CA"," ","YES","",""
"SS0887","Repetto"," ","Operational","SCE","SCE","L"," ","","","33kV to 92kV","Monterey Park","Los Angeles","91754","CA"," ","YES","",""
"SS0888","Repro"," ","Operational","SCE","SCE","L"," ","","","220kV to 287kV","El Segundo","Los Angeles","90245","CA"," ","YES","YES",""
"SS0890","Revital"," ","Operational","SCE","SCE","L"," ","","","33kV to 92kV","Long Beach","Los Angeles","90805","CA"," ","YES","",""
"SS0891","Rio Hondo"," ","Operational","SCE","SCE","L"," ","","","220kV to 287kV","Baldwin Park","Los Angeles","91706","CA"," ","YES","YES",""
"SS0892","Rockair"," ","Operational","SCE","SCE","L"," ","","","33kV to 92kV","Palmdale","Los Angeles","93550","CA"," ","YES","",""
"SS0893","Rolling Hills"," ","Operational","SCE","SCE","L"," ","","","33kV to 92kV","Torrance","Los Angeles","90505","CA"," ","YES","",""
"SS0894","Rosecrans"," ","Operational","SCE","SCE","L"," ","","","220kV to 287kV","El Segundo","Los Angeles","90245","CA"," ","YES","YES",""
"SS0895","Rosemead"," ","Operational","SCE","SCE","L"," ","YES","","33kV to 92kV","Rosemead","Los Angeles","91770","CA"," ","YES","",""
"SS0896","Rush"," ","Operational","SCE","SCE","L"," ","","","33kV to 92kV","Rosemead","Los Angeles","91770","CA"," ","YES","",""
"SS0897","San Dimas"," ","Operational","SCE","SCE","L"," ","","","33kV to 92kV","San Dimas","Los Angeles","91773","CA"," ","YES","",""
"SS0899","San Gabriel"," ","Operational","SCE","SCE","L"," ","","","33kV to 92kV","San Gabriel","Los Angeles","91776","CA"," ","YES","",""
"SS0900","Sanitreat"," ","Operational","SCE","SCE","L"," ","","","33kV to 92kV","Harbor City","Los Angeles","90710","CA"," ","YES","",""
"SS0901","Santa Fe Springs"," ","Operational","SCE","SCE","L"," ","","","33kV to 92kV","Santa Fe Springs","Los Angeles","90670","CA"," ","YES","",""
"SS0902","Santa Monica"," ","Operational","SCE","SCE","L"," ","","","33kV to 92kV","Santa Monica","Los Angeles","90401","CA"," ","YES","",""
"SS0903","Saugus"," ","Operational","SCE","SCE","L"," ","","","220kV to 287kV","Valencia","Los Angeles","91355","CA"," ","YES","YES",""
"SS0904","Sawtelle"," ","Operational","SCE","SCE","L"," ","","","33kV to 92kV","Los Angeles","Los Angeles","90025","CA"," ","YES","",""
"SS0905","Seabright"," ","Operational","SCE","SCE","L"," ","","","33kV to 92kV","Long Beach","Los Angeles","90802","CA"," ","YES","",""
"SS0906","Sepulveda"," ","Operational","SCE","SCE","L"," ","","","33kV to 92kV","El Segundo","Los Angeles","90245","CA"," ","YES","",""
"SS0907","Serfgen"," ","Operational","SCE","SCE","L"," ","","","33kV to 92kV","Long Beach","Los Angeles","90802","CA"," ","YES","",""
"SS0908","Shellwatt"," ","Operational","SCE","SCE","L"," ","","","33kV to 92kV","Carson","Los Angeles","90745","CA"," ","YES","",""
"SS0909","Shuttle"," ","Operational","SCE","SCE","L"," ","","","33kV to 92kV","Palmdale","Los Angeles","93551","CA"," ","YES","",""
"SS0910","Signal Hill"," ","Operational","SCE","SCE","L"," ","","","33kV to 92kV","Signal Hill","Los Angeles","90755","CA"," ","YES","",""
"SS0911","Simpson"," ","Operational","SCE","SCE","L"," ","","","33kV to 92kV","Pomona","Los Angeles","91768","CA"," ","YES","",""
"SS0912","Solemint"," ","Operational","SCE","SCE","L"," ","","","33kV to 92kV","Canyon Country","Los Angeles","91351","CA"," ","YES","",""
"SS0913","Somerset"," ","Operational","SCE","SCE","L"," ","","","33kV to 92kV","Bellflower","Los Angeles","90706","CA"," ","YES","",""
"SS0914","Sopipe","","Operational","SCE","SCE","L"," ","","","33kV to 92kV","Walnut","Los Angeles","91789","CA"," ","YES","",""
"SS0915","San Dimas Power"," ","Operational","SCE","SCE","L"," ","","","33kV to 92kV","San Dimas","Los Angeles","91773","CA"," ","YES","",""
"SS0916","Space"," ","Operational","SCE","SCE","L"," ","","","33kV to 92kV","Redondo Beach","Los Angeles","90278","CA"," ","YES","",""
"SS0917","Sponge"," ","Operational","SCE","SCE","L"," ","","","33kV to 92kV","Pico Rivera","Los Angeles","90660","CA"," ","YES","",""
"SS0918","La Brea"," ","Operational","LADWP","LADWP","L"," ","","YES","110kV to 161kV","Los Angeles","Los Angeles","90056","CA"," ","","",""
"SS0919","State St."," ","Operational","SCE","SCE","L"," ","","","33kV to 92kV","Long Beach","Los Angeles","90806","CA"," ","YES","",""
"SS0920","Stewart"," ","Operational","SCE","SCE","L"," ","","","33kV to 92kV","Downey","Los Angeles","90241","CA"," ","YES","",""
"SS0921","Oldfield"," ","Operational","SCE","SCE","L"," ","","","33kV to 92kV","Long Beach","Los Angeles","90807","CA","Stress","YES","",""
"SS0922","Studio"," ","Operational","SCE","SCE","L"," ","","","33kV to 92kV","Universal City","Los Angeles","91608","CA"," ","YES","",""
"SS0923","Sunnyside"," ","Operational","SCE","SCE","L"," ","","","33kV to 92kV","Lakewood","Los Angeles","90712","CA"," ","YES","",""
"SS0924","Tahiti"," ","Operational","SCE","SCE","L"," ","","","220kV to 287kV","Marina Del Rey","Los Angeles","90292","CA"," ","YES","YES",""
"SS0925","Rindge"," ","Operational","SCE","SCE","L"," ","","","33kV to 92kV","Malibu","Los Angeles","90265","CA"," ","YES","",""
"SS0926","Telegraph"," ","Operational","SCE","SCE","L"," ","","","33kV to 92kV","Whittier","Los Angeles","90604","CA"," ","YES","",""
"SS0927","Tengen"," ","Operational","SCE","SCE","L"," ","","","33kV to 92kV","Newhall","Los Angeles","91321","CA"," ","YES","",""
"SS0929","Thermal"," ","Operational","SCE","SCE","L"," ","","","33kV to 92kV","El Segundo","Los Angeles","90245","CA"," ","YES","",""
"SS0930","Thums A"," ","Operational","SCE","SCE","L"," ","","","33kV to 92kV","Long Beach","Los Angeles  ","90802","CA"," ","YES","",""
"SS0931","Thums B"," ","Operational","SCE","SCE","L"," ","","","33kV to 92kV","Long Beach ","Los Angeles  ","90803","CA"," ","YES","",""
"SS0932","Thums C"," ","Operational","SCE","SCE","L"," ","","","33kV to 92kV","Long Beach","Los Angeles ","90803","CA"," ","YES","",""
"SS0933","Thums D"," ","Operational","SCE","SCE","L"," ","","","33kV to 92kV","Long Beach","Los Angeles  ","90803","CA"," ","YES","",""
"SS0934","Topaz"," ","Operational","SCE","SCE","L"," ","","","33kV to 92kV","Redondo Beach","Los Angeles","90277","CA"," ","YES","",""
"SS0935","Torrance"," ","Operational","SCE","SCE","L"," ","","","33kV to 92kV","Torrance","Los Angeles","90503","CA"," ","YES","",""
"SS0936","Tortoise"," ","Operational","SCE","SCE","L"," ","","","33kV to 92kV","Palmdale","Los Angeles","93550","CA"," ","YES","",""
"SS0937","Toyota"," ","Operational","SCE","SCE","L"," ","","","33kV to 92kV","Long Beach","Los Angeles","90805","CA"," ","YES","",""
"SS0938","Trisonic"," ","Operational","SCE","SCE","L"," ","","","33kV to 92kV","El Segundo","Los Angeles","90245","CA"," ","YES","",""
"SS0939","Trophy"," ","Operational","SCE","SCE","L"," ","","","33kV to 92kV","Walnut","Los Angeles","91789","CA"," ","YES","",""
"SS0940","Linden","TURBO","Operational","SCE","SCE","L"," ","","","33kV to 92kV","Long Beach","Los Angeles","90805","CA"," ","YES","",""
"SS0942","Universal"," ","Operational","SCE","SCE","L"," ","","","33kV to 92kV","Universal City","Los Angeles","91608","CA"," ","YES","",""
"SS0943","Vail"," ","Operational","SCE","SCE","L"," ","","","33kV to 92kV","Los Angeles","Los Angeles","90040","CA"," ","YES","",""
"SS0944","Valdez"," ","Operational","SCE","SCE","L"," ","","","33kV to 92kV","Calabasas","Los Angeles","91302","CA"," ","YES","",""
"SS0945","Venice Hydro"," ","Operational","SCE","SCE","L"," ","","","220kV to 287kV","Los Angeles","Los Angeles","90066","CA"," ","YES","YES",""
"SS0946","Vernon"," ","Operational","Other","Other","L"," ","","","33kV to 92kV","Los Angeles","Los Angeles","90058","CA"," ","YES","",""
"SS0947","Victoria"," ","Operational","SCE","SCE","L"," ","","","33kV to 92kV","Redondo Beach","Los Angeles","90278","CA"," ","YES","",""
"SS0948","Air Products"," ","Operational","SCE","SCE","L"," ","","","33kV to 92kV","Long Beach","Los Angeles","90810","CA"," ","YES","",""
"SS0949","Vincent"," ","Operational","SCE","SCE","L"," ","","","345kV to 500kV","Palmdale","Los Angeles","93550","CA"," ","","YES","YES"
"SS0950","Wabash"," ","Operational","SCE","SCE","L"," ","","","33kV to 92kV","Los Angeles","Los Angeles","90063","CA"," ","YES","",""
"SS0952","Walteria"," ","Operational","SCE","SCE","L"," ","","","33kV to 92kV","Lomita","Los Angeles","90717","CA"," ","YES","",""
"SS0953","Warne"," ","Operational","SCE","SCE","L"," ","","","220kV to 287kV","Lebec","Los Angeles","93243","CA"," ","","YES",""
"SS0954","Watson"," ","Operational","SCE","SCE","L"," ","","","33kV to 92kV","Carson","Los Angeles","90745","CA"," ","YES","",""
"SS0955","Webco"," ","Operational","SCE","SCE","L"," ","","","33kV to 92kV","Paramount","Los Angeles","90723","CA"," ","YES","",""
"SS0956","Westex"," ","Operational","SCE","SCE","L"," ","","","33kV to 92kV","Signal Hill","Los Angeles","90755","CA"," ","YES","",""
"SS0957","Westhill"," ","Operational","SCE","SCE","L"," ","","","33kV to 92kV","El Segundo","Los Angeles","90245","CA"," ","YES","",""
"SS0958","Nietos","WILSHIRE","Operational","SCE","SCE","L"," ","","","33kV to 92kV","Santa Fe Springs","Los Angeles","90670","CA"," ","YES","",""
"SS0959","Wilsona"," ","Operational","SCE","SCE","L"," ","","","33kV to 92kV","Palmdale","Los Angeles","93591","CA"," ","YES","",""
"SS0960","Windsor Hills"," ","Operational","SCE","SCE","L"," ","","YES","220kV to 287kV","Los Angeles","Los Angeles","90056","CA"," ","","YES",""
"SS0961","Yukon"," ","Operational","SCE","SCE","L"," ","","","33kV to 92kV","Hawthorne","Los Angeles","90250","CA"," ","YES","",""
"SS0962","Glass"," ","Operational","Other","Other","M"," ","","","33kV to 92kV","Madera","Madera","93637","CA"," ","YES","",""
"SS0964","Bonita"," ","Operational","PG&E","PG&E","M"," ","","","33kV to 92kV","Madera","Madera","93637","CA"," ","YES","",""
"SS0965","Borden"," ","Operational","PG&E","PG&E","M"," ","","","33kV to 92kV","Madera","Madera","93636","CA"," ","YES","",""
"SS0967","Sjve Madera"," ","Operational","Other","Other","M"," ","","YES","110kV to 161kV","Firebaugh","Madera","93622","CA"," ","","",""
"SS0968","Capco","CAPCO CHOWCHILLA II","Operational","PG&E","PG&E","M"," ","","YES","110kV to 161kV","Chowchilla","Madera","93610","CA"," ","","",""
"SS0969","Cassidy"," ","Operational","PG&E","PG&E","M"," ","","","33kV to 92kV","Madera","Madera","93636","CA"," ","YES","",""
"SS0970","Certainteed"," ","Operational","Other","Other","M"," ","","YES","110kV to 161kV","Chowchilla","Madera","93610","CA"," ","","",""
"SS0971","Chowchilla"," ","Operational","PG&E","PG&E","M"," ","","YES","110kV to 161kV","Chowchilla","Madera","93610","CA"," ","","",""
"SS0972","Coarsegold"," ","Operational","PG&E","PG&E","M"," ","","YES","110kV to 161kV","Coarsegold","Madera","93614","CA"," ","","",""
"SS0974","Dairyland"," ","Operational","PG&E","PG&E","M"," ","","YES","110kV to 161kV","Chowchilla","Madera","93610","CA"," ","","",""
"SS0975","El Peco"," ","Operational","PG&E","PG&E","M"," ","","","33kV to 92kV","Madera","Madera","93637","CA"," ","YES","",""
"SS0976","Gregg"," ","Operational","PG&E","PG&E","M"," ","","","220kV to 287kV","Madera","Madera","93636","CA"," ","","YES",""
"SS0977","Madera"," ","Operational","Other","Other","M"," ","","","33kV to 92kV","Madera","Madera","93637","CA"," ","YES","",""
"SS0978","Newhall"," ","Operational","PG&E","PG&E","M"," ","","YES","110kV to 161kV","Firebaugh","Madera","93622","CA"," ","","",""
"SS0979","Oakhurst"," ","Operational","PG&E","PG&E","M"," ","","YES","110kV to 161kV","Oakhurst","Madera","93644","CA"," ","","",""
"SS0983","Sharon"," ","Operational","PG&E","PG&E","M"," ","","YES","110kV to 161kV","Chowchilla","Madera","93610","CA"," ","","",""
"SS0984","Storey"," ","Operational","PG&E","PG&E","M"," ","","","220kV to 287kV","Madera","Madera","93638","CA"," ","","YES",""
"SS0986","Norby Lumber Co Inc.","YANCY","Operational","Other","Other","M"," ","","","33kV to 92kV","Madera","Madera","93636","CA"," ","YES","",""
"SS0987","Yanke (North Fork)"," ","Operational","Other","Other","M"," ","","","33kV to 92kV","North Fork","Madera","93643","CA"," ","YES","",""
"SS0990","Hamilton Wetlands"," ","Operational","PG&E","PG&E","M"," ","","YES","110kV to 161kV","Novato","Marin","94949","CA"," ","","",""
"SS0991","Alto"," ","Operational","PG&E","PG&E","M"," ","","YES","110kV to 161kV","Mill Valley","Marin","94941","CA"," ","YES","",""
"SS0992","Bolinas"," ","Operational","PG&E","PG&E","M"," ","","","33kV to 92kV","Bolinas","Marin","94924","CA"," ","YES","",""
"SS0993","Greenbrae"," ","Operational","PG&E","PG&E","M"," ","","","33kV to 92kV","Greenbrae","Marin","94904","CA"," ","YES","",""
"SS0994","Ignacio"," ","Operational","PG&E","PG&E","M"," ","","YES","220kV to 287kV","Novato","Marin","94945","CA"," ","YES","YES",""
"SS0995","Las Gallinas"," ","Operational","PG&E","PG&E","M"," ","","YES","110kV to 161kV","San Rafael","Marin","94903","CA"," ","","",""
"SS0996","Novato"," ","Operational","PG&E","PG&E","M"," ","","","33kV to 92kV","Novato","Marin","94945","CA"," ","YES","",""
"SS0997","Olema"," ","Operational","PG&E","PG&E","M"," ","","","33kV to 92kV","Nicasio","Marin","94946","CA"," ","YES","",""
"SS0998","San Rafael"," ","Operational","PG&E","PG&E","M"," ","","YES","110kV to 161kV","San Rafael","Marin","94901","CA"," ","YES","",""
"SS0999","Sausalito"," ","Operational","PG&E","PG&E","M"," ","","YES","110kV to 161kV","Sausalito","Marin","94965","CA"," ","","",""
"SS1000","Stafford"," ","Operational","PG&E","PG&E","M"," ","","","33kV to 92kV","Novato","Marin","94945","CA"," ","YES","",""
"SS1001","Tocaloma"," ","Operational","PG&E","PG&E","M"," ","","","33kV to 92kV","Nicasio","Marin","94946","CA"," ","YES","",""
"SS1002","Woodacre"," ","Operational","PG&E","PG&E","M"," ","","","33kV to 92kV","Woodacre","Marin","94973","CA"," ","YES","",""
"SS1004","Bear Valley"," ","Operational","PG&E","PG&E","M"," ","","","33kV to 92kV","Mariposa","Mariposa","95338","CA"," ","YES","",""
"SS1006","Indian Flat"," ","Operational","PG&E","PG&E","M"," ","","","33kV to 92kV","El Portal","Mariposa","95318","CA"," ","YES","",""
"SS1009","Big River"," ","Operational","PG&E","PG&E","U"," ","","","33kV to 92kV","Mendocino","Mendocino","95460","CA"," ","YES","",""
"SS1010","Calpella"," ","Operational","PG&E","PG&E","U"," ","","YES","110kV to 161kV","Ukiah","Mendocino","95482","CA"," ","","",""
"SS1011","Covelo"," ","Operational","PG&E","PG&E","U"," ","","","33kV to 92kV","Covelo","Mendocino","95428","CA"," ","YES","",""
"SS1012","Elk"," ","Operational","PG&E","PG&E","U"," ","","","33kV to 92kV","Elk","Mendocino","95432","CA"," ","YES","",""
"SS1013","Fort Bragg"," ","Operational","PG&E","PG&E","U"," ","","","33kV to 92kV","Fort Bragg","Mendocino","95437","CA"," ","YES","",""
"SS1014","Garcia"," ","Operational","PG&E","PG&E","M"," ","","","33kV to 92kV","Point Arena","Mendocino","95468","CA"," ","YES","",""
"SS1015","Gualala"," ","Operational","PG&E","PG&E","M"," ","","","33kV to 92kV","Gualala","Mendocino","95445","CA"," ","YES","",""
"SS1016","Hopland"," ","Operational","PG&E","PG&E","M"," ","","","33kV to 92kV","Hopland","Mendocino","95449","CA"," ","YES","",""
"SS1017","Laytonville"," ","Operational","PG&E","PG&E","U"," ","","","33kV to 92kV","Laytonville","Mendocino","95454","CA"," ","YES","",""
"SS1018","Masonite"," ","Operational","Other","Other","U"," ","","","33kV to 92kV","Ukiah","Mendocino","95482","CA"," ","YES","",""
"SS1019","Mendocino"," ","Operational","PG&E","PG&E","U"," ","","YES","110kV to 161kV","Redwood Valley","Mendocino","95470","CA"," ","YES","",""
"SS1020","Philo"," ","Operational","PG&E","PG&E","M"," ","","","33kV to 92kV","Philo","Mendocino","95466","CA"," ","YES","",""
"SS1022","Point Arena"," ","Operational","PG&E","PG&E","M"," ","","","33kV to 92kV","Point Arena","Mendocino","95468","CA"," ","YES","",""
"SS1023","Ukiah"," ","Operational","PG&E","PG&E","U"," ","","YES","110kV to 161kV","Ukiah","Mendocino","95482","CA"," ","","",""
"SS1025","Arburua"," ","Operational","Other","Other","M"," ","","","33kV to 92kV","Los Banos","Merced","93635","CA"," ","YES","",""
"SS1026","Gallo"," ","Operational","PG&E","PG&E","M"," ","","YES","110kV to 161kV","Livingston","Merced","95334","CA"," ","","",""
"SS1027","Ge3"," ","Operational","Other","Other","M"," ","","","220kV to 287kV","Los Banos","Merced","93635","CA"," ","","YES",""
"SS1028","Mercy Springs"," ","Operational","PG&E","PG&E","M"," ","","","33kV to 92kV","Los Banos","Merced","93635","CA"," ","YES","",""
"SS1030","Castle"," ","Operational","Other","Other","M"," ","","YES","110kV to 161kV","Atwater","Merced","95301","CA"," ","","",""
"SS1031","Atwater"," ","Operational","PG&E","PG&E","M"," ","","YES","110kV to 161kV","Atwater","Merced","95301","CA"," ","","",""
"SS1032","Canal"," ","Operational","PG&E","PG&E","M"," ","","","33kV to 92kV","Los Banos","Merced","93635","CA"," ","YES","",""
"SS1033","Sjve El Nido"," ","Operational","Other","Other","M"," ","","","33kV to 92kV","Merced","Merced","95341","CA"," ","YES","",""
"SS1034","Cressey"," ","Operational","PG&E","PG&E","M"," ","","YES","110kV to 161kV","Winton","Merced","95388","CA"," ","","",""
"SS1035","International Turbine Research"," ","Operational","PG&E","PG&E","M"," ","","YES","110kV to 161kV","Los Banos","Merced","93635","CA"," ","","",""
"SS1036","Dos Amigos"," ","Operational","Other","Other","M"," ","","","220kV to 287kV","Los Banos","Merced","93635","CA"," ","","YES",""
"SS1037","Dos Palos"," ","Operational","PG&E","PG&E","M"," ","","","33kV to 92kV","Dos Palos","Merced","93620","CA"," ","YES","",""
"SS1038","El Capitan"," ","Operational","PG&E","PG&E","M"," ","","YES","110kV to 161kV","Merced","Merced","95348","CA"," ","","",""
"SS1039","El Nido"," ","Operational","PG&E","PG&E","M"," ","","YES","110kV to 161kV","El Nido","Merced","95317","CA"," ","YES","",""
"SS1040","Gustine"," ","Operational","PG&E","PG&E","M"," ","","","33kV to 92kV","Gustine","Merced","95322","CA"," ","YES","",""
"SS1041","Le Grand"," ","Operational","PG&E","PG&E","M"," ","","YES","110kV to 161kV","Le Grand","Merced","95333","CA"," ","","",""
"SS1042","Livingston"," ","Operational","PG&E","PG&E","M"," ","","YES","110kV to 161kV","Livingston","Merced","95334","CA"," ","YES","",""
"SS1043","Merced"," ","Operational","PG&E","PG&E","M"," ","","YES","110kV to 161kV","Merced","Merced","95341","CA"," ","YES","",""
"SS1044","Merced Falls"," ","Operational","PG&E","PG&E","M"," ","","","33kV to 92kV","Snelling","Merced","95369","CA"," ","YES","",""
"SS1045","Ortiga"," ","Operational","PG&E","PG&E","M"," ","","","33kV to 92kV","Los Banos","Merced","93635","CA"," ","YES","",""
"SS1046","Pioneer"," ","Operational","Other","Other","M"," ","","YES","110kV to 161kV","Livingston","Merced","95334","CA"," ","","",""
"SS1047","Santa Nella"," ","Operational","PG&E","PG&E","M"," ","","","33kV to 92kV","Los Banos","Merced","93635","CA"," ","YES","",""
"SS1048","Santa Rita"," ","Operational","PG&E","PG&E","M"," ","","","33kV to 92kV","Dos Palos","Merced","93620","CA"," ","YES","",""
"SS1049","Wilson"," ","Operational","PG&E","PG&E","M"," ","","YES","220kV to 287kV","Merced","Merced","95340","CA"," ","YES","YES",""
"SS1050","Los Banos"," ","Operational","PG&E","PG&E","M","LBS","","YES","345kV to 500kV","Los Banos","Merced","93635","CA"," ","YES","YES","YES"
"SS1053","Clear Lake"," ","Operational","PCORP","PCORP","U"," ","","","33kV to 92kV","Davis Creek","Modoc","96108","CA"," ","YES","",""
"SS1054","Warner"," ","Operational","Other","Other","U"," ","","","220kV to 287kV","Alturas","Modoc","96101","CA"," ","YES","YES",""
"SS1055","Adin"," ","Operational","Other","Other","U"," ","","","33kV to 92kV","Lookout","Modoc","96054","CA"," ","YES","",""
"SS1056","Cedarville"," ","Operational","Other","Other","U"," ","","","33kV to 92kV","Cedarville","Modoc","96104","CA"," ","YES","",""
"SS1057","Davis Creek"," ","Operational","Other","Other","U"," ","","","33kV to 92kV","Davis Creek","Modoc","96108","CA"," ","YES","",""
"SS1058","Eagleville"," ","Operational","Other","Other","U"," ","","","33kV to 92kV","Cedarville","Modoc","96104","CA"," ","YES","",""
"SS1059","Ft. Bidwell"," ","Operational","Other","Other","U"," ","","","33kV to 92kV","Fort Bidwell","Modoc","96112","CA"," ","YES","",""
"SS1060","Likely"," ","Operational","Other","Other","U"," ","","","33kV to 92kV","Alturas","Modoc","96101","CA"," ","YES","",""
"SS1061","Lookout"," ","Operational","Other","Other","U"," ","","","33kV to 92kV","Lookout","Modoc","96054","CA"," ","YES","",""
"SS1062","Alturas"," ","Operational","PCORP","PCORP","U"," ","","YES","110kV to 161kV","Alturas","Modoc","96101","CA"," ","","",""
"SS1063","Canby 2","CANBY 2","Operational","Other","Other","U"," ","","","33kV to 92kV","Canby","Modoc","96015","CA"," ","YES","",""
"SS1064","Goose Lake"," ","Operational","Other","Other","U"," ","","","33kV to 92kV","Alturas","Modoc","96101","CA"," ","YES","",""
"SS1065","Newell"," ","Operational","PCORP","PCORP","U"," ","","","33kV to 92kV","Tulelake","Modoc","96134","CA"," ","YES","",""
"SS1066","Perez"," ","Operational","PCORP","PCORP","U"," ","","","33kV to 92kV","Canby","Modoc","96015","CA"," ","YES","",""
"SS1067","Tulelake"," ","Operational","PCORP","PCORP","U"," ","","","33kV to 92kV","Tulelake","Siskiyou","96134","CA"," ","YES","",""
"SS1068","Casa Diablo"," ","Operational","SCE","SCE","M"," ","","YES","110kV to 161kV","Mammoth Lakes","Mono","93546","CA"," ","YES","",""
"SS1070","Lee Vining"," ","Operational","SCE","SCE","M"," ","","YES","110kV to 161kV","Lee Vining","Mono","93541","CA"," ","YES","",""
"SS1071","Lundy"," ","Operational","SCE","SCE","M"," ","","","33kV to 92kV","Lee Vining","Mono","93541","CA"," ","YES","",""
"SS1075","Sherwin"," ","Operational","SCE","SCE","M"," ","","YES","110kV to 161kV","Bishop","Mono","93514","CA"," ","YES","",""
"SS1076","Zack"," ","Operational","SCE","SCE","M"," ","","","33kV to 92kV","Bishop","Mono","93514","CA"," ","YES","",""
"SS1077","Texaco"," ","Operational","PG&E","PG&E","L"," ","","","33kV to 92kV","San Ardo","Monterey","93450","CA"," ","YES","",""
"SS1078","Basic Vegetable"," ","Operational","Other","Other","L"," ","","","33kV to 92kV","King City","Monterey","93930","CA"," ","YES","",""
"SS1079","Boronda"," ","Operational","PG&E","PG&E","L"," ","","YES","110kV to 161kV","Salinas","Monterey","93907","CA"," ","YES","",""
"SS1080","Buena Vista"," ","Operational","PG&E","PG&E","L"," ","","","33kV to 92kV","Salinas","Monterey","93901","CA"," ","YES","",""
"SS1081","Camphora"," ","Operational","PG&E","PG&E","L"," ","","","33kV to 92kV","Soledad","Monterey","93960","CA"," ","YES","",""
"SS1082","Castroville"," ","Operational","PG&E","PG&E","M"," ","","YES","110kV to 161kV","Castroville","Monterey","95012","CA"," ","YES","",""
"SS1083","Chualar"," ","Operational","PG&E","PG&E","L"," ","","","33kV to 92kV","Salinas","Monterey","93908","CA"," ","YES","",""
"SS1084","Coburn"," ","Operational","PG&E","PG&E","L"," ","","","220kV to 287kV","King City","Monterey","93930","CA"," ","YES","YES",""
"SS1085","Del Monte"," ","Operational","PG&E","PG&E","L"," ","","YES","110kV to 161kV","Monterey","Monterey","93940","CA"," ","YES","",""
"SS1087","Edward Pike Co."," ","Operational","PG&E","PG&E","L"," ","","","33kV to 92kV","Salinas","Monterey","93908","CA"," ","YES","",""
"SS1088","Fort Ord"," ","Operational","PG&E","PG&E","L"," ","","YES","110kV to 161kV","Seaside","Monterey","93955","CA"," ","","",""
"SS1089","Gabilan"," ","Operational","PG&E","PG&E","M"," ","","","33kV to 92kV","Salinas","Monterey","93906","CA"," ","YES","",""
"SS1090","Gonzales"," ","Operational","PG&E","PG&E","L"," ","","","33kV to 92kV","Gonzales","Monterey","93926","CA"," ","YES","",""
"SS1091","Hatton"," ","Operational","PG&E","PG&E","L"," ","","","33kV to 92kV","Carmel","Monterey","93923","CA"," ","YES","",""
"SS1092","Industrial Acres"," ","Operational","PG&E","PG&E","L"," ","","","33kV to 92kV","Salinas","Monterey","93901","CA"," ","YES","",""
"SS1093","Jolon"," ","Operational","PG&E","PG&E","L"," ","","","33kV to 92kV","King City","Monterey","93930","CA"," ","YES","",""
"SS1095","Lagunitas"," ","Operational","PG&E","PG&E","M"," ","","","33kV to 92kV","Salinas","Monterey","93908","CA"," ","YES","",""
"SS1096","Laureles"," ","Operational","PG&E","PG&E","L"," ","","","33kV to 92kV","Carmel Valley","Monterey","93924","CA"," ","YES","",""
"SS1097","Los Coches"," ","Operational","PG&E","PG&E","L"," ","","","33kV to 92kV","Soledad","Monterey","93960","CA"," ","YES","",""
"SS1098","Los Ositos"," ","Operational","PG&E","PG&E","L"," ","","","33kV to 92kV","King City","Monterey","93930","CA"," ","YES","",""
"SS1099","Manzanita"," ","Operational","PG&E","PG&E","L"," ","","YES","110kV to 161kV","Seaside","Monterey","93955","CA"," ","","",""
"SS1100","Monterey"," ","Operational","PG&E","PG&E","L"," ","","","33kV to 92kV","Monterey","Monterey","93940","CA"," ","YES","",""
"SS1101","Monterey Navy Lab."," ","Operational","PG&E","PG&E","L"," ","","","33kV to 92kV","Monterey","Monterey","93940","CA"," ","YES","",""
"SS1102","Navy School"," ","Operational","PG&E","PG&E","L"," ","","","33kV to 92kV","Monterey","Monterey","93943","CA"," ","YES","",""
"SS1103","Fresh Express","NESTLE","Operational","Other","Other","L"," ","","","33kV to 92kV","Salinas","Monterey","93901","CA"," ","YES","",""
"SS1104","Oil Fields"," ","Operational","PG&E","PG&E","L"," ","","","33kV to 92kV","San Ardo","Monterey","93450","CA"," ","YES","",""
"SS1105","Otter"," ","Operational","PG&E","PG&E","L"," ","","","33kV to 92kV","Carmel","Monterey","93923","CA"," ","YES","",""
"SS1106","Prunedale"," ","Operational","PG&E","PG&E","M"," ","","YES","110kV to 161kV","Salinas","Monterey","93907","CA"," ","","",""
"SS1108","Salinas"," ","Operational","PG&E","PG&E","L"," ","","YES","110kV to 161kV","Salinas","Monterey","93901","CA"," ","YES","",""
"SS1109","Salinas River"," ","Operational","Other","Other","L"," ","","","33kV to 92kV","San Ardo","Monterey","93450","CA"," ","YES","",""
"SS1110","San Ardo"," ","Operational","PG&E","PG&E","L"," ","","","33kV to 92kV","San Ardo","Monterey","93450","CA"," ","YES","",""
"SS1111","Sargent Canyon"," ","Operational","Other","Other","L"," ","","","33kV to 92kV","San Ardo","Monterey","93450","CA"," ","YES","",""
"SS1112","Soledad"," ","Operational","PG&E","PG&E","L"," ","","YES","110kV to 161kV","Soledad","Monterey","93960","CA"," ","YES","",""
"SS1113","Spence"," ","Operational","PG&E","PG&E","L"," ","","","33kV to 92kV","Salinas","Monterey","93908","CA"," ","YES","",""
"SS1114","Viejo"," ","Operational","PG&E","PG&E","L"," ","","","33kV to 92kV","Monterey","Monterey","93940","CA"," ","YES","",""
"SS1116","Basalt"," ","Operational","PG&E","PG&E","M"," ","","","33kV to 92kV","Napa","Napa","94558","CA"," ","YES","",""
"SS1117","Calistoga"," ","Operational","PG&E","PG&E","M"," ","","","33kV to 92kV","Calistoga","Napa","94515","CA"," ","YES","",""
"SS1118","Highway"," ","Operational","PG&E","PG&E","M"," ","","YES","110kV to 161kV","American Canyon","Napa","94503","CA"," ","","",""
"SS1119","Monticello"," ","Operational","PG&E","PG&E","M"," ","","YES","110kV to 161kV","Napa","Napa","94558","CA"," ","","",""
"SS1120","Napa"," ","Operational","PG&E","PG&E","M"," ","","YES","110kV to 161kV","Napa","Napa","94559","CA"," ","YES","",""
"SS1121","Pueblo"," ","Operational","PG&E","PG&E","M"," ","","YES","110kV to 161kV","Napa","Napa","94558","CA"," ","","",""
"SS1122","Silverado"," ","Operational","PG&E","PG&E","M"," ","","YES","110kV to 161kV","Saint Helena","Napa","94574","CA"," ","YES","",""
"SS1124","Tulucay"," ","Operational","PG&E","PG&E","M"," ","","","220kV to 287kV","Napa","Napa","94558","CA"," ","YES","YES",""
"SS1125","Glenshire","GLENSHIRE MARTIS VALLEY","Operational","Other","Other","U"," ","","","33kV to 92kV","Truckee","Nevada","96161","CA"," ","YES","",""
"SS1128","Truckee","NORTH TRUCKEE","Operational","Other","Other","U"," ","","","33kV to 92kV","Truckee","Nevada","96161","CA"," ","YES","",""
"SS1130","Brunswick"," ","Operational","PG&E","PG&E","U"," ","","YES","110kV to 161kV","Grass Valley","Nevada","95945","CA"," ","","",""
"SS1131","Columbia Hill"," ","Operational","PG&E","PG&E","U"," ","","","33kV to 92kV","Nevada City","Nevada","95959","CA"," ","YES","",""
"SS1132","Grass Valley"," ","Operational","PG&E","PG&E","U"," ","","","33kV to 92kV","Grass Valley","Nevada","95945","CA"," ","YES","",""
"SS1133","Higgins"," ","Operational","PG&E","PG&E","M"," ","","YES","110kV to 161kV","Grass Valley","Nevada","95949","CA"," ","","",""
"SS1134","Smartsville"," ","Operational","PG&E","PG&E","U"," ","","","33kV to 92kV","Smartville","Yuba","95977","CA"," ","YES","",""
"SS1135","Ammonia"," ","Operational","SCE","SCE","L"," ","","","33kV to 92kV","Brea","Orange","92823","CA"," ","YES","",""
"SS1136","Apollo"," ","Operational","SCE","SCE","L"," ","","","33kV to 92kV","Huntington Beach","Orange","92647","CA"," ","YES","",""
"SS1137","Atwood"," ","Operational","SCE","SCE","L"," ","","","33kV to 92kV","Placentia","Orange","92870","CA"," ","YES","",""
"SS1138","Barre"," ","Operational","SCE","SCE","L"," ","","","220kV to 287kV","Stanton","Orange","90680","CA"," ","YES","YES",""
"SS1139","Bayside"," ","Operational","SCE","SCE","L"," ","","","33kV to 92kV","Costa Mesa","Orange","92627","CA"," ","YES","",""
"SS1140","Bolsa"," ","Operational","SCE","SCE","L"," ","","","33kV to 92kV","Huntington Beach","Orange","92649","CA"," ","YES","",""
"SS1141","Borrego"," ","Operational","SCE","SCE","L"," ","","","33kV to 92kV","Laguna Beach","Orange","92651","CA"," ","YES","",""
"SS1142","Brea"," ","Operational","SCE","SCE","L"," ","","","33kV to 92kV","Brea","Orange","92821","CA"," ","YES","",""
"SS1143","Brookhurst"," ","Operational","SCE","SCE","L"," ","","","33kV to 92kV","Westminster","Orange","92683","CA"," ","YES","",""
"SS1144","Bryan"," ","Operational","SCE","SCE","L"," ","","","33kV to 92kV","Tustin","Orange","92782","CA"," ","YES","",""
"SS1146","Burris Pit","BURPIT","Operational","SCE","SCE","L"," ","","","33kV to 92kV","Anaheim","Orange","92806","CA"," ","YES","",""
"SS1147","Cabrillo"," ","Operational","SCE","SCE","L"," ","","","33kV to 92kV","Irvine","Orange","92612","CA"," ","YES","",""
"SS1148","Camden"," ","Operational","SCE","SCE","L"," ","","","33kV to 92kV","Santa Ana","Orange","92707","CA"," ","YES","",""
"SS1149","Canyon"," ","Operational","SCE","SCE","L"," ","","","33kV to 92kV","Anaheim","Orange","92807","CA"," ","YES","",""
"SS1150","Carolina","TITAN","Operational","SCE","SCE","L"," ","","","33kV to 92kV","Fullerton","Orange","92835","CA"," ","YES","",""
"SS1151","Chestnut"," ","Operational","SCE","SCE","L"," ","","","33kV to 92kV","Santa Ana","Orange","92705","CA"," ","YES","",""
"SS1152","Chip"," ","Operational","SCE","SCE","L"," ","","","33kV to 92kV","Newport Beach","Orange","92660","CA"," ","YES","",""
"SS1153","Chiquita"," ","Operational","SCE","SCE","L"," ","","","33kV to 92kV","Mission Viejo","Orange","92692","CA"," ","YES","",""
"SS1154","Coygen"," ","Operational","SCE","SCE","L"," ","","","33kV to 92kV","Newport Coast","Orange","92657","CA"," ","YES","",""
"SS1155","Crown"," ","Operational","SCE","SCE","L"," ","","","33kV to 92kV","Corona Del Mar","Orange","92625","CA"," ","YES","",""
"SS1156","Cypress"," ","Operational","SCE","SCE","L"," ","","","33kV to 92kV","Los Alamitos","Orange","90720","CA"," ","YES","",""
"SS1157","Ellis"," ","Operational","SCE","SCE","L"," ","","","220kV to 287kV","Huntington Beach","Orange","92646","CA"," ","YES","YES",""
"SS1158","Ely"," ","Operational","SCE","SCE","L"," ","","","33kV to 92kV","Buena Park","Orange","90620","CA"," ","YES","",""
"SS1159","Estrella","RUDD","Operational","SCE","SCE","L"," ","","","33kV to 92kV","Irvine","Orange","92606","CA"," ","YES","",""
"SS1160","Fairview"," ","Operational","SCE","SCE","L"," ","","","33kV to 92kV","Santa Ana","Orange","92707","CA"," ","YES","",""
"SS1161","Fullerton"," ","Operational","SCE","SCE","L"," ","","","33kV to 92kV","Fullerton","Orange","92832","CA"," ","YES","",""
"SS1162","Gilbert"," ","Operational","SCE","SCE","L"," ","","","33kV to 92kV","Fullerton","Orange","92833","CA"," ","YES","",""
"SS1163","Gisler"," ","Operational","SCE","SCE","L"," ","","","33kV to 92kV","Costa Mesa","Orange","92626","CA"," ","YES","",""
"SS1164","Hamilton"," ","Operational","SCE","SCE","L"," ","","","33kV to 92kV","Huntington Beach","Orange","92646","CA"," ","YES","",""
"SS1165","Irvine"," ","Operational","SCE","SCE","L"," ","","","33kV to 92kV","Irvine","Orange","92618","CA"," ","YES","",""
"SS1166","Johanna"," ","Operational","SCE","SCE","L"," ","","","220kV to 287kV","Santa Ana","Orange","92705","CA"," ","YES","YES",""
"SS1167","Johnair"," ","Operational","SCE","SCE","L"," ","","","33kV to 92kV","Santa Ana","Orange","92707","CA"," ","YES","",""
"SS1168","La Habra"," ","Operational","SCE","SCE","L"," ","","","33kV to 92kV","La Habra","Orange","90631","CA"," ","YES","",""
"SS1169","La Palma"," ","Operational","SCE","SCE","L"," ","","","33kV to 92kV","Buena Park","Orange","90620","CA"," ","YES","",""
"SS1170","La Veta"," ","Operational","SCE","SCE","L"," ","","","33kV to 92kV","Santa Ana","Orange","92705","CA"," ","YES","",""
"SS1171","Lafayette"," ","Operational","SCE","SCE","L"," ","","","33kV to 92kV","Costa Mesa","Orange","92627","CA"," ","YES","",""
"SS1172","Lambert"," ","Operational","SCE","SCE","L"," ","","","33kV to 92kV","Brea","Orange","92823","CA"," ","YES","",""
"SS1173","Lampson"," ","Operational","SCE","SCE","L"," ","","","33kV to 92kV","Garden Grove","Orange","92840","CA"," ","YES","",""
"SS1174","Lewis"," ","Operational","Other","Other","L"," ","","","220kV to 287kV","Anaheim","Orange","92805","CA"," ","YES","YES",""
"SS1175","Limestone"," ","Operational","SCE","SCE","L"," ","","","33kV to 92kV","Lake Forest","Orange","92630","CA"," ","YES","",""
"SS1176","Macarthur"," ","Operational","SCE","SCE","L"," ","","","33kV to 92kV","Newport Beach","Orange","92660","CA"," ","YES","",""
"SS1177","Marion"," ","Operational","SCE","SCE","L"," ","","","33kV to 92kV","Cypress","Orange","90630","CA"," ","YES","",""
"SS1178","Modena"," ","Operational","SCE","SCE","L"," ","","","33kV to 92kV","Orange","Orange","92869","CA"," ","YES","",""
"SS1179","Morro"," ","Operational","SCE","SCE","L"," ","","","33kV to 92kV","Laguna Beach","Orange","92651","CA"," ","YES","",""
"SS1180","Moulton"," ","Operational","SCE","SCE","L"," ","","","33kV to 92kV","Lake Forest","Orange","92630","CA"," ","YES","",""
"SS1181","Coyote Creek"," ","Operational","Other","Other","L"," ","","","33kV to 92kV","La Habra","Orange","90631","CA"," ","YES","",""
"SS1182","Yorba Linda","DIEMER","Operational","Other","Other","L"," ","","","33kV to 92kV","Yorba Linda","Orange","92886","CA"," ","YES","",""
"SS1183","Niguel"," ","Operational","SCE","SCE","L"," ","","","33kV to 92kV","Aliso Viejo","Orange","92656","CA"," ","YES","",""
"SS1184","Norseal"," ","Operational","SCE","SCE","L"," ","","","33kV to 92kV","Seal Beach","Orange","90740","CA"," ","YES","",""
"SS1185","Norweld"," ","Operational","SCE","SCE","L"," ","","","33kV to 92kV","Brea","Orange","92821","CA"," ","YES","",""
"SS1186","Oceanview"," ","Operational","SCE","SCE","L"," ","","","33kV to 92kV","Huntington Beach","Orange","92647","CA"," ","YES","",""
"SS1187","Orange"," ","Operational","SCE","SCE","L"," ","","","33kV to 92kV","Orange","Orange","92868","CA"," ","YES","",""
"SS1188","Kiwi","ORANGEWATER","Operational","SCE","SCE","L"," ","","","33kV to 92kV","Fountain Valley","Orange","92708","CA"," ","YES","",""
"SS1189","Orcogen"," ","Operational","SCE","SCE","L"," ","","","33kV to 92kV","Huntington Beach","Orange","92646","CA"," ","YES","",""
"SS1190","Paper"," ","Operational","SCE","SCE","L"," ","","","33kV to 92kV","Fullerton","Orange","92831","CA"," ","YES","",""
"SS1191","Parkwood"," ","Operational","SCE","SCE","L"," ","","","33kV to 92kV","La Habra","Orange","90631","CA"," ","YES","",""
"SS1192","Placentia"," ","Operational","SCE","SCE","L"," ","","","33kV to 92kV","Placentia","Orange","92870","CA"," ","YES","",""
"SS1193","Recovery"," ","Operational","SCE","SCE","L"," ","","","33kV to 92kV","Huntington Beach","Orange","92648","CA"," ","YES","",""
"SS1194","Santiago"," ","Operational","SCE","SCE","L"," ","","","220kV to 287kV","Irvine","Orange","92618","CA"," ","YES","YES",""
"SS1195","Serrano"," ","Operational","SCE","SCE","L"," ","","","345kV to 500kV","Orange","Orange","92867","CA"," ","","YES","YES"
"SS1196","Shawnee"," ","Operational","SCE","SCE","L"," ","","","33kV to 92kV","Westminster","Orange","92683","CA"," ","YES","",""
"SS1197","Slater"," ","Operational","SCE","SCE","L"," ","","","33kV to 92kV","Huntington Beach","Orange","92648","CA"," ","YES","",""
"SS1198","Smithtool"," ","Operational","SCE","SCE","L"," ","","","33kV to 92kV","Irvine","Orange","92614","CA"," ","YES","",""
"SS1199","Soco"," ","Operational","SCE","SCE","L"," ","","","33kV to 92kV","Huntington Beach","Orange","92648","CA"," ","YES","",""
"SS1200","Steelcase"," ","Operational","SCE","SCE","L"," ","","","33kV to 92kV","Tustin","Orange","92782","CA"," ","YES","",""
"SS1201","Sullivan"," ","Operational","SCE","SCE","L"," ","","","33kV to 92kV","Santa Ana","Orange","92704","CA"," ","YES","",""
"SS1202","Sunnyhills"," ","Operational","SCE","SCE","L"," ","","","33kV to 92kV","Fullerton","Orange","92833","CA"," ","YES","",""
"SS1203","Talbert"," ","Operational","SCE","SCE","L"," ","","","33kV to 92kV","Santa Ana","Orange","92704","CA"," ","YES","",""
"SS1204","Team"," ","Operational","SCE","SCE","L"," ","","","33kV to 92kV","Westminster","Orange","92683","CA"," ","YES","",""
"SS1205","Trask"," ","Operational","SCE","SCE","L"," ","","","33kV to 92kV","Garden Grove","Orange","92844","CA"," ","YES","",""
"SS1206","Vera"," ","Operational","SCE","SCE","L"," ","","","33kV to 92kV","Garden Grove","Orange","92843","CA"," ","YES","",""
"SS1207","Villa Park"," ","Operational","SCE","SCE","L"," ","","","220kV to 287kV","Orange","Orange","92865","CA"," ","YES","YES",""
"SS1208","Washington"," ","Operational","SCE","SCE","L"," ","","","33kV to 92kV","Santa Ana","Orange","92701","CA"," ","YES","",""
"SS1209","Wave"," ","Operational","SCE","SCE","L"," ","","","33kV to 92kV","Huntington Beach","Orange","92648","CA"," ","YES","",""
"SS1210","Yorba Linda"," ","Operational","SCE","SCE","L"," ","","","33kV to 92kV","Yorba Linda","Orange","92886","CA"," ","YES","",""
"SS1211","Capistrano"," ","Operational","SDG&E","SDG&E","L"," ","","YES","110kV to 161kV","San Juan Capistrano","Orange","92675","CA"," ","","",""
"SS1212","Cristianitos"," ","Operational","SDG&E","SDG&E","L"," ","","YES","110kV to 161kV","San Juan Capistrano","San Diego","92675","CA"," ","","",""
"SS1213","Laguna Niguel"," ","Operational","SDG&E","SDG&E","L"," ","","YES","110kV to 161kV","Laguna Niguel","Orange","92677","CA"," ","","",""
"SS1214","San Mateo"," ","Operational","SDG&E","SDG&E","L"," ","","YES","110kV to 161kV","San Clemente","Orange","92672","CA"," ","YES","",""
"SS1215","Trabuco"," ","Operational","SDG&E","SDG&E","L"," ","","YES","110kV to 161kV","Laguna Niguel","Orange","92677","CA"," ","","",""
"SS1218","Brockway"," ","Operational","Other","Other","U"," ","","","33kV to 92kV","Kings Beach","Placer","96143","CA"," ","YES","",""
"SS1219","Northstar"," ","Operational","Other","Other","U"," ","","","33kV to 92kV","Truckee","Placer","96161","CA"," ","YES","",""
"SS1220","Squaw Valley"," ","Operational","Other","Other","U"," ","","","33kV to 92kV","Tahoe City","Placer","96145","CA"," ","YES","",""
"SS1221","Tahoe City"," ","Operational","Other","Other","U"," ","","","33kV to 92kV","Tahoe City","Placer","96145","CA"," ","YES","",""
"SS1222","Burney Lumber Co."," ","Operational","Other","Other","U"," ","","","33kV to 92kV","Truckee","Nevada","96161","CA"," ","YES","",""
"SS1223","Truckee Donner"," ","Operational","Other","Other","U"," ","","","33kV to 92kV","Truckee","Nevada","96161","CA"," ","YES","",""
"SS1224","Martis Valley","SPANT MILL","Operational","Other","Other","U"," ","","","33kV to 92kV","Truckee","Nevada","96161","CA"," ","YES","",""
"SS1226","Atlantic"," ","Operational","PG&E","PG&E","M"," ","","","220kV to 287kV","Roseville","Placer","95678","CA"," ","YES","YES",""
"SS1227","Auburn"," ","Operational","PG&E","PG&E","M"," ","","","33kV to 92kV","Auburn","Placer","95603","CA"," ","YES","",""
"SS1228","Bell"," ","Operational","PG&E","PG&E","M"," ","","YES","110kV to 161kV","Auburn","Placer","95602","CA"," ","","",""
